{
  "tenantId": "kl",
  "moduleName": "common-masters",
  "District": [
    {
      "name": "Kheri",
      "namelocal": "ഖേരി ",
      "code": "DISTRICT_173",
      "id": 173,
      "stateid": 9,
      "statecode": "STATE_UTTARPRADESH",
      "active": true,
      "type": "COMMON"
    },
    {
      "name": "Thiruvananthapuram",
      "namelocal": "തിരുവനന്തപുരം",
      "code": "DISTRICT_1",
      "id": 1,
      "stateid": 32,
      "statecode": "STATE_KERALA",
      "active": true,
      "type": "COMMON"
    },
    {
      "name": "Kollam",
      "namelocal": "കൊല്ലം",
      "code": "DISTRICT_2",
      "id": 2,
      "stateid": 32,
      "statecode": "STATE_KERALA",
      "active": true,
      "type": "COMMON"
    },
    {
      "name": "Pathanamthitta",
      "namelocal": "പത്തനംതിട്ട",
      "code": "DISTRICT_3",
      "id": 3,
      "stateid": 32,
      "statecode": "STATE_KERALA",
      "active": true,
      "type": "COMMON"
    },
    {
      "name": "Alappuzha",
      "namelocal": "ആലപ്പുഴ",
      "code": "DISTRICT_4",
      "id": 4,
      "stateid": 32,
      "statecode": "STATE_KERALA",
      "active": true,
      "type": "COMMON"
    },
    {
      "name": "Kottayam",
      "namelocal": "കോട്ടയം",
      "code": "DISTRICT_5",
      "id": 5,
      "stateid": 32,
      "statecode": "STATE_KERALA",
      "active": true,
      "type": "COMMON"
    },
    {
      "name": "Idukki",
      "namelocal": "ഇടുക്കി",
      "code": "DISTRICT_6",
      "id": 6,
      "stateid": 32,
      "statecode": "STATE_KERALA",
      "active": true,
      "type": "COMMON"
    },
    {
      "name": "Ernakulam",
      "namelocal": "എറണാകുളം",
      "code": "DISTRICT_7",
      "id": 7,
      "stateid": 32,
      "statecode": "STATE_KERALA",
      "active": true,
      "type": "COMMON"
    },
    {
      "name": "Thrissur",
      "namelocal": "തൃശ്ശൂര്‍",
      "code": "DISTRICT_8",
      "id": 8,
      "stateid": 32,
      "statecode": "STATE_KERALA",
      "active": true,
      "type": "COMMON"
    },
    {
      "name": "Palakkad",
      "namelocal": "പാലക്കാട്",
      "code": "DISTRICT_9",
      "id": 9,
      "stateid": 32,
      "statecode": "STATE_KERALA",
      "active": true,
      "type": "COMMON"
    },
    {
      "name": "Malappuram",
      "namelocal": "മലപ്പുറം",
      "code": "DISTRICT_10",
      "id": 10,
      "stateid": 32,
      "statecode": "STATE_KERALA",
      "active": true,
      "type": "COMMON"
    },
    {
      "name": "Kozhikode",
      "namelocal": "കോഴിക്കോട്",
      "code": "DISTRICT_11",
      "id": 11,
      "stateid": 32,
      "statecode": "STATE_KERALA",
      "active": true,
      "type": "COMMON"
    },
    {
      "name": "Wayanad",
      "namelocal": "വയനാട്",
      "code": "DISTRICT_12",
      "id": 12,
      "stateid": 32,
      "statecode": "STATE_KERALA",
      "active": true,
      "type": "COMMON"
    },
    {
      "name": "Kannur",
      "namelocal": "കണ്ണൂര്‍",
      "code": "DISTRICT_13",
      "id": 13,
      "stateid": 32,
      "statecode": "STATE_KERALA",
      "active": true,
      "type": "COMMON"
    },
    {
      "name": "Kasaragod",
      "namelocal": "കാസര്‍കോഡ്",
      "code": "DISTRICT_14",
      "id": 14,
      "stateid": 32,
      "statecode": "STATE_KERALA",
      "active": true,
      "type": "COMMON"
    },
    {
      "name": "Kupwara",
      "namelocal": "കുപ്‍വാറ",
      "code": "DISTRICT_15",
      "id": 15,
      "stateid": 11,
      "statecode": "STATE_SIKKIM",
      "active": true,
      "type": "COMMON"
    },
    {
      "name": "Baramulla",
      "namelocal": "ബറാമുള്ള",
      "code": "DISTRICT_16",
      "id": 16,
      "stateid": 1,
      "statecode": "STATE_JAMMU_AND_KASHMIR",
      "active": true,
      "type": "COMMON"
    },
    {
      "name": "Srinagar",
      "namelocal": "ശ്രീനഗര്‍",
      "code": "DISTRICT_17",
      "id": 17,
      "stateid": 1,
      "statecode": "STATE_JAMMU_AND_KASHMIR",
      "active": true,
      "type": "COMMON"
    },
    {
      "name": "Badgam",
      "namelocal": "ബഡ്ഗാം",
      "code": "DISTRICT_18",
      "id": 18,
      "stateid": 1,
      "statecode": "STATE_JAMMU_AND_KASHMIR",
      "active": true,
      "type": "COMMON"
    },
    {
      "name": "Pulwama",
      "namelocal": "പുല്‍വാമ",
      "code": "DISTRICT_19",
      "id": 19,
      "stateid": 1,
      "statecode": "STATE_JAMMU_AND_KASHMIR",
      "active": true,
      "type": "COMMON"
    },
    {
      "name": "Anantnag",
      "namelocal": "അനന്തനാഗ്",
      "code": "DISTRICT_20",
      "id": 20,
      "stateid": 1,
      "statecode": "STATE_JAMMU_AND_KASHMIR",
      "active": true,
      "type": "COMMON"
    },
    {
      "name": "Doda",
      "namelocal": "ഡോഡ",
      "code": "DISTRICT_23",
      "id": 23,
      "stateid": 1,
      "statecode": "STATE_JAMMU_AND_KASHMIR",
      "active": true,
      "type": "COMMON"
    },
    {
      "name": "Kishtwar",
      "namelocal": "കിഷ്ത്വര്‍",
      "code": "DISTRICT_24",
      "id": 24,
      "stateid": 1,
      "statecode": "STATE_JAMMU_AND_KASHMIR",
      "active": true,
      "type": "COMMON"
    },
    {
      "name": "Ramban",
      "namelocal": "രംബന്‍",
      "code": "DISTRICT_25",
      "id": 25,
      "stateid": 1,
      "statecode": "STATE_JAMMU_AND_KASHMIR",
      "active": true,
      "type": "COMMON"
    },
    {
      "name": "Udhampur",
      "namelocal": "ഉധംപൂര്‍",
      "code": "DISTRICT_26",
      "id": 26,
      "stateid": 1,
      "statecode": "STATE_JAMMU_AND_KASHMIR",
      "active": true,
      "type": "COMMON"
    },
    {
      "name": "Poonch",
      "namelocal": "പൂഞ്ച്",
      "code": "DISTRICT_27",
      "id": 27,
      "stateid": 1,
      "statecode": "STATE_JAMMU_AND_KASHMIR",
      "active": true,
      "type": "COMMON"
    },
    {
      "name": "Rajauri",
      "namelocal": "റജൗറി",
      "code": "DISTRICT_28",
      "id": 28,
      "stateid": 1,
      "statecode": "STATE_JAMMU_AND_KASHMIR",
      "active": true,
      "type": "COMMON"
    },
    {
      "name": "Jammu",
      "namelocal": "ജമ്മു",
      "code": "DISTRICT_29",
      "id": 29,
      "stateid": 1,
      "statecode": "STATE_JAMMU_AND_KASHMIR",
      "active": true,
      "type": "COMMON"
    },
    {
      "name": "Kathua",
      "namelocal": "കത്വ",
      "code": "DISTRICT_30",
      "id": 30,
      "stateid": 1,
      "statecode": "STATE_JAMMU_AND_KASHMIR",
      "active": true,
      "type": "COMMON"
    },
    {
      "name": "Bandipora",
      "namelocal": "ബന്തിപ്പുര",
      "code": "DISTRICT_31",
      "id": 31,
      "stateid": 1,
      "statecode": "STATE_JAMMU_AND_KASHMIR",
      "active": true,
      "type": "COMMON"
    },
    {
      "name": "Ganderbal",
      "namelocal": "ഗന്ധര്‍ബല്‍",
      "code": "DISTRICT_32",
      "id": 32,
      "stateid": 1,
      "statecode": "STATE_JAMMU_AND_KASHMIR",
      "active": true,
      "type": "COMMON"
    },
    {
      "name": "Kulgam",
      "namelocal": "കുല്‍ഗാം",
      "code": "DISTRICT_33",
      "id": 33,
      "stateid": 1,
      "statecode": "STATE_JAMMU_AND_KASHMIR",
      "active": true,
      "type": "COMMON"
    },
    {
      "name": "Reasi",
      "namelocal": "റിയാസി",
      "code": "DISTRICT_34",
      "id": 34,
      "stateid": 1,
      "statecode": "STATE_JAMMU_AND_KASHMIR",
      "active": true,
      "type": "COMMON"
    },
    {
      "name": "Samba",
      "namelocal": "സാംബ",
      "code": "DISTRICT_35",
      "id": 35,
      "stateid": 1,
      "statecode": "STATE_JAMMU_AND_KASHMIR",
      "active": true,
      "type": "COMMON"
    },
    {
      "name": "Shopian",
      "namelocal": "ഷോപിയാന്‍",
      "code": "DISTRICT_36",
      "id": 36,
      "stateid": 1,
      "statecode": "STATE_JAMMU_AND_KASHMIR",
      "active": true,
      "type": "COMMON"
    },
    {
      "name": "Chamba",
      "namelocal": "ചമ്പ",
      "code": "DISTRICT_37",
      "id": 37,
      "stateid": 2,
      "statecode": "STATE_HIMACHAL_PRADESH",
      "active": true,
      "type": "COMMON"
    },
    {
      "name": "Kangra",
      "namelocal": "കംഗ്ര",
      "code": "DISTRICT_38",
      "id": 38,
      "stateid": 2,
      "statecode": "STATE_HIMACHAL_PRADESH",
      "active": true,
      "type": "COMMON"
    },
    {
      "name": "Lahul And Spiti",
      "namelocal": "ലഹൗള്‍ & സ്പിറ്റി",
      "code": "DISTRICT_39",
      "id": 39,
      "stateid": 2,
      "statecode": "STATE_HIMACHAL_PRADESH",
      "active": true,
      "type": "COMMON"
    },
    {
      "name": "Kullu",
      "namelocal": "കുലു",
      "code": "DISTRICT_40",
      "id": 40,
      "stateid": 2,
      "statecode": "STATE_HIMACHAL_PRADESH",
      "active": true,
      "type": "COMMON"
    },
    {
      "name": "Mandi",
      "namelocal": "മണ്ഡി",
      "code": "DISTRICT_41",
      "id": 41,
      "stateid": 2,
      "statecode": "STATE_HIMACHAL_PRADESH",
      "active": true,
      "type": "COMMON"
    },
    {
      "name": "Hamirpur",
      "namelocal": "ഹമിര്‍പുര്‍",
      "code": "DISTRICT_42",
      "id": 42,
      "stateid": 2,
      "statecode": "STATE_HIMACHAL_PRADESH",
      "active": true,
      "type": "COMMON"
    },
    {
      "name": "Una",
      "namelocal": "യൂണ",
      "code": "DISTRICT_43",
      "id": 43,
      "stateid": 2,
      "statecode": "STATE_HIMACHAL_PRADESH",
      "active": true,
      "type": "COMMON"
    },
    {
      "name": "Bilaspur",
      "namelocal": "ബിലാസ്പൂര്‍",
      "code": "DISTRICT_44",
      "id": 44,
      "stateid": 2,
      "statecode": "STATE_HIMACHAL_PRADESH",
      "active": true,
      "type": "COMMON"
    },
    {
      "name": "Solan",
      "namelocal": "സൊലാന്‍",
      "code": "DISTRICT_45",
      "id": 45,
      "stateid": 2,
      "statecode": "STATE_HIMACHAL_PRADESH",
      "active": true,
      "type": "COMMON"
    },
    {
      "name": "Sirmaur",
      "namelocal": "സിര്‍മൗര്‍",
      "code": "DISTRICT_46",
      "id": 46,
      "stateid": 2,
      "statecode": "STATE_HIMACHAL_PRADESH",
      "active": true,
      "type": "COMMON"
    },
    {
      "name": "Shimla",
      "namelocal": "സിംല",
      "code": "DISTRICT_47",
      "id": 47,
      "stateid": 2,
      "statecode": "STATE_HIMACHAL_PRADESH",
      "active": true,
      "type": "COMMON"
    },
    {
      "name": "Kinnaur",
      "namelocal": "കിനൌര്‍",
      "code": "DISTRICT_48",
      "id": 48,
      "stateid": 2,
      "statecode": "STATE_HIMACHAL_PRADESH",
      "active": true,
      "type": "COMMON"
    },
    {
      "name": "Gurdaspur",
      "namelocal": "ഗുരുദാസ്പൂര്‍",
      "code": "DISTRICT_49",
      "id": 49,
      "stateid": 3,
      "statecode": "STATE_PUNJAB",
      "active": true,
      "type": "COMMON"
    },
    {
      "name": "Amritsar",
      "namelocal": "അമൃത്‍സര്‍",
      "code": "DISTRICT_50",
      "id": 50,
      "stateid": 3,
      "statecode": "STATE_PUNJAB",
      "active": true,
      "type": "COMMON"
    },
    {
      "name": "Kapurthala",
      "namelocal": "കപൂര്‍ത്തല",
      "code": "DISTRICT_51",
      "id": 51,
      "stateid": 3,
      "statecode": "STATE_PUNJAB",
      "active": true,
      "type": "COMMON"
    },
    {
      "name": "Jalandhar",
      "namelocal": "ജലന്ധര്‍",
      "code": "DISTRICT_52",
      "id": 52,
      "stateid": 3,
      "statecode": "STATE_PUNJAB",
      "active": true,
      "type": "COMMON"
    },
    {
      "name": "Hoshiarpur",
      "namelocal": "ഹോഷിയാര്‍പുര്‍",
      "code": "DISTRICT_53",
      "id": 53,
      "stateid": 3,
      "statecode": "STATE_PUNJAB",
      "active": true,
      "type": "COMMON"
    },
    {
      "name": "Shahid Bhagat Singh Nagar",
      "namelocal": "സാഹിബ് ഭഗത് സിംഗ് നഗര്‍",
      "code": "DISTRICT_54",
      "id": 54,
      "stateid": 3,
      "statecode": "STATE_PUNJAB",
      "active": true,
      "type": "COMMON"
    },
    {
      "name": "Rupnagar",
      "namelocal": "രൂപ്‍നഗര്‍",
      "code": "DISTRICT_55",
      "id": 55,
      "stateid": 3,
      "statecode": "STATE_PUNJAB",
      "active": true,
      "type": "COMMON"
    },
    {
      "name": "Fatehgarh Sahib",
      "namelocal": "ഫത്തേഗഢ്സാഹിബ്",
      "code": "DISTRICT_56",
      "id": 56,
      "stateid": 3,
      "statecode": "STATE_PUNJAB",
      "active": true,
      "type": "COMMON"
    },
    {
      "name": "Ludhiana",
      "namelocal": "ലുധിയാന",
      "code": "DISTRICT_57",
      "id": 57,
      "stateid": 3,
      "statecode": "STATE_PUNJAB",
      "active": true,
      "type": "COMMON"
    },
    {
      "name": "Moga",
      "namelocal": "മോഗ",
      "code": "DISTRICT_58",
      "id": 58,
      "stateid": 3,
      "statecode": "STATE_PUNJAB",
      "active": true,
      "type": "COMMON"
    },
    {
      "name": "Firozepur",
      "namelocal": "ഫിറോസ്പുര്‍",
      "code": "DISTRICT_59",
      "id": 59,
      "stateid": 3,
      "statecode": "STATE_PUNJAB",
      "active": true,
      "type": "COMMON"
    },
    {
      "name": "Sri Muktsar Sahib",
      "namelocal": "ശ്രീ മുക്ത്‍സര്‍ സാഹിബ്",
      "code": "DISTRICT_60",
      "id": 60,
      "stateid": 3,
      "statecode": "STATE_PUNJAB",
      "active": true,
      "type": "COMMON"
    },
    {
      "name": "Faridkot",
      "namelocal": "ഫരീദ്കോട്ട്",
      "code": "DISTRICT_61",
      "id": 61,
      "stateid": 3,
      "statecode": "STATE_PUNJAB",
      "active": true,
      "type": "COMMON"
    },
    {
      "name": "Bathinda",
      "namelocal": "ഭട്ടിന്‍ഡ",
      "code": "DISTRICT_62",
      "id": 62,
      "stateid": 3,
      "statecode": "STATE_PUNJAB",
      "active": true,
      "type": "COMMON"
    },
    {
      "name": "Mansa",
      "namelocal": "മാന്‍സ",
      "code": "DISTRICT_63",
      "id": 63,
      "stateid": 3,
      "statecode": "STATE_PUNJAB",
      "active": true,
      "type": "COMMON"
    },
    {
      "name": "Sangrur",
      "namelocal": "സന്‍ഗ്രൂര്‍",
      "code": "DISTRICT_64",
      "id": 64,
      "stateid": 3,
      "statecode": "STATE_PUNJAB",
      "active": true,
      "type": "COMMON"
    },
    {
      "name": "Patiala",
      "namelocal": "പട്യാല",
      "code": "DISTRICT_65",
      "id": 65,
      "stateid": 3,
      "statecode": "STATE_PUNJAB",
      "active": true,
      "type": "COMMON"
    },
    {
      "name": "Barnala",
      "namelocal": "ബര്‍ണല",
      "code": "DISTRICT_66",
      "id": 66,
      "stateid": 3,
      "statecode": "STATE_PUNJAB",
      "active": true,
      "type": "COMMON"
    },
    {
      "name": "Fazilka",
      "namelocal": "ഫസില്‍ക",
      "code": "DISTRICT_67",
      "id": 67,
      "stateid": 3,
      "statecode": "STATE_PUNJAB",
      "active": true,
      "type": "COMMON"
    },
    {
      "name": "Pathankot",
      "namelocal": "പത്താന്‍കോട്ട്",
      "code": "DISTRICT_68",
      "id": 68,
      "stateid": 3,
      "statecode": "STATE_PUNJAB",
      "active": true,
      "type": "COMMON"
    },
    {
      "name": "S.A.S Nagar",
      "namelocal": "എസ്എഎസ് നഗര്‍",
      "code": "DISTRICT_69",
      "id": 69,
      "stateid": 3,
      "statecode": "STATE_PUNJAB",
      "active": true,
      "type": "COMMON"
    },
    {
      "name": "Tarn Taran",
      "namelocal": "താണ്‍ തരണ്‍",
      "code": "DISTRICT_70",
      "id": 70,
      "stateid": 3,
      "statecode": "STATE_PUNJAB",
      "active": true,
      "type": "COMMON"
    },
    {
      "name": "Chandigarh",
      "namelocal": "ചണ്ഡീഗഢ്",
      "code": "DISTRICT_71",
      "id": 71,
      "stateid": 4,
      "statecode": "STATE_CHANDIGARH",
      "active": true,
      "type": "COMMON"
    },
    {
      "name": "Uttar Kashi",
      "namelocal": "ഉത്തര്‍കാശി",
      "code": "DISTRICT_72",
      "id": 72,
      "stateid": 5,
      "statecode": "STATE_UTTARAKHAND",
      "active": true,
      "type": "COMMON"
    },
    {
      "name": "Chamoli",
      "namelocal": "ചമോലി",
      "code": "DISTRICT_73",
      "id": 73,
      "stateid": 5,
      "statecode": "STATE_UTTARAKHAND",
      "active": true,
      "type": "COMMON"
    },
    {
      "name": "Rudra Prayag",
      "namelocal": "രുദ്രപ്രയാഗ്",
      "code": "DISTRICT_74",
      "id": 74,
      "stateid": 5,
      "statecode": "STATE_UTTARAKHAND",
      "active": true,
      "type": "COMMON"
    },
    {
      "name": "Tehri Garhwal",
      "namelocal": "തേഹ്രി ഗഢ്‍വാള്‍",
      "code": "DISTRICT_75",
      "id": 75,
      "stateid": 5,
      "statecode": "STATE_UTTARAKHAND",
      "active": true,
      "type": "COMMON"
    },
    {
      "name": "Dehradun",
      "namelocal": "ഡെറാഡൂണ്‍",
      "code": "DISTRICT_76",
      "id": 76,
      "stateid": 5,
      "statecode": "STATE_UTTARAKHAND",
      "active": true,
      "type": "COMMON"
    },
    {
      "name": "Pauri Garhwal",
      "namelocal": "പൗരി ഗഢ്‍വാള്‍",
      "code": "DISTRICT_77",
      "id": 77,
      "stateid": 5,
      "statecode": "STATE_UTTARAKHAND",
      "active": true,
      "type": "COMMON"
    },
    {
      "name": "Pithoragarh",
      "namelocal": "പിത്തോറഗഢ്",
      "code": "DISTRICT_78",
      "id": 78,
      "stateid": 5,
      "statecode": "STATE_UTTARAKHAND",
      "active": true,
      "type": "COMMON"
    },
    {
      "name": "Bageshwar",
      "namelocal": "ബാഹേശ്വര്‍",
      "code": "DISTRICT_79",
      "id": 79,
      "stateid": 5,
      "statecode": "STATE_UTTARAKHAND",
      "active": true,
      "type": "COMMON"
    },
    {
      "name": "Almora",
      "namelocal": "അല്‍മോറ",
      "code": "DISTRICT_80",
      "id": 80,
      "stateid": 5,
      "statecode": "STATE_UTTARAKHAND",
      "active": true,
      "type": "COMMON"
    },
    {
      "name": "Champawat",
      "namelocal": "ചമ്പാവത്",
      "code": "DISTRICT_81",
      "id": 81,
      "stateid": 5,
      "statecode": "STATE_UTTARAKHAND",
      "active": true,
      "type": "COMMON"
    },
    {
      "name": "Nainital",
      "namelocal": "നൈനിത്താള്‍",
      "code": "DISTRICT_82",
      "id": 82,
      "stateid": 5,
      "statecode": "STATE_UTTARAKHAND",
      "active": true,
      "type": "COMMON"
    },
    {
      "name": "Udam Singh Nagar",
      "namelocal": "ഊതം സിങ് നഗര്‍",
      "code": "DISTRICT_83",
      "id": 83,
      "stateid": 5,
      "statecode": "STATE_UTTARAKHAND",
      "active": true,
      "type": "COMMON"
    },
    {
      "name": "Haridwar",
      "namelocal": "ഹരിദ്വാര്‍",
      "code": "DISTRICT_84",
      "id": 84,
      "stateid": 5,
      "statecode": "STATE_UTTARAKHAND",
      "active": true,
      "type": "COMMON"
    },
    {
      "name": "Panchkula",
      "namelocal": "പഞ്ചകുല",
      "code": "DISTRICT_85",
      "id": 85,
      "stateid": 6,
      "statecode": "STATE_HARYANA",
      "active": true,
      "type": "COMMON"
    },
    {
      "name": "Ambala",
      "namelocal": "അമ്പാല",
      "code": "DISTRICT_86",
      "id": 86,
      "stateid": 6,
      "statecode": "STATE_HARYANA",
      "active": true,
      "type": "COMMON"
    },
    {
      "name": "Yamunanagar",
      "namelocal": "യമുനാനഗര്‍",
      "code": "DISTRICT_87",
      "id": 87,
      "stateid": 6,
      "statecode": "STATE_HARYANA",
      "active": true,
      "type": "COMMON"
    },
    {
      "name": "Kurukshetra",
      "namelocal": "കുരുക്ഷേത്ര",
      "code": "DISTRICT_88",
      "id": 88,
      "stateid": 6,
      "statecode": "STATE_HARYANA",
      "active": true,
      "type": "COMMON"
    },
    {
      "name": "Kaithal",
      "namelocal": "കൈതല്‍",
      "code": "DISTRICT_89",
      "id": 89,
      "stateid": 6,
      "statecode": "STATE_HARYANA",
      "active": true,
      "type": "COMMON"
    },
    {
      "name": "Karnal",
      "namelocal": "കര്‍ണാല്‍",
      "code": "DISTRICT_90",
      "id": 90,
      "stateid": 6,
      "statecode": "STATE_HARYANA",
      "active": true,
      "type": "COMMON"
    },
    {
      "name": "Panipat",
      "namelocal": "പാനിപട്ട്",
      "code": "DISTRICT_91",
      "id": 91,
      "stateid": 6,
      "statecode": "STATE_HARYANA",
      "active": true,
      "type": "COMMON"
    },
    {
      "name": "Sonipat",
      "namelocal": "സോണിപ്പട്ട്",
      "code": "DISTRICT_92",
      "id": 92,
      "stateid": 6,
      "statecode": "STATE_HARYANA",
      "active": true,
      "type": "COMMON"
    },
    {
      "name": "Jind",
      "namelocal": "ജീന്ദ്",
      "code": "DISTRICT_93",
      "id": 93,
      "stateid": 6,
      "statecode": "STATE_HARYANA",
      "active": true,
      "type": "COMMON"
    },
    {
      "name": "Fatehabad",
      "namelocal": "ഫത്തേബാദ്",
      "code": "DISTRICT_94",
      "id": 94,
      "stateid": 6,
      "statecode": "STATE_HARYANA",
      "active": true,
      "type": "COMMON"
    },
    {
      "name": "Sirsa",
      "namelocal": "സിര്‍സ",
      "code": "DISTRICT_95",
      "id": 95,
      "stateid": 6,
      "statecode": "STATE_HARYANA",
      "active": true,
      "type": "COMMON"
    },
    {
      "name": "Hisar",
      "namelocal": "ഹിസ്സാര്‍",
      "code": "DISTRICT_96",
      "id": 96,
      "stateid": 6,
      "statecode": "STATE_HARYANA",
      "active": true,
      "type": "COMMON"
    },
    {
      "name": "Bhiwani",
      "namelocal": "ഭിവാനി",
      "code": "DISTRICT_97",
      "id": 97,
      "stateid": 6,
      "statecode": "STATE_HARYANA",
      "active": true,
      "type": "COMMON"
    },
    {
      "name": "Rohtak",
      "namelocal": "റോത്തക്",
      "code": "DISTRICT_98",
      "id": 98,
      "stateid": 6,
      "statecode": "STATE_HARYANA",
      "active": true,
      "type": "COMMON"
    },
    {
      "name": "Jhajjar",
      "namelocal": "ജാഗര്‍",
      "code": "DISTRICT_99",
      "id": 99,
      "stateid": 6,
      "statecode": "STATE_HARYANA",
      "active": true,
      "type": "COMMON"
    },
    {
      "name": "Mahendragarh",
      "namelocal": "മഹേന്ദ്രഗഢ്",
      "code": "DISTRICT_100",
      "id": 100,
      "stateid": 6,
      "statecode": "STATE_HARYANA",
      "active": true,
      "type": "COMMON"
    },
    {
      "name": "Rewari",
      "namelocal": "റിവാറി",
      "code": "DISTRICT_101",
      "id": 101,
      "stateid": 6,
      "statecode": "STATE_HARYANA",
      "active": true,
      "type": "COMMON"
    },
    {
      "name": "Gurugram",
      "namelocal": "ഗുര്‍ഗാവ്",
      "code": "DISTRICT_102",
      "id": 102,
      "stateid": 6,
      "statecode": "STATE_HARYANA",
      "active": true,
      "type": "COMMON"
    },
    {
      "name": "Faridabad",
      "namelocal": "ഫരിദാബാദ്",
      "code": "DISTRICT_103",
      "id": 103,
      "stateid": 6,
      "statecode": "STATE_HARYANA",
      "active": true,
      "type": "COMMON"
    },
    {
      "name": "Charki Dadri",
      "namelocal": "ചര്‍ക്കി ദാദ്രി",
      "code": "DISTRICT_104",
      "id": 104,
      "stateid": 6,
      "statecode": "STATE_HARYANA",
      "active": true,
      "type": "COMMON"
    },
    {
      "name": "Mewat",
      "namelocal": "മേവത്",
      "code": "DISTRICT_105",
      "id": 105,
      "stateid": 6,
      "statecode": "STATE_HARYANA",
      "active": true,
      "type": "COMMON"
    },
    {
      "name": "Palwal",
      "namelocal": "പല്‍വാള്‍",
      "code": "DISTRICT_106",
      "id": 106,
      "stateid": 6,
      "statecode": "STATE_HARYANA",
      "active": true,
      "type": "COMMON"
    },
    {
      "name": "North West",
      "namelocal": "നോര്‍ത്ത് വെസ്റ്റ് ഡല്‍ഹി",
      "code": "DISTRICT_107",
      "id": 107,
      "stateid": 7,
      "statecode": "STATE_DELHI",
      "active": true,
      "type": "COMMON"
    },
    {
      "name": "North",
      "namelocal": "നോര്‍ത്ത് ഡല്‍ഹി",
      "code": "DISTRICT_108",
      "id": 108,
      "stateid": 7,
      "statecode": "STATE_DELHI",
      "active": true,
      "type": "COMMON"
    },
    {
      "name": "North East",
      "namelocal": "നോര്‍ത്ത് ഈസ്റ്റ് ഡല്‍ഹി",
      "code": "DISTRICT_109",
      "id": 109,
      "stateid": 7,
      "statecode": "STATE_DELHI",
      "active": true,
      "type": "COMMON"
    },
    {
      "name": "East",
      "namelocal": "ഈസ്റ്റ് ഡല്‍ഹി",
      "code": "DISTRICT_110",
      "id": 110,
      "stateid": 7,
      "statecode": "STATE_DELHI",
      "active": true,
      "type": "COMMON"
    },
    {
      "name": "New Delhi",
      "namelocal": "ന്യുഡല്‍ഹി ",
      "code": "DISTRICT_111",
      "id": 111,
      "stateid": 7,
      "statecode": "STATE_DELHI",
      "active": true,
      "type": "COMMON"
    },
    {
      "name": "Central",
      "namelocal": "സെന്‍ട്രല്‍ ഡല്‍ഹി",
      "code": "DISTRICT_112",
      "id": 112,
      "stateid": 7,
      "statecode": "STATE_DELHI",
      "active": true,
      "type": "COMMON"
    },
    {
      "name": "West",
      "namelocal": "വെസ്റ്റ് ഡല്‍ഹി",
      "code": "DISTRICT_113",
      "id": 113,
      "stateid": 7,
      "statecode": "STATE_DELHI",
      "active": true,
      "type": "COMMON"
    },
    {
      "name": "South West",
      "namelocal": "സൗത്ത് വെസ്റ്റ് ഡല്‍ഹി",
      "code": "DISTRICT_114",
      "id": 114,
      "stateid": 7,
      "statecode": "STATE_DELHI",
      "active": true,
      "type": "COMMON"
    },
    {
      "name": "South",
      "namelocal": "സൗത്ത് ഡല്‍ഹി",
      "code": "DISTRICT_115",
      "id": 115,
      "stateid": 7,
      "statecode": "STATE_DELHI",
      "active": true,
      "type": "COMMON"
    },
    {
      "name": "Shahdara",
      "namelocal": "ഷഹ്ദാര",
      "code": "DISTRICT_116",
      "id": 116,
      "stateid": 7,
      "statecode": "STATE_DELHI",
      "active": true,
      "type": "COMMON"
    },
    {
      "name": "South East",
      "namelocal": "സൗത്ത് ഈസ്റ്റ് ഡല്‍ഹി",
      "code": "DISTRICT_117",
      "id": 117,
      "stateid": 7,
      "statecode": "STATE_DELHI",
      "active": true,
      "type": "COMMON"
    },
    {
      "name": "Ganganagar",
      "namelocal": "ഗംഗാനഗര്‍",
      "code": "DISTRICT_118",
      "id": 118,
      "stateid": 8,
      "statecode": "STATE_RAJASTHAN",
      "active": true,
      "type": "COMMON"
    },
    {
      "name": "Hanumangarh",
      "namelocal": "ഹനുമാന്‍ഗഢ്",
      "code": "DISTRICT_119",
      "id": 119,
      "stateid": 8,
      "statecode": "STATE_RAJASTHAN",
      "active": true,
      "type": "COMMON"
    },
    {
      "name": "Bikaner",
      "namelocal": "ബീക്കാനെര്‍",
      "code": "DISTRICT_120",
      "id": 120,
      "stateid": 8,
      "statecode": "STATE_RAJASTHAN",
      "active": true,
      "type": "COMMON"
    },
    {
      "name": "Churu",
      "namelocal": "ചുരു",
      "code": "DISTRICT_121",
      "id": 121,
      "stateid": 8,
      "statecode": "STATE_RAJASTHAN",
      "active": true,
      "type": "COMMON"
    },
    {
      "name": "Jhunjhunu",
      "namelocal": "ഝുഝുണു",
      "code": "DISTRICT_122",
      "id": 122,
      "stateid": 8,
      "statecode": "STATE_RAJASTHAN",
      "active": true,
      "type": "COMMON"
    },
    {
      "name": "Alwar",
      "namelocal": "അല്‍വാര്‍",
      "code": "DISTRICT_123",
      "id": 123,
      "stateid": 8,
      "statecode": "STATE_RAJASTHAN",
      "active": true,
      "type": "COMMON"
    },
    {
      "name": "Bharatpur",
      "namelocal": "ഭരത്പൂര്‍",
      "code": "DISTRICT_124",
      "id": 124,
      "stateid": 8,
      "statecode": "STATE_RAJASTHAN",
      "active": true,
      "type": "COMMON"
    },
    {
      "name": "Dholpur",
      "namelocal": "ധോല്‍പുര്‍",
      "code": "DISTRICT_125",
      "id": 125,
      "stateid": 8,
      "statecode": "STATE_RAJASTHAN",
      "active": true,
      "type": "COMMON"
    },
    {
      "name": "Karauli",
      "namelocal": "കാരാളി",
      "code": "DISTRICT_126",
      "id": 126,
      "stateid": 8,
      "statecode": "STATE_RAJASTHAN",
      "active": true,
      "type": "COMMON"
    },
    {
      "name": "Sawai Madhopur",
      "namelocal": "സവായ്‍മധോപൂര്‍",
      "code": "DISTRICT_127",
      "id": 127,
      "stateid": 8,
      "statecode": "STATE_RAJASTHAN",
      "active": true,
      "type": "COMMON"
    },
    {
      "name": "Dausa",
      "namelocal": "ഡൊവൂസ",
      "code": "DISTRICT_128",
      "id": 128,
      "stateid": 8,
      "statecode": "STATE_RAJASTHAN",
      "active": true,
      "type": "COMMON"
    },
    {
      "name": "Jaipur",
      "namelocal": "ജയ്പൂര്‍",
      "code": "DISTRICT_129",
      "id": 129,
      "stateid": 8,
      "statecode": "STATE_RAJASTHAN",
      "active": true,
      "type": "COMMON"
    },
    {
      "name": "Sikar",
      "namelocal": "സീക്കര്‍",
      "code": "DISTRICT_130",
      "id": 130,
      "stateid": 8,
      "statecode": "STATE_RAJASTHAN",
      "active": true,
      "type": "COMMON"
    },
    {
      "name": "Nagaur",
      "namelocal": "നാഗോര്‍",
      "code": "DISTRICT_131",
      "id": 131,
      "stateid": 8,
      "statecode": "STATE_RAJASTHAN",
      "active": true,
      "type": "COMMON"
    },
    {
      "name": "Jodhpur",
      "namelocal": "ജോധ്പൂര്‍",
      "code": "DISTRICT_132",
      "id": 132,
      "stateid": 8,
      "statecode": "STATE_RAJASTHAN",
      "active": true,
      "type": "COMMON"
    },
    {
      "name": "Jaisalmer",
      "namelocal": "ജെസല്‍മേര്‍",
      "code": "DISTRICT_133",
      "id": 133,
      "stateid": 8,
      "statecode": "STATE_RAJASTHAN",
      "active": true,
      "type": "COMMON"
    },
    {
      "name": "Barmer",
      "namelocal": "ബാര്‍മേര്‍",
      "code": "DISTRICT_134",
      "id": 134,
      "stateid": 8,
      "statecode": "STATE_RAJASTHAN",
      "active": true,
      "type": "COMMON"
    },
    {
      "name": "Jalore",
      "namelocal": "ജലോര്‍",
      "code": "DISTRICT_135",
      "id": 135,
      "stateid": 8,
      "statecode": "STATE_RAJASTHAN",
      "active": true,
      "type": "COMMON"
    },
    {
      "name": "Sirohi",
      "namelocal": "സിരോഹി",
      "code": "DISTRICT_136",
      "id": 136,
      "stateid": 8,
      "statecode": "STATE_RAJASTHAN",
      "active": true,
      "type": "COMMON"
    },
    {
      "name": "Pali",
      "namelocal": "പാലി",
      "code": "DISTRICT_137",
      "id": 137,
      "stateid": 8,
      "statecode": "STATE_RAJASTHAN",
      "active": true,
      "type": "COMMON"
    },
    {
      "name": "Ajmer",
      "namelocal": "അജമീര്‍",
      "code": "DISTRICT_138",
      "id": 138,
      "stateid": 8,
      "statecode": "STATE_RAJASTHAN",
      "active": true,
      "type": "COMMON"
    },
    {
      "name": "Tonk",
      "namelocal": "ടോംക്",
      "code": "DISTRICT_139",
      "id": 139,
      "stateid": 8,
      "statecode": "STATE_RAJASTHAN",
      "active": true,
      "type": "COMMON"
    },
    {
      "name": "Bundi",
      "namelocal": "ബുന്തി",
      "code": "DISTRICT_140",
      "id": 140,
      "stateid": 8,
      "statecode": "STATE_RAJASTHAN",
      "active": true,
      "type": "COMMON"
    },
    {
      "name": "Bhilwara",
      "namelocal": "ഭീല്‍വാര",
      "code": "DISTRICT_141",
      "id": 141,
      "stateid": 8,
      "statecode": "STATE_RAJASTHAN",
      "active": true,
      "type": "COMMON"
    },
    {
      "name": "Rajsamand",
      "namelocal": "രാജ്സമന്ദ്",
      "code": "DISTRICT_142",
      "id": 142,
      "stateid": 8,
      "statecode": "STATE_RAJASTHAN",
      "active": true,
      "type": "COMMON"
    },
    {
      "name": "Udaipur",
      "namelocal": "ഉദയ്‍പൂര്‍",
      "code": "DISTRICT_143",
      "id": 143,
      "stateid": 8,
      "statecode": "STATE_RAJASTHAN",
      "active": true,
      "type": "COMMON"
    },
    {
      "name": "Dungarpur",
      "namelocal": "ദുംഗര്‍പുര്‍",
      "code": "DISTRICT_144",
      "id": 144,
      "stateid": 8,
      "statecode": "STATE_RAJASTHAN",
      "active": true,
      "type": "COMMON"
    },
    {
      "name": "Banswara",
      "namelocal": "ബാന്‍സ്വാര",
      "code": "DISTRICT_145",
      "id": 145,
      "stateid": 8,
      "statecode": "STATE_RAJASTHAN",
      "active": true,
      "type": "COMMON"
    },
    {
      "name": "Chittorgarh",
      "namelocal": "ചിത്തോര്‍ഗഢ്",
      "code": "DISTRICT_146",
      "id": 146,
      "stateid": 8,
      "statecode": "STATE_RAJASTHAN",
      "active": true,
      "type": "COMMON"
    },
    {
      "name": "Kota",
      "namelocal": "കോട്ട",
      "code": "DISTRICT_147",
      "id": 147,
      "stateid": 8,
      "statecode": "STATE_RAJASTHAN",
      "active": true,
      "type": "COMMON"
    },
    {
      "name": "Baran",
      "namelocal": "ബാരന്‍",
      "code": "DISTRICT_148",
      "id": 148,
      "stateid": 8,
      "statecode": "STATE_RAJASTHAN",
      "active": true,
      "type": "COMMON"
    },
    {
      "name": "Jhalawar",
      "namelocal": "ഝാലവാര്‍",
      "code": "DISTRICT_149",
      "id": 149,
      "stateid": 8,
      "statecode": "STATE_RAJASTHAN",
      "active": true,
      "type": "COMMON"
    },
    {
      "name": "Pratapgarh",
      "namelocal": "പ്രതാപ്ഗഢ്",
      "code": "DISTRICT_150",
      "id": 150,
      "stateid": 8,
      "statecode": "STATE_RAJASTHAN",
      "active": true,
      "type": "COMMON"
    },
    {
      "name": "Saharanpur",
      "namelocal": "സഹാറന്‍പുര്‍",
      "code": "DISTRICT_151",
      "id": 151,
      "stateid": 9,
      "statecode": "STATE_UTTARPRADESH",
      "active": true,
      "type": "COMMON"
    },
    {
      "name": "Muzaffarnagar",
      "namelocal": "മുസഫര്‍ നഗര്‍",
      "code": "DISTRICT_152",
      "id": 152,
      "stateid": 9,
      "statecode": "STATE_UTTARPRADESH",
      "active": true,
      "type": "COMMON"
    },
    {
      "name": "Bijnor",
      "namelocal": "ബിജ്നോര്‍",
      "code": "DISTRICT_153",
      "id": 153,
      "stateid": 9,
      "statecode": "STATE_UTTARPRADESH",
      "active": true,
      "type": "COMMON"
    },
    {
      "name": "Moradabad",
      "namelocal": "മൊറാദാബാദ്",
      "code": "DISTRICT_154",
      "id": 154,
      "stateid": 9,
      "statecode": "STATE_UTTARPRADESH",
      "active": true,
      "type": "COMMON"
    },
    {
      "name": "Rampur",
      "namelocal": "റാംപുര്‍",
      "code": "DISTRICT_155",
      "id": 155,
      "stateid": 9,
      "statecode": "STATE_UTTARPRADESH",
      "active": true,
      "type": "COMMON"
    },
    {
      "name": "Amroha",
      "namelocal": "അംരോഹ (ജ്യോതിബാ ഫൂലെ നഗര്‍)",
      "code": "DISTRICT_156",
      "id": 156,
      "stateid": 9,
      "statecode": "STATE_UTTARPRADESH",
      "active": true,
      "type": "COMMON"
    },
    {
      "name": "Meerut",
      "namelocal": "മീററ്റ്",
      "code": "DISTRICT_157",
      "id": 157,
      "stateid": 9,
      "statecode": "STATE_UTTARPRADESH",
      "active": true,
      "type": "COMMON"
    },
    {
      "name": "Baghpat",
      "namelocal": "ബാഗ്പെട്ട്",
      "code": "DISTRICT_158",
      "id": 158,
      "stateid": 9,
      "statecode": "STATE_UTTARPRADESH",
      "active": true,
      "type": "COMMON"
    },
    {
      "name": "Ghaziabad",
      "namelocal": "ഘാസിയാബാദ്",
      "code": "DISTRICT_159",
      "id": 159,
      "stateid": 9,
      "statecode": "STATE_UTTARPRADESH",
      "active": true,
      "type": "COMMON"
    },
    {
      "name": "Gautam Buddha Nagar",
      "namelocal": "ഗൗതം ബുദ്ധ നഗര്‍",
      "code": "DISTRICT_160",
      "id": 160,
      "stateid": 9,
      "statecode": "STATE_UTTARPRADESH",
      "active": true,
      "type": "COMMON"
    },
    {
      "name": "Bulandshahr",
      "namelocal": "ബുലങ്ഷഹര്‍",
      "code": "DISTRICT_161",
      "id": 161,
      "stateid": 9,
      "statecode": "STATE_UTTARPRADESH",
      "active": true,
      "type": "COMMON"
    },
    {
      "name": "Aligarh",
      "namelocal": "അലിഗഢ്",
      "code": "DISTRICT_162",
      "id": 162,
      "stateid": 9,
      "statecode": "STATE_UTTARPRADESH",
      "active": true,
      "type": "COMMON"
    },
    {
      "name": "Hathras",
      "namelocal": "ഹത്രാസ് (മഹാമായ നഗര്‍)",
      "code": "DISTRICT_163",
      "id": 163,
      "stateid": 9,
      "statecode": "STATE_UTTARPRADESH",
      "active": true,
      "type": "COMMON"
    },
    {
      "name": "Mathura",
      "namelocal": "മഥുര",
      "code": "DISTRICT_164",
      "id": 164,
      "stateid": 9,
      "statecode": "STATE_UTTARPRADESH",
      "active": true,
      "type": "COMMON"
    },
    {
      "name": "Agra",
      "namelocal": "ആഗ്ര",
      "code": "DISTRICT_165",
      "id": 165,
      "stateid": 9,
      "statecode": "STATE_UTTARPRADESH",
      "active": true,
      "type": "COMMON"
    },
    {
      "name": "Firozabad",
      "namelocal": "ഫിറോസാബാദ്",
      "code": "DISTRICT_166",
      "id": 166,
      "stateid": 9,
      "statecode": "STATE_UTTARPRADESH",
      "active": true,
      "type": "COMMON"
    },
    {
      "name": "Etah",
      "namelocal": "ഇറ്റാ",
      "code": "DISTRICT_167",
      "id": 167,
      "stateid": 9,
      "statecode": "STATE_UTTARPRADESH",
      "active": true,
      "type": "COMMON"
    },
    {
      "name": "Mainpuri",
      "namelocal": "മയ്ന്‍പുരി",
      "code": "DISTRICT_168",
      "id": 168,
      "stateid": 9,
      "statecode": "STATE_UTTARPRADESH",
      "active": true,
      "type": "COMMON"
    },
    {
      "name": "Budaun",
      "namelocal": "ബുഡോ",
      "code": "DISTRICT_169",
      "id": 169,
      "stateid": 9,
      "statecode": "STATE_UTTARPRADESH",
      "active": true,
      "type": "COMMON"
    },
    {
      "name": "Bareilly",
      "namelocal": "ബറേലി",
      "code": "DISTRICT_170",
      "id": 170,
      "stateid": 9,
      "statecode": "STATE_UTTARPRADESH",
      "active": true,
      "type": "COMMON"
    },
    {
      "name": "Pilibhit",
      "namelocal": "പിലിഭിറ്റ്",
      "code": "DISTRICT_171",
      "id": 171,
      "stateid": 9,
      "statecode": "STATE_UTTARPRADESH",
      "active": true,
      "type": "COMMON"
    },
    {
      "name": "Shahjahanpur",
      "namelocal": "ഷാജഹാന്‍പുര്‍",
      "code": "DISTRICT_172",
      "id": 172,
      "stateid": 9,
      "statecode": "STATE_UTTARPRADESH",
      "active": true,
      "type": "COMMON"
    },
    {
      "name": "Sitapur",
      "namelocal": "സീതാപുര്‍",
      "code": "DISTRICT_174",
      "id": 174,
      "stateid": 9,
      "statecode": "STATE_UTTARPRADESH",
      "active": true,
      "type": "COMMON"
    },
    {
      "name": "Hardoi",
      "namelocal": "ഹര്‍ഡോയ്",
      "code": "DISTRICT_175",
      "id": 175,
      "stateid": 9,
      "statecode": "STATE_UTTARPRADESH",
      "active": true,
      "type": "COMMON"
    },
    {
      "name": "Unnao",
      "namelocal": "ഉന്നാവ്",
      "code": "DISTRICT_176",
      "id": 176,
      "stateid": 9,
      "statecode": "STATE_UTTARPRADESH",
      "active": true,
      "type": "COMMON"
    },
    {
      "name": "Lucknow",
      "namelocal": "ലക്നൌ",
      "code": "DISTRICT_177",
      "id": 177,
      "stateid": 9,
      "statecode": "STATE_UTTARPRADESH",
      "active": true,
      "type": "COMMON"
    },
    {
      "name": "Rae Bareli",
      "namelocal": "റായ്ബറേലി",
      "code": "DISTRICT_178",
      "id": 178,
      "stateid": 9,
      "statecode": "STATE_UTTARPRADESH",
      "active": true,
      "type": "COMMON"
    },
    {
      "name": "Farrukhabad",
      "namelocal": "ഫറൂക്കാബാദ്",
      "code": "DISTRICT_179",
      "id": 179,
      "stateid": 9,
      "statecode": "STATE_UTTARPRADESH",
      "active": true,
      "type": "COMMON"
    },
    {
      "name": "Kannauj",
      "namelocal": "കനൗജ്",
      "code": "DISTRICT_180",
      "id": 180,
      "stateid": 9,
      "statecode": "STATE_UTTARPRADESH",
      "active": true,
      "type": "COMMON"
    },
    {
      "name": "Etawah",
      "namelocal": "ഇറ്റാവാ",
      "code": "DISTRICT_181",
      "id": 181,
      "stateid": 9,
      "statecode": "STATE_UTTARPRADESH",
      "active": true,
      "type": "COMMON"
    },
    {
      "name": "Auraiya",
      "namelocal": "ഒറെയ",
      "code": "DISTRICT_182",
      "id": 182,
      "stateid": 9,
      "statecode": "STATE_UTTARPRADESH",
      "active": true,
      "type": "COMMON"
    },
    {
      "name": "Kanpur Dehat",
      "namelocal": "കാണ്‍പൂര്‍ ദഹത്",
      "code": "DISTRICT_183",
      "id": 183,
      "stateid": 9,
      "statecode": "STATE_UTTARPRADESH",
      "active": true,
      "type": "COMMON"
    },
    {
      "name": "Kanpur Nagar",
      "namelocal": "കാണ്‍പൂര്‍ നഗര്‍",
      "code": "DISTRICT_184",
      "id": 184,
      "stateid": 9,
      "statecode": "STATE_UTTARPRADESH",
      "active": true,
      "type": "COMMON"
    },
    {
      "name": "Jalaun",
      "namelocal": "ജലോ",
      "code": "DISTRICT_185",
      "id": 185,
      "stateid": 9,
      "statecode": "STATE_UTTARPRADESH",
      "active": true,
      "type": "COMMON"
    },
    {
      "name": "Jhansi",
      "namelocal": "ഝാന്‍സി",
      "code": "DISTRICT_186",
      "id": 186,
      "stateid": 9,
      "statecode": "STATE_UTTARPRADESH",
      "active": true,
      "type": "COMMON"
    },
    {
      "name": "Lalitpur",
      "namelocal": "ലളിത്പുര്‍",
      "code": "DISTRICT_187",
      "id": 187,
      "stateid": 9,
      "statecode": "STATE_UTTARPRADESH",
      "active": true,
      "type": "COMMON"
    },
    {
      "name": "Hamirpur",
      "namelocal": "ഹമീര്‍പുര്‍",
      "code": "DISTRICT_188",
      "id": 188,
      "stateid": 9,
      "statecode": "STATE_UTTARPRADESH",
      "active": true,
      "type": "COMMON"
    },
    {
      "name": "Mahoba",
      "namelocal": "മഹോബ",
      "code": "DISTRICT_189",
      "id": 189,
      "stateid": 9,
      "statecode": "STATE_UTTARPRADESH",
      "active": true,
      "type": "COMMON"
    },
    {
      "name": "Banda",
      "namelocal": "ബാന്‍ഡ",
      "code": "DISTRICT_190",
      "id": 190,
      "stateid": 9,
      "statecode": "STATE_UTTARPRADESH",
      "active": true,
      "type": "COMMON"
    },
    {
      "name": "Chitrakoot",
      "namelocal": "ചിത്രകൂട്",
      "code": "DISTRICT_191",
      "id": 191,
      "stateid": 9,
      "statecode": "STATE_UTTARPRADESH",
      "active": true,
      "type": "COMMON"
    },
    {
      "name": "Fatehpur",
      "namelocal": "ഫത്തേപ്പൂര്‍",
      "code": "DISTRICT_192",
      "id": 192,
      "stateid": 9,
      "statecode": "STATE_UTTARPRADESH",
      "active": true,
      "type": "COMMON"
    },
    {
      "name": "Pratapgarh",
      "namelocal": "പ്രതാപ്ഗഢ്",
      "code": "DISTRICT_193",
      "id": 193,
      "stateid": 9,
      "statecode": "STATE_UTTARPRADESH",
      "active": true,
      "type": "COMMON"
    },
    {
      "name": "Kaushambi",
      "namelocal": "കൗശമ്പി",
      "code": "DISTRICT_194",
      "id": 194,
      "stateid": 9,
      "statecode": "STATE_UTTARPRADESH",
      "active": true,
      "type": "COMMON"
    },
    {
      "name": "Allahabad",
      "namelocal": "അലഹബാദ്",
      "code": "DISTRICT_195",
      "id": 195,
      "stateid": 9,
      "statecode": "STATE_UTTARPRADESH",
      "active": true,
      "type": "COMMON"
    },
    {
      "name": "Barabanki",
      "namelocal": "ബാറാബാങ്കി",
      "code": "DISTRICT_196",
      "id": 196,
      "stateid": 9,
      "statecode": "STATE_UTTARPRADESH",
      "active": true,
      "type": "COMMON"
    },
    {
      "name": "Faizabad",
      "namelocal": "ഫയ്സാബാദ്",
      "code": "DISTRICT_197",
      "id": 197,
      "stateid": 9,
      "statecode": "STATE_UTTARPRADESH",
      "active": true,
      "type": "COMMON"
    },
    {
      "name": "Ambedkar Nagar",
      "namelocal": "അംബേദ്കര്‍ നഗര്‍",
      "code": "DISTRICT_198",
      "id": 198,
      "stateid": 9,
      "statecode": "STATE_UTTARPRADESH",
      "active": true,
      "type": "COMMON"
    },
    {
      "name": "Sultanpur",
      "namelocal": "സുല്‍ത്താന്‍പുര്‍",
      "code": "DISTRICT_199",
      "id": 199,
      "stateid": 9,
      "statecode": "STATE_UTTARPRADESH",
      "active": true,
      "type": "COMMON"
    },
    {
      "name": "Bahraich",
      "namelocal": "ബഹറായിച്ച്",
      "code": "DISTRICT_200",
      "id": 200,
      "stateid": 9,
      "statecode": "STATE_UTTARPRADESH",
      "active": true,
      "type": "COMMON"
    },
    {
      "name": "Shravasti",
      "namelocal": "ശ്രാവസ്തി",
      "code": "DISTRICT_201",
      "id": 201,
      "stateid": 9,
      "statecode": "STATE_UTTARPRADESH",
      "active": true,
      "type": "COMMON"
    },
    {
      "name": "Balrampur",
      "namelocal": "ബല്‍റാംപുര്‍",
      "code": "DISTRICT_202",
      "id": 202,
      "stateid": 9,
      "statecode": "STATE_UTTARPRADESH",
      "active": true,
      "type": "COMMON"
    },
    {
      "name": "Gonda",
      "namelocal": "ഗോണ്ഡ",
      "code": "DISTRICT_203",
      "id": 203,
      "stateid": 9,
      "statecode": "STATE_UTTARPRADESH",
      "active": true,
      "type": "COMMON"
    },
    {
      "name": "Siddharth Nagar",
      "namelocal": "സിദ്ധാര്‍ഥ് നഗര്‍",
      "code": "DISTRICT_204",
      "id": 204,
      "stateid": 9,
      "statecode": "STATE_UTTARPRADESH",
      "active": true,
      "type": "COMMON"
    },
    {
      "name": "Basti",
      "namelocal": "ബസ്തി",
      "code": "DISTRICT_205",
      "id": 205,
      "stateid": 9,
      "statecode": "STATE_UTTARPRADESH",
      "active": true,
      "type": "COMMON"
    },
    {
      "name": "Sant Kabeer Nagar",
      "namelocal": "സന്ത് കബീര്‍ നഗര്‍",
      "code": "DISTRICT_206",
      "id": 206,
      "stateid": 9,
      "statecode": "STATE_UTTARPRADESH",
      "active": true,
      "type": "COMMON"
    },
    {
      "name": "Maharajganj",
      "namelocal": "മഹാരാജ്ഗഞ്ച്",
      "code": "DISTRICT_207",
      "id": 207,
      "stateid": 9,
      "statecode": "STATE_UTTARPRADESH",
      "active": true,
      "type": "COMMON"
    },
    {
      "name": "Gorakhpur",
      "namelocal": "ഗോരഖ്പുര്‍",
      "code": "DISTRICT_208",
      "id": 208,
      "stateid": 9,
      "statecode": "STATE_UTTARPRADESH",
      "active": true,
      "type": "COMMON"
    },
    {
      "name": "Kushi Nagar",
      "namelocal": "ഖുശി നഗര്‍",
      "code": "DISTRICT_209",
      "id": 209,
      "stateid": 9,
      "statecode": "STATE_UTTARPRADESH",
      "active": true,
      "type": "COMMON"
    },
    {
      "name": "Deoria",
      "namelocal": "ദേവറിയ",
      "code": "DISTRICT_210",
      "id": 210,
      "stateid": 9,
      "statecode": "STATE_UTTARPRADESH",
      "active": true,
      "type": "COMMON"
    },
    {
      "name": "Azamgarh",
      "namelocal": "ആസാംഗഢ്",
      "code": "DISTRICT_211",
      "id": 211,
      "stateid": 9,
      "statecode": "STATE_UTTARPRADESH",
      "active": true,
      "type": "COMMON"
    },
    {
      "name": "Mau",
      "namelocal": "മൗ",
      "code": "DISTRICT_212",
      "id": 212,
      "stateid": 9,
      "statecode": "STATE_UTTARPRADESH",
      "active": true,
      "type": "COMMON"
    },
    {
      "name": "Ballia",
      "namelocal": "ബലിയ",
      "code": "DISTRICT_213",
      "id": 213,
      "stateid": 9,
      "statecode": "STATE_UTTARPRADESH",
      "active": true,
      "type": "COMMON"
    },
    {
      "name": "Jaunpur",
      "namelocal": "ജോപൂര്‍",
      "code": "DISTRICT_214",
      "id": 214,
      "stateid": 9,
      "statecode": "STATE_UTTARPRADESH",
      "active": true,
      "type": "COMMON"
    },
    {
      "name": "Ghazipur",
      "namelocal": "ഘാസിപ്പൂര്‍",
      "code": "DISTRICT_215",
      "id": 215,
      "stateid": 9,
      "statecode": "STATE_UTTARPRADESH",
      "active": true,
      "type": "COMMON"
    },
    {
      "name": "Chandauli",
      "namelocal": "ചന്ദൗളി",
      "code": "DISTRICT_216",
      "id": 216,
      "stateid": 9,
      "statecode": "STATE_UTTARPRADESH",
      "active": true,
      "type": "COMMON"
    },
    {
      "name": "Varanasi",
      "namelocal": "വാരാണസി",
      "code": "DISTRICT_217",
      "id": 217,
      "stateid": 9,
      "statecode": "STATE_UTTARPRADESH",
      "active": true,
      "type": "COMMON"
    },
    {
      "name": "Bhadohi",
      "namelocal": "സന്ത് രവിദാസ്‍നഗര്‍",
      "code": "DISTRICT_218",
      "id": 218,
      "stateid": 9,
      "statecode": "STATE_UTTARPRADESH",
      "active": true,
      "type": "COMMON"
    },
    {
      "name": "Mirzapur",
      "namelocal": "മിര്‍സാപ്പുര്‍",
      "code": "DISTRICT_219",
      "id": 219,
      "stateid": 9,
      "statecode": "STATE_UTTARPRADESH",
      "active": true,
      "type": "COMMON"
    },
    {
      "name": "Sonbhadra",
      "namelocal": "സോണ്‍ഭദ്ര",
      "code": "DISTRICT_220",
      "id": 220,
      "stateid": 9,
      "statecode": "STATE_UTTARPRADESH",
      "active": true,
      "type": "COMMON"
    },
    {
      "name": "Amethi",
      "namelocal": "അമേതി",
      "code": "DISTRICT_221",
      "id": 221,
      "stateid": 9,
      "statecode": "STATE_UTTARPRADESH",
      "active": true,
      "type": "COMMON"
    },
    {
      "name": "Hapur",
      "namelocal": "ഹാപൂര്‍",
      "code": "DISTRICT_222",
      "id": 222,
      "stateid": 9,
      "statecode": "STATE_UTTARPRADESH",
      "active": true,
      "type": "COMMON"
    },
    {
      "name": "Kasganj",
      "namelocal": "കസ്ഗഞ്ച്",
      "code": "DISTRICT_223",
      "id": 223,
      "stateid": 9,
      "statecode": "STATE_UTTARPRADESH",
      "active": true,
      "type": "COMMON"
    },
    {
      "name": "Sambhal",
      "namelocal": "സാംബാള്‍",
      "code": "DISTRICT_224",
      "id": 224,
      "stateid": 9,
      "statecode": "STATE_UTTARPRADESH",
      "active": true,
      "type": "COMMON"
    },
    {
      "name": "Shamli",
      "namelocal": "ഷാമ്‍ലി ",
      "code": "DISTRICT_225",
      "id": 225,
      "stateid": 9,
      "statecode": "STATE_UTTARPRADESH",
      "active": true,
      "type": "COMMON"
    },
    {
      "name": "Pashchim Champaran",
      "namelocal": "പശ്ചിം ചമ്പാരന്‍",
      "code": "DISTRICT_226",
      "id": 226,
      "stateid": 10,
      "statecode": "STATE_BIHAR",
      "active": true,
      "type": "COMMON"
    },
    {
      "name": "Purbi Champaran",
      "namelocal": "പൂര്‍ബി ചമ്പാരന്‍",
      "code": "DISTRICT_227",
      "id": 227,
      "stateid": 10,
      "statecode": "STATE_BIHAR",
      "active": true,
      "type": "COMMON"
    },
    {
      "name": "Sheohar",
      "namelocal": "ഷ്യോഹര്‍",
      "code": "DISTRICT_228",
      "id": 228,
      "stateid": 10,
      "statecode": "STATE_BIHAR",
      "active": true,
      "type": "COMMON"
    },
    {
      "name": "Sitamarhi",
      "namelocal": "സീതാമര്‍ഹി",
      "code": "DISTRICT_229",
      "id": 229,
      "stateid": 10,
      "statecode": "STATE_BIHAR",
      "active": true,
      "type": "COMMON"
    },
    {
      "name": "Madhubani",
      "namelocal": "മധുബനി",
      "code": "DISTRICT_230",
      "id": 230,
      "stateid": 10,
      "statecode": "STATE_BIHAR",
      "active": true,
      "type": "COMMON"
    },
    {
      "name": "Supaul",
      "namelocal": "സുപോള്‍",
      "code": "DISTRICT_231",
      "id": 231,
      "stateid": 10,
      "statecode": "STATE_BIHAR",
      "active": true,
      "type": "COMMON"
    },
    {
      "name": "Araria",
      "namelocal": "അരാരിയ",
      "code": "DISTRICT_232",
      "id": 232,
      "stateid": 10,
      "statecode": "STATE_BIHAR",
      "active": true,
      "type": "COMMON"
    },
    {
      "name": "Kishanganj",
      "namelocal": "കിഷന്‍ഗഞ്ച്",
      "code": "DISTRICT_233",
      "id": 233,
      "stateid": 10,
      "statecode": "STATE_BIHAR",
      "active": true,
      "type": "COMMON"
    },
    {
      "name": "Purnia",
      "namelocal": "പൂര്‍ണിയ",
      "code": "DISTRICT_234",
      "id": 234,
      "stateid": 10,
      "statecode": "STATE_BIHAR",
      "active": true,
      "type": "COMMON"
    },
    {
      "name": "Katihar",
      "namelocal": "കാത്തിഹാര്‍",
      "code": "DISTRICT_235",
      "id": 235,
      "stateid": 10,
      "statecode": "STATE_BIHAR",
      "active": true,
      "type": "COMMON"
    },
    {
      "name": "Madhepura",
      "namelocal": "മാധേപുര",
      "code": "DISTRICT_236",
      "id": 236,
      "stateid": 10,
      "statecode": "STATE_BIHAR",
      "active": true,
      "type": "COMMON"
    },
    {
      "name": "Saharsa",
      "namelocal": "സഹര്‍സ",
      "code": "DISTRICT_237",
      "id": 237,
      "stateid": 10,
      "statecode": "STATE_BIHAR",
      "active": true,
      "type": "COMMON"
    },
    {
      "name": "Darbhanga",
      "namelocal": "ധര്‍ഭംഗാ",
      "code": "DISTRICT_238",
      "id": 238,
      "stateid": 10,
      "statecode": "STATE_BIHAR",
      "active": true,
      "type": "COMMON"
    },
    {
      "name": "Muzaffarpur",
      "namelocal": "മുസാഫര്‍പൂര്‍",
      "code": "DISTRICT_239",
      "id": 239,
      "stateid": 10,
      "statecode": "STATE_BIHAR",
      "active": true,
      "type": "COMMON"
    },
    {
      "name": "Gopalganj",
      "namelocal": "ഗോപാല്‍ഗഞ്ച്",
      "code": "DISTRICT_240",
      "id": 240,
      "stateid": 10,
      "statecode": "STATE_BIHAR",
      "active": true,
      "type": "COMMON"
    },
    {
      "name": "Siwan",
      "namelocal": "സിവന്‍",
      "code": "DISTRICT_241",
      "id": 241,
      "stateid": 10,
      "statecode": "STATE_BIHAR",
      "active": true,
      "type": "COMMON"
    },
    {
      "name": "Saran",
      "namelocal": "സര",
      "code": "DISTRICT_242",
      "id": 242,
      "stateid": 10,
      "statecode": "STATE_BIHAR",
      "active": true,
      "type": "COMMON"
    },
    {
      "name": "Vaishali",
      "namelocal": "വൈശാലി",
      "code": "DISTRICT_243",
      "id": 243,
      "stateid": 10,
      "statecode": "STATE_BIHAR",
      "active": true,
      "type": "COMMON"
    },
    {
      "name": "Samastipur",
      "namelocal": "സമസ്തിപുര്‍",
      "code": "DISTRICT_244",
      "id": 244,
      "stateid": 10,
      "statecode": "STATE_BIHAR",
      "active": true,
      "type": "COMMON"
    },
    {
      "name": "Begusarai",
      "namelocal": "ബഗുസരായി",
      "code": "DISTRICT_245",
      "id": 245,
      "stateid": 10,
      "statecode": "STATE_BIHAR",
      "active": true,
      "type": "COMMON"
    },
    {
      "name": "Khagaria",
      "namelocal": "കഖറിയ",
      "code": "DISTRICT_246",
      "id": 246,
      "stateid": 10,
      "statecode": "STATE_BIHAR",
      "active": true,
      "type": "COMMON"
    },
    {
      "name": "Bhagalpur",
      "namelocal": "ഭാഗല്‍പൂര്‍",
      "code": "DISTRICT_247",
      "id": 247,
      "stateid": 10,
      "statecode": "STATE_BIHAR",
      "active": true,
      "type": "COMMON"
    },
    {
      "name": "Banka",
      "namelocal": "ബങ്ക",
      "code": "DISTRICT_248",
      "id": 248,
      "stateid": 10,
      "statecode": "STATE_BIHAR",
      "active": true,
      "type": "COMMON"
    },
    {
      "name": "Munger",
      "namelocal": "മുംഗര്‍",
      "code": "DISTRICT_249",
      "id": 249,
      "stateid": 10,
      "statecode": "STATE_BIHAR",
      "active": true,
      "type": "COMMON"
    },
    {
      "name": "Lakhisarai",
      "namelocal": "ലക്കിസരായ്",
      "code": "DISTRICT_250",
      "id": 250,
      "stateid": 10,
      "statecode": "STATE_BIHAR",
      "active": true,
      "type": "COMMON"
    },
    {
      "name": "Sheikhpura",
      "namelocal": "ഷേയ്ക്ക്പുര",
      "code": "DISTRICT_251",
      "id": 251,
      "stateid": 10,
      "statecode": "STATE_BIHAR",
      "active": true,
      "type": "COMMON"
    },
    {
      "name": "Nalanda",
      "namelocal": "നളന്ദ",
      "code": "DISTRICT_252",
      "id": 252,
      "stateid": 10,
      "statecode": "STATE_BIHAR",
      "active": true,
      "type": "COMMON"
    },
    {
      "name": "Patna",
      "namelocal": "പാറ്റ്ന",
      "code": "DISTRICT_253",
      "id": 253,
      "stateid": 10,
      "statecode": "STATE_BIHAR",
      "active": true,
      "type": "COMMON"
    },
    {
      "name": "Bhojpur",
      "namelocal": "ഭോജ്പൂര്‍",
      "code": "DISTRICT_254",
      "id": 254,
      "stateid": 10,
      "statecode": "STATE_BIHAR",
      "active": true,
      "type": "COMMON"
    },
    {
      "name": "Buxar",
      "namelocal": "ഭക്സര്‍",
      "code": "DISTRICT_255",
      "id": 255,
      "stateid": 10,
      "statecode": "STATE_BIHAR",
      "active": true,
      "type": "COMMON"
    },
    {
      "name": "Kaimur (Bhabua)",
      "namelocal": "കയ്മുര്‍ (ബഹബുവ)",
      "code": "DISTRICT_256",
      "id": 256,
      "stateid": 10,
      "statecode": "STATE_BIHAR",
      "active": true,
      "type": "COMMON"
    },
    {
      "name": "Rohtas",
      "namelocal": "റോഹ്താസ്",
      "code": "DISTRICT_257",
      "id": 257,
      "stateid": 10,
      "statecode": "STATE_BIHAR",
      "active": true,
      "type": "COMMON"
    },
    {
      "name": "Arwal",
      "namelocal": "അര്‍വല്‍",
      "code": "DISTRICT_258",
      "id": 258,
      "stateid": 10,
      "statecode": "STATE_BIHAR",
      "active": true,
      "type": "COMMON"
    },
    {
      "name": "Jehanabad",
      "namelocal": "ജഹനാബാദ്",
      "code": "DISTRICT_259",
      "id": 259,
      "stateid": 10,
      "statecode": "STATE_BIHAR",
      "active": true,
      "type": "COMMON"
    },
    {
      "name": "Aurangabad",
      "namelocal": "ഔറംഗാബാദ്",
      "code": "DISTRICT_260",
      "id": 260,
      "stateid": 10,
      "statecode": "STATE_BIHAR",
      "active": true,
      "type": "COMMON"
    },
    {
      "name": "Gaya",
      "namelocal": "ഗയാ",
      "code": "DISTRICT_261",
      "id": 261,
      "stateid": 10,
      "statecode": "STATE_BIHAR",
      "active": true,
      "type": "COMMON"
    },
    {
      "name": "Nawada",
      "namelocal": "നവാഡ",
      "code": "DISTRICT_262",
      "id": 262,
      "stateid": 10,
      "statecode": "STATE_BIHAR",
      "active": true,
      "type": "COMMON"
    },
    {
      "name": "Jamui",
      "namelocal": "ജമുയി",
      "code": "DISTRICT_263",
      "id": 263,
      "stateid": 10,
      "statecode": "STATE_BIHAR",
      "active": true,
      "type": "COMMON"
    },
    {
      "name": "North District",
      "namelocal": "നോര്‍ത്ത് ജില്ല (സിക്കിം)",
      "code": "DISTRICT_264",
      "id": 264,
      "stateid": 11,
      "statecode": "STATE_SIKKIM",
      "active": true,
      "type": "COMMON"
    },
    {
      "name": "West District",
      "namelocal": "വെസ്റ്റ് ജില്ല (സിക്കിം)",
      "code": "DISTRICT_265",
      "id": 265,
      "stateid": 11,
      "statecode": "STATE_SIKKIM",
      "active": true,
      "type": "COMMON"
    },
    {
      "name": "South District",
      "namelocal": "സൗത്ത് ജില്ല (സിക്കിം)",
      "code": "DISTRICT_266",
      "id": 266,
      "stateid": 11,
      "statecode": "STATE_SIKKIM",
      "active": true,
      "type": "COMMON"
    },
    {
      "name": "East District",
      "namelocal": "ഈസ്റ്റ് ജില്ല (സിക്കിം)",
      "code": "DISTRICT_267",
      "id": 267,
      "stateid": 11,
      "statecode": "STATE_SIKKIM",
      "active": true,
      "type": "COMMON"
    },
    {
      "name": "Tawang",
      "namelocal": "തവങ്",
      "code": "DISTRICT_268",
      "id": 268,
      "stateid": 12,
      "statecode": "STATE_ARUNACHAL_PRADESH",
      "active": true,
      "type": "COMMON"
    },
    {
      "name": "West Kameng",
      "namelocal": "വെസ്റ്റ് കാമെംഗ്",
      "code": "DISTRICT_269",
      "id": 269,
      "stateid": 12,
      "statecode": "STATE_ARUNACHAL_PRADESH",
      "active": true,
      "type": "COMMON"
    },
    {
      "name": "East Kameng",
      "namelocal": "ഈസ്റ്റ് കാമെംഗ്",
      "code": "DISTRICT_270",
      "id": 270,
      "stateid": 12,
      "statecode": "STATE_ARUNACHAL_PRADESH",
      "active": true,
      "type": "COMMON"
    },
    {
      "name": "Papum Pare",
      "namelocal": "പവും പാറേ",
      "code": "DISTRICT_271",
      "id": 271,
      "stateid": 12,
      "statecode": "STATE_ARUNACHAL_PRADESH",
      "active": true,
      "type": "COMMON"
    },
    {
      "name": "Lower Subansiri",
      "namelocal": "ലലോവര്‍ സുബാന്‍സിരി",
      "code": "DISTRICT_272",
      "id": 272,
      "stateid": 12,
      "statecode": "STATE_ARUNACHAL_PRADESH",
      "active": true,
      "type": "COMMON"
    },
    {
      "name": "Upper Subansiri",
      "namelocal": "അപ്പര്‍ സുബാന്‍സിരി",
      "code": "DISTRICT_273",
      "id": 273,
      "stateid": 12,
      "statecode": "STATE_ARUNACHAL_PRADESH",
      "active": true,
      "type": "COMMON"
    },
    {
      "name": "West Siang",
      "namelocal": "വെസ്റ്റ് സിയാങ്",
      "code": "DISTRICT_274",
      "id": 274,
      "stateid": 12,
      "statecode": "STATE_ARUNACHAL_PRADESH",
      "active": true,
      "type": "COMMON"
    },
    {
      "name": "East Siang",
      "namelocal": "ഈസ്റ്റ് സിയാങ്",
      "code": "DISTRICT_275",
      "id": 275,
      "stateid": 12,
      "statecode": "STATE_ARUNACHAL_PRADESH",
      "active": true,
      "type": "COMMON"
    },
    {
      "name": "Upper Siang",
      "namelocal": "അപ്പര്‍ സിയാങ്",
      "code": "DISTRICT_276",
      "id": 276,
      "stateid": 12,
      "statecode": "STATE_ARUNACHAL_PRADESH",
      "active": true,
      "type": "COMMON"
    },
    {
      "name": "Dibang Valley",
      "namelocal": "ദിബങ്‍വാലി",
      "code": "DISTRICT_277",
      "id": 277,
      "stateid": 12,
      "statecode": "STATE_ARUNACHAL_PRADESH",
      "active": true,
      "type": "COMMON"
    },
    {
      "name": "Lohit",
      "namelocal": "ലോഹിത്",
      "code": "DISTRICT_278",
      "id": 278,
      "stateid": 12,
      "statecode": "STATE_ARUNACHAL_PRADESH",
      "active": true,
      "type": "COMMON"
    },
    {
      "name": "Changlang",
      "namelocal": "ചങ്‍ലങ്",
      "code": "DISTRICT_279",
      "id": 279,
      "stateid": 12,
      "statecode": "STATE_ARUNACHAL_PRADESH",
      "active": true,
      "type": "COMMON"
    },
    {
      "name": "Tirap",
      "namelocal": "തിറപ്",
      "code": "DISTRICT_280",
      "id": 280,
      "stateid": 12,
      "statecode": "STATE_ARUNACHAL_PRADESH",
      "active": true,
      "type": "COMMON"
    },
    {
      "name": "Kurung Kumey",
      "namelocal": "കൂരങ്‍കൂമെ",
      "code": "DISTRICT_281",
      "id": 281,
      "stateid": 12,
      "statecode": "STATE_ARUNACHAL_PRADESH",
      "active": true,
      "type": "COMMON"
    },
    {
      "name": "Lower Dibang Valley",
      "namelocal": "ലോവര്‍ ദിബങ്‍വാലി",
      "code": "DISTRICT_282",
      "id": 282,
      "stateid": 12,
      "statecode": "STATE_ARUNACHAL_PRADESH",
      "active": true,
      "type": "COMMON"
    },
    {
      "name": "Anjaw",
      "namelocal": "ആന്‍ജാ",
      "code": "DISTRICT_283",
      "id": 283,
      "stateid": 12,
      "statecode": "STATE_ARUNACHAL_PRADESH",
      "active": true,
      "type": "COMMON"
    },
    {
      "name": "Kra Daadi",
      "namelocal": "ക്രാ ഡാഡി",
      "code": "DISTRICT_284",
      "id": 284,
      "stateid": 12,
      "statecode": "STATE_ARUNACHAL_PRADESH",
      "active": true,
      "type": "COMMON"
    },
    {
      "name": "Longding",
      "namelocal": "ലോങ്ഡിംഗ്",
      "code": "DISTRICT_285",
      "id": 285,
      "stateid": 12,
      "statecode": "STATE_ARUNACHAL_PRADESH",
      "active": true,
      "type": "COMMON"
    },
    {
      "name": "Namsai",
      "namelocal": "നംസായി",
      "code": "DISTRICT_286",
      "id": 286,
      "stateid": 12,
      "statecode": "STATE_ARUNACHAL_PRADESH",
      "active": true,
      "type": "COMMON"
    },
    {
      "name": "Siang",
      "namelocal": "സിയാംഗ്",
      "code": "DISTRICT_287",
      "id": 287,
      "stateid": 12,
      "statecode": "STATE_ARUNACHAL_PRADESH",
      "active": true,
      "type": "COMMON"
    },
    {
      "name": "Mon",
      "namelocal": "മോ",
      "code": "DISTRICT_288",
      "id": 288,
      "stateid": 13,
      "statecode": "STATE_NAGALAND",
      "active": true,
      "type": "COMMON"
    },
    {
      "name": "Kiphire",
      "namelocal": "കിഫൈര്‍",
      "code": "DISTRICT_289",
      "id": 289,
      "stateid": 13,
      "statecode": "STATE_NAGALAND",
      "active": true,
      "type": "COMMON"
    },
    {
      "name": "Longleng",
      "namelocal": "ലോങ്‍ലെങ്",
      "code": "DISTRICT_290",
      "id": 290,
      "stateid": 13,
      "statecode": "STATE_NAGALAND",
      "active": true,
      "type": "COMMON"
    },
    {
      "name": "Tuensang",
      "namelocal": "ട്വിന്‍സങ്",
      "code": "DISTRICT_291",
      "id": 291,
      "stateid": 13,
      "statecode": "STATE_NAGALAND",
      "active": true,
      "type": "COMMON"
    },
    {
      "name": "Mokokchung",
      "namelocal": "മൊകോക്ചങ്",
      "code": "DISTRICT_292",
      "id": 292,
      "stateid": 13,
      "statecode": "STATE_NAGALAND",
      "active": true,
      "type": "COMMON"
    },
    {
      "name": "Zunheboto",
      "namelocal": "സുന്‍ഹെബൊട്ടോ",
      "code": "DISTRICT_293",
      "id": 293,
      "stateid": 13,
      "statecode": "STATE_NAGALAND",
      "active": true,
      "type": "COMMON"
    },
    {
      "name": "Wokha",
      "namelocal": "വൊഖ",
      "code": "DISTRICT_294",
      "id": 294,
      "stateid": 13,
      "statecode": "STATE_NAGALAND",
      "active": true,
      "type": "COMMON"
    },
    {
      "name": "Dimapur",
      "namelocal": "ദിമാപൂര്‍",
      "code": "DISTRICT_295",
      "id": 295,
      "stateid": 13,
      "statecode": "STATE_NAGALAND",
      "active": true,
      "type": "COMMON"
    },
    {
      "name": "Kohima",
      "namelocal": "കൊഹിമ",
      "code": "DISTRICT_296",
      "id": 296,
      "stateid": 13,
      "statecode": "STATE_NAGALAND",
      "active": true,
      "type": "COMMON"
    },
    {
      "name": "Peren",
      "namelocal": "പരെണ്‍",
      "code": "DISTRICT_297",
      "id": 297,
      "stateid": 13,
      "statecode": "STATE_NAGALAND",
      "active": true,
      "type": "COMMON"
    },
    {
      "name": "Phek",
      "namelocal": "ഫെക്",
      "code": "DISTRICT_298",
      "id": 298,
      "stateid": 13,
      "statecode": "STATE_NAGALAND",
      "active": true,
      "type": "COMMON"
    },
    {
      "name": "Senapati",
      "namelocal": "സേനാപതി",
      "code": "DISTRICT_299",
      "id": 299,
      "stateid": 14,
      "statecode": "STATE_MANIPUR",
      "active": true,
      "type": "COMMON"
    },
    {
      "name": "Tamenglong",
      "namelocal": "തമെങ്‍ലോങ്",
      "code": "DISTRICT_300",
      "id": 300,
      "stateid": 14,
      "statecode": "STATE_MANIPUR",
      "active": true,
      "type": "COMMON"
    },
    {
      "name": "Churachandpur",
      "namelocal": "ചുരചന്ദ്പുര്‍",
      "code": "DISTRICT_301",
      "id": 301,
      "stateid": 14,
      "statecode": "STATE_MANIPUR",
      "active": true,
      "type": "COMMON"
    },
    {
      "name": "Bishnupur",
      "namelocal": "ബിഷ്ണുപൂര്‍",
      "code": "DISTRICT_302",
      "id": 302,
      "stateid": 14,
      "statecode": "STATE_MANIPUR",
      "active": true,
      "type": "COMMON"
    },
    {
      "name": "Thoubal",
      "namelocal": "തൗബാല്‍",
      "code": "DISTRICT_303",
      "id": 303,
      "stateid": 14,
      "statecode": "STATE_MANIPUR",
      "active": true,
      "type": "COMMON"
    },
    {
      "name": "Imphal West",
      "namelocal": "ഇംഫാല്‍ വെസ്റ്റ്",
      "code": "DISTRICT_304",
      "id": 304,
      "stateid": 14,
      "statecode": "STATE_MANIPUR",
      "active": true,
      "type": "COMMON"
    },
    {
      "name": "Imphal East",
      "namelocal": "ഇംഫാല്‍ ഈസ്റ്റ്",
      "code": "DISTRICT_305",
      "id": 305,
      "stateid": 14,
      "statecode": "STATE_MANIPUR",
      "active": true,
      "type": "COMMON"
    },
    {
      "name": "Ukhrul",
      "namelocal": "ഉക്രൂല്‍",
      "code": "DISTRICT_306",
      "id": 306,
      "stateid": 14,
      "statecode": "STATE_MANIPUR",
      "active": true,
      "type": "COMMON"
    },
    {
      "name": "Chandel",
      "namelocal": "ചണ്ടേല്‍",
      "code": "DISTRICT_307",
      "id": 307,
      "stateid": 14,
      "statecode": "STATE_MANIPUR",
      "active": true,
      "type": "COMMON"
    },
    {
      "name": "Jiribam",
      "namelocal": "ജിരിബം",
      "code": "DISTRICT_308",
      "id": 308,
      "stateid": 14,
      "statecode": "STATE_MANIPUR",
      "active": true,
      "type": "COMMON"
    },
    {
      "name": "Kakching",
      "namelocal": "കാക്ചിംഗ്",
      "code": "DISTRICT_309",
      "id": 309,
      "stateid": 14,
      "statecode": "STATE_MANIPUR",
      "active": true,
      "type": "COMMON"
    },
    {
      "name": "Kamjong",
      "namelocal": "കാംജോങ്",
      "code": "DISTRICT_310",
      "id": 310,
      "stateid": 14,
      "statecode": "STATE_MANIPUR",
      "active": true,
      "type": "COMMON"
    },
    {
      "name": "Kangpokpi",
      "namelocal": "കാങ്പോക്പി",
      "code": "DISTRICT_311",
      "id": 311,
      "stateid": 14,
      "statecode": "STATE_MANIPUR",
      "active": true,
      "type": "COMMON"
    },
    {
      "name": "Noney",
      "namelocal": "നോനൈ",
      "code": "DISTRICT_312",
      "id": 312,
      "stateid": 14,
      "statecode": "STATE_MANIPUR",
      "active": true,
      "type": "COMMON"
    },
    {
      "name": "Pherzawl",
      "namelocal": "ഫെര്‍സാവല്‍",
      "code": "DISTRICT_313",
      "id": 313,
      "stateid": 14,
      "statecode": "STATE_MANIPUR",
      "active": true,
      "type": "COMMON"
    },
    {
      "name": "Tengnoupal",
      "namelocal": "തെങ്നോപല്‍",
      "code": "DISTRICT_314",
      "id": 314,
      "stateid": 14,
      "statecode": "STATE_MANIPUR",
      "active": true,
      "type": "COMMON"
    },
    {
      "name": "Mamit",
      "namelocal": "മാമിത്",
      "code": "DISTRICT_315",
      "id": 315,
      "stateid": 15,
      "statecode": "STATE_MIZORAM",
      "active": true,
      "type": "COMMON"
    },
    {
      "name": "Kolasib",
      "namelocal": "കോലാസിബ്",
      "code": "DISTRICT_316",
      "id": 316,
      "stateid": 15,
      "statecode": "STATE_MIZORAM",
      "active": true,
      "type": "COMMON"
    },
    {
      "name": "Aizawl",
      "namelocal": "ഐസോള്‍",
      "code": "DISTRICT_317",
      "id": 317,
      "stateid": 15,
      "statecode": "STATE_MIZORAM",
      "active": true,
      "type": "COMMON"
    },
    {
      "name": "Champhai",
      "namelocal": "ചംഫായ്",
      "code": "DISTRICT_318",
      "id": 318,
      "stateid": 15,
      "statecode": "STATE_MIZORAM",
      "active": true,
      "type": "COMMON"
    },
    {
      "name": "Serchhip",
      "namelocal": "സെര്‍ചിപ്",
      "code": "DISTRICT_319",
      "id": 319,
      "stateid": 15,
      "statecode": "STATE_MIZORAM",
      "active": true,
      "type": "COMMON"
    },
    {
      "name": "Lunglei",
      "namelocal": "ലുംഗ്‍ലേയ്",
      "code": "DISTRICT_320",
      "id": 320,
      "stateid": 15,
      "statecode": "STATE_MIZORAM",
      "active": true,
      "type": "COMMON"
    },
    {
      "name": "Lawngtlai",
      "namelocal": "ലോങ്ത്‍ലായ്",
      "code": "DISTRICT_321",
      "id": 321,
      "stateid": 15,
      "statecode": "STATE_MIZORAM",
      "active": true,
      "type": "COMMON"
    },
    {
      "name": "Saiha",
      "namelocal": "സെയ്ഹ",
      "code": "DISTRICT_322",
      "id": 322,
      "stateid": 15,
      "statecode": "STATE_MIZORAM",
      "active": true,
      "type": "COMMON"
    },
    {
      "name": "West Tripura",
      "namelocal": "വെസ്റ്റ് ത്രിപുര",
      "code": "DISTRICT_323",
      "id": 323,
      "stateid": 16,
      "statecode": "STATE_TRIPURA",
      "active": true,
      "type": "COMMON"
    },
    {
      "name": "South Tripura",
      "namelocal": "സൗത്ത് ത്രിപുര",
      "code": "DISTRICT_324",
      "id": 324,
      "stateid": 16,
      "statecode": "STATE_TRIPURA",
      "active": true,
      "type": "COMMON"
    },
    {
      "name": "Dhalai",
      "namelocal": "ധലായി",
      "code": "DISTRICT_325",
      "id": 325,
      "stateid": 16,
      "statecode": "STATE_TRIPURA",
      "active": true,
      "type": "COMMON"
    },
    {
      "name": "North Tripura",
      "namelocal": "നോര്‍ത്ത് ത്രിപുര",
      "code": "DISTRICT_326",
      "id": 326,
      "stateid": 16,
      "statecode": "STATE_TRIPURA",
      "active": true,
      "type": "COMMON"
    },
    {
      "name": "Gomati",
      "namelocal": "ഗോമതി",
      "code": "DISTRICT_327",
      "id": 327,
      "stateid": 16,
      "statecode": "STATE_TRIPURA",
      "active": true,
      "type": "COMMON"
    },
    {
      "name": "Khowai",
      "namelocal": "ഖോവായി",
      "code": "DISTRICT_328",
      "id": 328,
      "stateid": 16,
      "statecode": "STATE_TRIPURA",
      "active": true,
      "type": "COMMON"
    },
    {
      "name": "Sepahijala",
      "namelocal": "സെപാഹിജല",
      "code": "DISTRICT_329",
      "id": 329,
      "stateid": 16,
      "statecode": "STATE_TRIPURA",
      "active": true,
      "type": "COMMON"
    },
    {
      "name": "Unakoti",
      "namelocal": "ഉനകൊട്ടി",
      "code": "DISTRICT_330",
      "id": 330,
      "stateid": 16,
      "statecode": "STATE_TRIPURA",
      "active": true,
      "type": "COMMON"
    },
    {
      "name": "West Garo Hills",
      "namelocal": "വെസ്റ്റ് ഗാരോ ഹില്‍സ്",
      "code": "DISTRICT_331",
      "id": 331,
      "stateid": 17,
      "statecode": "STATE_MEGHALAYA",
      "active": true,
      "type": "COMMON"
    },
    {
      "name": "East Garo Hills",
      "namelocal": "ഈസ്റ്റ് ഗാരോ ഹില്‍സ്",
      "code": "DISTRICT_332",
      "id": 332,
      "stateid": 17,
      "statecode": "STATE_MEGHALAYA",
      "active": true,
      "type": "COMMON"
    },
    {
      "name": "South Garo Hills",
      "namelocal": "സൗത്ത് ഗാരോ ഹില്‍സ്",
      "code": "DISTRICT_333",
      "id": 333,
      "stateid": 17,
      "statecode": "STATE_MEGHALAYA",
      "active": true,
      "type": "COMMON"
    },
    {
      "name": "West Khasi Hills",
      "namelocal": "വെസ്റ്റ് ഘാസി ഹില്‍സ്",
      "code": "DISTRICT_334",
      "id": 334,
      "stateid": 17,
      "statecode": "STATE_MEGHALAYA",
      "active": true,
      "type": "COMMON"
    },
    {
      "name": "Ri Bhoi",
      "namelocal": "റി ബോയ്",
      "code": "DISTRICT_335",
      "id": 335,
      "stateid": 17,
      "statecode": "STATE_MEGHALAYA",
      "active": true,
      "type": "COMMON"
    },
    {
      "name": "East Khasi Hills",
      "namelocal": "ഈസ്റ്റ് ഘാസി ഹില്‍സ്",
      "code": "DISTRICT_336",
      "id": 336,
      "stateid": 17,
      "statecode": "STATE_MEGHALAYA",
      "active": true,
      "type": "COMMON"
    },
    {
      "name": "West Jaintia Hills",
      "namelocal": "വെസ്റ്റ് ജയിന്‍തിയ ഹില്‍സ്",
      "code": "DISTRICT_337",
      "id": 337,
      "stateid": 17,
      "statecode": "STATE_MEGHALAYA",
      "active": true,
      "type": "COMMON"
    },
    {
      "name": "East Jaintia Hills",
      "namelocal": "ഈസ്റ്റ് ജയിന്‍തിയ ഹില്‍സ്",
      "code": "DISTRICT_338",
      "id": 338,
      "stateid": 17,
      "statecode": "STATE_MEGHALAYA",
      "active": true,
      "type": "COMMON"
    },
    {
      "name": "Jamtara",
      "namelocal": "ജംതാര",
      "code": "DISTRICT_420",
      "id": 420,
      "stateid": 20,
      "statecode": "STATE_JHARKHAND",
      "active": true,
      "type": "COMMON"
    },
    {
      "name": "North Garo Hills",
      "namelocal": "നോര്‍ത്ത് ഗാരോ ഹില്‍സ്",
      "code": "DISTRICT_339",
      "id": 339,
      "stateid": 17,
      "statecode": "STATE_MEGHALAYA",
      "active": true,
      "type": "COMMON"
    },
    {
      "name": "South West Garo Hills",
      "namelocal": "സൗത്ത് വെസ്റ്റ് ഗാരോ ഹില്‍സ്",
      "code": "DISTRICT_340",
      "id": 340,
      "stateid": 17,
      "statecode": "STATE_MEGHALAYA",
      "active": true,
      "type": "COMMON"
    },
    {
      "name": "South West Khasi Hills",
      "namelocal": "സൗത്ത് വെസ്റ്റ് ഘാസി ഹില്‍സ്",
      "code": "DISTRICT_341",
      "id": 341,
      "stateid": 17,
      "statecode": "STATE_MEGHALAYA",
      "active": true,
      "type": "COMMON"
    },
    {
      "name": "Kokrajhar",
      "namelocal": "കൊക്രാജാര്‍",
      "code": "DISTRICT_342",
      "id": 342,
      "stateid": 18,
      "statecode": "STATE_ASSAM",
      "active": true,
      "type": "COMMON"
    },
    {
      "name": "Dhubri",
      "namelocal": "ധുബ്രി",
      "code": "DISTRICT_343",
      "id": 343,
      "stateid": 18,
      "statecode": "STATE_ASSAM",
      "active": true,
      "type": "COMMON"
    },
    {
      "name": "Goalpara",
      "namelocal": "ഗോല്‍പാറ",
      "code": "DISTRICT_344",
      "id": 344,
      "stateid": 18,
      "statecode": "STATE_ASSAM",
      "active": true,
      "type": "COMMON"
    },
    {
      "name": "Bongaigaon",
      "namelocal": "ബോഗയ്ഗാവ്",
      "code": "DISTRICT_345",
      "id": 345,
      "stateid": 18,
      "statecode": "STATE_ASSAM",
      "active": true,
      "type": "COMMON"
    },
    {
      "name": "Barpeta",
      "namelocal": "ബാര്‍പെറ്റ",
      "code": "DISTRICT_346",
      "id": 346,
      "stateid": 18,
      "statecode": "STATE_ASSAM",
      "active": true,
      "type": "COMMON"
    },
    {
      "name": "Kamrup",
      "namelocal": "കാംരൂപ്",
      "code": "DISTRICT_347",
      "id": 347,
      "stateid": 18,
      "statecode": "STATE_ASSAM",
      "active": true,
      "type": "COMMON"
    },
    {
      "name": "Nalbari",
      "namelocal": "നല്‍ബറി",
      "code": "DISTRICT_348",
      "id": 348,
      "stateid": 18,
      "statecode": "STATE_ASSAM",
      "active": true,
      "type": "COMMON"
    },
    {
      "name": "Darrang",
      "namelocal": "ധറാംഗ്",
      "code": "DISTRICT_349",
      "id": 349,
      "stateid": 18,
      "statecode": "STATE_ASSAM",
      "active": true,
      "type": "COMMON"
    },
    {
      "name": "Marigaon",
      "namelocal": "മെറിഗാവ്",
      "code": "DISTRICT_350",
      "id": 350,
      "stateid": 18,
      "statecode": "STATE_ASSAM",
      "active": true,
      "type": "COMMON"
    },
    {
      "name": "Nagaon",
      "namelocal": "നാഗാവ്",
      "code": "DISTRICT_351",
      "id": 351,
      "stateid": 18,
      "statecode": "STATE_ASSAM",
      "active": true,
      "type": "COMMON"
    },
    {
      "name": "Sonitpur",
      "namelocal": "സോണിറ്റ്പൂര്‍",
      "code": "DISTRICT_352",
      "id": 352,
      "stateid": 18,
      "statecode": "STATE_ASSAM",
      "active": true,
      "type": "COMMON"
    },
    {
      "name": "Lakhimpur",
      "namelocal": "ലഖിംപൂര്‍",
      "code": "DISTRICT_353",
      "id": 353,
      "stateid": 18,
      "statecode": "STATE_ASSAM",
      "active": true,
      "type": "COMMON"
    },
    {
      "name": "Dhemaji",
      "namelocal": "ധമാജി",
      "code": "DISTRICT_354",
      "id": 354,
      "stateid": 18,
      "statecode": "STATE_ASSAM",
      "active": true,
      "type": "COMMON"
    },
    {
      "name": "Tinsukia",
      "namelocal": "തിന്‍സുകിയ",
      "code": "DISTRICT_355",
      "id": 355,
      "stateid": 18,
      "statecode": "STATE_ASSAM",
      "active": true,
      "type": "COMMON"
    },
    {
      "name": "Dibrugarh",
      "namelocal": "ദിബ്രുഗഢ്",
      "code": "DISTRICT_356",
      "id": 356,
      "stateid": 18,
      "statecode": "STATE_ASSAM",
      "active": true,
      "type": "COMMON"
    },
    {
      "name": "Sivasagar",
      "namelocal": "ശിവ്സാഗര്‍",
      "code": "DISTRICT_357",
      "id": 357,
      "stateid": 18,
      "statecode": "STATE_ASSAM",
      "active": true,
      "type": "COMMON"
    },
    {
      "name": "Jorhat",
      "namelocal": "ജോര്‍ഹട്ട്",
      "code": "DISTRICT_358",
      "id": 358,
      "stateid": 18,
      "statecode": "STATE_ASSAM",
      "active": true,
      "type": "COMMON"
    },
    {
      "name": "Golaghat",
      "namelocal": "ഗോലഘട്ട്",
      "code": "DISTRICT_359",
      "id": 359,
      "stateid": 18,
      "statecode": "STATE_ASSAM",
      "active": true,
      "type": "COMMON"
    },
    {
      "name": "Karbi Anglong",
      "namelocal": "കര്‍ബി അംഗ്‍ലോഗ്",
      "code": "DISTRICT_360",
      "id": 360,
      "stateid": 18,
      "statecode": "STATE_ASSAM",
      "active": true,
      "type": "COMMON"
    },
    {
      "name": "Dima Hasao",
      "namelocal": "ദിമ ഹസാവോ (നോര്‍ത്ത് കച്ചാര്‍ ഹില്‍സ് )",
      "code": "DISTRICT_361",
      "id": 361,
      "stateid": 18,
      "statecode": "STATE_ASSAM",
      "active": true,
      "type": "COMMON"
    },
    {
      "name": "Cachar",
      "namelocal": "കഛാര്‍",
      "code": "DISTRICT_362",
      "id": 362,
      "stateid": 18,
      "statecode": "STATE_ASSAM",
      "active": true,
      "type": "COMMON"
    },
    {
      "name": "Karimganj",
      "namelocal": "കരിംഗഞ്ച്",
      "code": "DISTRICT_363",
      "id": 363,
      "stateid": 18,
      "statecode": "STATE_ASSAM",
      "active": true,
      "type": "COMMON"
    },
    {
      "name": "Hailakandi",
      "namelocal": "ഹയ്‍ലകണ്ടി",
      "code": "DISTRICT_364",
      "id": 364,
      "stateid": 18,
      "statecode": "STATE_ASSAM",
      "active": true,
      "type": "COMMON"
    },
    {
      "name": "Baksa",
      "namelocal": "ബക്സ",
      "code": "DISTRICT_365",
      "id": 365,
      "stateid": 18,
      "statecode": "STATE_ASSAM",
      "active": true,
      "type": "COMMON"
    },
    {
      "name": "Biswanath",
      "namelocal": "ബിസ്വനാഥ്",
      "code": "DISTRICT_366",
      "id": 366,
      "stateid": 18,
      "statecode": "STATE_ASSAM",
      "active": true,
      "type": "COMMON"
    },
    {
      "name": "Charaideo",
      "namelocal": "ചരൈഡിയോ",
      "code": "DISTRICT_367",
      "id": 367,
      "stateid": 18,
      "statecode": "STATE_ASSAM",
      "active": true,
      "type": "COMMON"
    },
    {
      "name": "Chirang",
      "namelocal": "ചിരാംഗ്",
      "code": "DISTRICT_368",
      "id": 368,
      "stateid": 18,
      "statecode": "STATE_ASSAM",
      "active": true,
      "type": "COMMON"
    },
    {
      "name": "Hojai",
      "namelocal": "ഹോജയ്",
      "code": "DISTRICT_369",
      "id": 369,
      "stateid": 18,
      "statecode": "STATE_ASSAM",
      "active": true,
      "type": "COMMON"
    },
    {
      "name": "Kamrup Metro",
      "namelocal": "കാംരൂപ് മെട്രോ പൊളിറ്റന്‍",
      "code": "DISTRICT_370",
      "id": 370,
      "stateid": 18,
      "statecode": "STATE_ASSAM",
      "active": true,
      "type": "COMMON"
    },
    {
      "name": "Majuli",
      "namelocal": "മാജുലി",
      "code": "DISTRICT_371",
      "id": 371,
      "stateid": 18,
      "statecode": "STATE_ASSAM",
      "active": true,
      "type": "COMMON"
    },
    {
      "name": "South Salmara Mancachar",
      "namelocal": "സൌത്ത് സല്‍മാര മന്‍കാചാര്‍",
      "code": "DISTRICT_372",
      "id": 372,
      "stateid": 18,
      "statecode": "STATE_ASSAM",
      "active": true,
      "type": "COMMON"
    },
    {
      "name": "Udalguri",
      "namelocal": "ഉദല്‍ഗുരി",
      "code": "DISTRICT_373",
      "id": 373,
      "stateid": 18,
      "statecode": "STATE_ASSAM",
      "active": true,
      "type": "COMMON"
    },
    {
      "name": "West Karbi Anglong",
      "namelocal": "വെസ്റ്റ് കര്‍ബി ആംഗലോഗ്",
      "code": "DISTRICT_374",
      "id": 374,
      "stateid": 18,
      "statecode": "STATE_ASSAM",
      "active": true,
      "type": "COMMON"
    },
    {
      "name": "Darjeeling",
      "namelocal": "ഡാര്‍ജിലിംഗ്",
      "code": "DISTRICT_375",
      "id": 375,
      "stateid": 19,
      "statecode": "STATE_WESTBENGAL",
      "active": true,
      "type": "COMMON"
    },
    {
      "name": "Jalpaiguri",
      "namelocal": "ജല്‍പായ്ഗൂരി",
      "code": "DISTRICT_376",
      "id": 376,
      "stateid": 19,
      "statecode": "STATE_WESTBENGAL",
      "active": true,
      "type": "COMMON"
    },
    {
      "name": "Coochbehar",
      "namelocal": "കുച്ച് ബീഹാര്‍",
      "code": "DISTRICT_377",
      "id": 377,
      "stateid": 19,
      "statecode": "STATE_WESTBENGAL",
      "active": true,
      "type": "COMMON"
    },
    {
      "name": "Dinajpur Uttar",
      "namelocal": "ദിനജ്പൂര്‍ ഉത്തര്‍",
      "code": "DISTRICT_378",
      "id": 378,
      "stateid": 19,
      "statecode": "STATE_WESTBENGAL",
      "active": true,
      "type": "COMMON"
    },
    {
      "name": "Dinajpur Dakshin",
      "namelocal": "ദിനജ്പൂര്‍ ദക്ഷിണ്‍",
      "code": "DISTRICT_379",
      "id": 379,
      "stateid": 19,
      "statecode": "STATE_WESTBENGAL",
      "active": true,
      "type": "COMMON"
    },
    {
      "name": "Maldah",
      "namelocal": "മാല്‍ഡ",
      "code": "DISTRICT_380",
      "id": 380,
      "stateid": 19,
      "statecode": "STATE_WESTBENGAL",
      "active": true,
      "type": "COMMON"
    },
    {
      "name": "Murshidabad",
      "namelocal": "മൂര്‍ഷിദാബാദ്",
      "code": "DISTRICT_381",
      "id": 381,
      "stateid": 19,
      "statecode": "STATE_WESTBENGAL",
      "active": true,
      "type": "COMMON"
    },
    {
      "name": "Birbhum",
      "namelocal": "ബിര്‍ഭും",
      "code": "DISTRICT_382",
      "id": 382,
      "stateid": 19,
      "statecode": "STATE_WESTBENGAL",
      "active": true,
      "type": "COMMON"
    },
    {
      "name": "Purba Bardhaman",
      "namelocal": "ബര്‍ധമാന്‍",
      "code": "DISTRICT_383",
      "id": 383,
      "stateid": 19,
      "statecode": "STATE_WESTBENGAL",
      "active": true,
      "type": "COMMON"
    },
    {
      "name": "Nadia",
      "namelocal": "നാദിയ",
      "code": "DISTRICT_384",
      "id": 384,
      "stateid": 19,
      "statecode": "STATE_WESTBENGAL",
      "active": true,
      "type": "COMMON"
    },
    {
      "name": "24 Paraganas North",
      "namelocal": "24 പര്‍ഗാനസ് നോര്‍ത്ത് ",
      "code": "DISTRICT_385",
      "id": 385,
      "stateid": 19,
      "statecode": "STATE_WESTBENGAL",
      "active": true,
      "type": "COMMON"
    },
    {
      "name": "Hooghly",
      "namelocal": "ഹൂഗ്ളി",
      "code": "DISTRICT_386",
      "id": 386,
      "stateid": 19,
      "statecode": "STATE_WESTBENGAL",
      "active": true,
      "type": "COMMON"
    },
    {
      "name": "Bankura",
      "namelocal": "ബാങ്കുര",
      "code": "DISTRICT_387",
      "id": 387,
      "stateid": 19,
      "statecode": "STATE_WESTBENGAL",
      "active": true,
      "type": "COMMON"
    },
    {
      "name": "Purulia",
      "namelocal": "പുരുലിയ",
      "code": "DISTRICT_388",
      "id": 388,
      "stateid": 19,
      "statecode": "STATE_WESTBENGAL",
      "active": true,
      "type": "COMMON"
    },
    {
      "name": "Medinipur East",
      "namelocal": "മേദിനിപുര്‍ ഈസ്റ്റ്",
      "code": "DISTRICT_389",
      "id": 389,
      "stateid": 19,
      "statecode": "STATE_WESTBENGAL",
      "active": true,
      "type": "COMMON"
    },
    {
      "name": "Medinipur West",
      "namelocal": "മേദിനിപുര്‍ വെസ്റ്റ്",
      "code": "DISTRICT_390",
      "id": 390,
      "stateid": 19,
      "statecode": "STATE_WESTBENGAL",
      "active": true,
      "type": "COMMON"
    },
    {
      "name": "Howrah",
      "namelocal": "ഹൗറ",
      "code": "DISTRICT_391",
      "id": 391,
      "stateid": 19,
      "statecode": "STATE_WESTBENGAL",
      "active": true,
      "type": "COMMON"
    },
    {
      "name": "Kolkata",
      "namelocal": "കല്‍ക്കട്ട",
      "code": "DISTRICT_392",
      "id": 392,
      "stateid": 19,
      "statecode": "STATE_WESTBENGAL",
      "active": true,
      "type": "COMMON"
    },
    {
      "name": "24 Paraganas South",
      "namelocal": "24 പര്‍ഗാനസ് സൗത്ത്",
      "code": "DISTRICT_393",
      "id": 393,
      "stateid": 19,
      "statecode": "STATE_WESTBENGAL",
      "active": true,
      "type": "COMMON"
    },
    {
      "name": "Alipurduar",
      "namelocal": "അലിപൂര്‍ദ്വാര്‍ ",
      "code": "DISTRICT_394",
      "id": 394,
      "stateid": 19,
      "statecode": "STATE_WESTBENGAL",
      "active": true,
      "type": "COMMON"
    },
    {
      "name": "Jhargram",
      "namelocal": "ഝര്‍ഗ്രം",
      "code": "DISTRICT_395",
      "id": 395,
      "stateid": 19,
      "statecode": "STATE_WESTBENGAL",
      "active": true,
      "type": "COMMON"
    },
    {
      "name": "Kalimpong",
      "namelocal": "കാലിംപോങ്",
      "code": "DISTRICT_396",
      "id": 396,
      "stateid": 19,
      "statecode": "STATE_WESTBENGAL",
      "active": true,
      "type": "COMMON"
    },
    {
      "name": "Paschim Bardhaman",
      "namelocal": "പശ്ചിം ബര്‍ധമന്‍",
      "code": "DISTRICT_397",
      "id": 397,
      "stateid": 19,
      "statecode": "STATE_WESTBENGAL",
      "active": true,
      "type": "COMMON"
    },
    {
      "name": "Garhwa",
      "namelocal": "ഗഢ്‍വ",
      "code": "DISTRICT_398",
      "id": 398,
      "stateid": 20,
      "statecode": "STATE_JHARKHAND",
      "active": true,
      "type": "COMMON"
    },
    {
      "name": "Latehar",
      "namelocal": "ലതേഹര്‍",
      "code": "DISTRICT_399",
      "id": 399,
      "stateid": 20,
      "statecode": "STATE_JHARKHAND",
      "active": true,
      "type": "COMMON"
    },
    {
      "name": "Palamu",
      "namelocal": "പലാമു",
      "code": "DISTRICT_400",
      "id": 400,
      "stateid": 20,
      "statecode": "STATE_JHARKHAND",
      "active": true,
      "type": "COMMON"
    },
    {
      "name": "Chatra",
      "namelocal": "ഛത്ര",
      "code": "DISTRICT_401",
      "id": 401,
      "stateid": 20,
      "statecode": "STATE_JHARKHAND",
      "active": true,
      "type": "COMMON"
    },
    {
      "name": "Hazaribagh",
      "namelocal": "ഹസാരിബാഗ്",
      "code": "DISTRICT_402",
      "id": 402,
      "stateid": 20,
      "statecode": "STATE_JHARKHAND",
      "active": true,
      "type": "COMMON"
    },
    {
      "name": "Ramgarh",
      "namelocal": null,
      "code": "DISTRICT_403",
      "id": 403,
      "stateid": 20,
      "statecode": "STATE_JHARKHAND",
      "active": true,
      "type": "COMMON"
    },
    {
      "name": "Koderma",
      "namelocal": "കോടര്‍മ",
      "code": "DISTRICT_404",
      "id": 404,
      "stateid": 20,
      "statecode": "STATE_JHARKHAND",
      "active": true,
      "type": "COMMON"
    },
    {
      "name": "Giridih",
      "namelocal": "ഗിരിദി",
      "code": "DISTRICT_405",
      "id": 405,
      "stateid": 20,
      "statecode": "STATE_JHARKHAND",
      "active": true,
      "type": "COMMON"
    },
    {
      "name": "Deoghar",
      "namelocal": "ഷ്യോഹര്‍",
      "code": "DISTRICT_406",
      "id": 406,
      "stateid": 20,
      "statecode": "STATE_JHARKHAND",
      "active": true,
      "type": "COMMON"
    },
    {
      "name": "Godda",
      "namelocal": "ഗോഡ",
      "code": "DISTRICT_407",
      "id": 407,
      "stateid": 20,
      "statecode": "STATE_JHARKHAND",
      "active": true,
      "type": "COMMON"
    },
    {
      "name": "Sahebganj",
      "namelocal": "സാഹേബ്‍ഗഞ്ച്",
      "code": "DISTRICT_408",
      "id": 408,
      "stateid": 20,
      "statecode": "STATE_JHARKHAND",
      "active": true,
      "type": "COMMON"
    },
    {
      "name": "Pakur",
      "namelocal": "പകുര്‍",
      "code": "DISTRICT_409",
      "id": 409,
      "stateid": 20,
      "statecode": "STATE_JHARKHAND",
      "active": true,
      "type": "COMMON"
    },
    {
      "name": "Dumka",
      "namelocal": "ഡുംക",
      "code": "DISTRICT_410",
      "id": 410,
      "stateid": 20,
      "statecode": "STATE_JHARKHAND",
      "active": true,
      "type": "COMMON"
    },
    {
      "name": "Dhanbad",
      "namelocal": "ധന്‍ബാദ്",
      "code": "DISTRICT_411",
      "id": 411,
      "stateid": 20,
      "statecode": "STATE_JHARKHAND",
      "active": true,
      "type": "COMMON"
    },
    {
      "name": "Bokaro",
      "namelocal": "ബോക്കാറോ",
      "code": "DISTRICT_412",
      "id": 412,
      "stateid": 20,
      "statecode": "STATE_JHARKHAND",
      "active": true,
      "type": "COMMON"
    },
    {
      "name": "Khunti",
      "namelocal": "ഘുന്തി",
      "code": "DISTRICT_413",
      "id": 413,
      "stateid": 20,
      "statecode": "STATE_JHARKHAND",
      "active": true,
      "type": "COMMON"
    },
    {
      "name": "Ranchi",
      "namelocal": "റാഞ്ചി",
      "code": "DISTRICT_414",
      "id": 414,
      "stateid": 20,
      "statecode": "STATE_JHARKHAND",
      "active": true,
      "type": "COMMON"
    },
    {
      "name": "Lohardaga",
      "namelocal": "ലോഹര്‍ഡാഗ",
      "code": "DISTRICT_415",
      "id": 415,
      "stateid": 20,
      "statecode": "STATE_JHARKHAND",
      "active": true,
      "type": "COMMON"
    },
    {
      "name": "Gumla",
      "namelocal": "ഗുംല",
      "code": "DISTRICT_416",
      "id": 416,
      "stateid": 20,
      "statecode": "STATE_JHARKHAND",
      "active": true,
      "type": "COMMON"
    },
    {
      "name": "Saraikela Kharsawan",
      "namelocal": "സെരായികേല ഘര്‍സാവന്‍",
      "code": "DISTRICT_417",
      "id": 417,
      "stateid": 20,
      "statecode": "STATE_JHARKHAND",
      "active": true,
      "type": "COMMON"
    },
    {
      "name": "West Singhbhum",
      "namelocal": "വെസ്റ്റ് സിങ്ഭും",
      "code": "DISTRICT_418",
      "id": 418,
      "stateid": 20,
      "statecode": "STATE_JHARKHAND",
      "active": true,
      "type": "COMMON"
    },
    {
      "name": "East Singhbum",
      "namelocal": "ഈസ്റ്റ് സിങ്ഭും",
      "code": "DISTRICT_419",
      "id": 419,
      "stateid": 20,
      "statecode": "STATE_JHARKHAND",
      "active": true,
      "type": "COMMON"
    },
    {
      "name": "Simdega",
      "namelocal": "സിംദേഗ",
      "code": "DISTRICT_421",
      "id": 421,
      "stateid": 20,
      "statecode": "STATE_JHARKHAND",
      "active": true,
      "type": "COMMON"
    },
    {
      "name": "Bargarh",
      "namelocal": "ബാര്‍ഗഢ്",
      "code": "DISTRICT_422",
      "id": 422,
      "stateid": 21,
      "statecode": "STATE_ODISHA",
      "active": true,
      "type": "COMMON"
    },
    {
      "name": "Jharsuguda",
      "namelocal": "ജാര്‍സുഗുഡ",
      "code": "DISTRICT_423",
      "id": 423,
      "stateid": 21,
      "statecode": "STATE_ODISHA",
      "active": true,
      "type": "COMMON"
    },
    {
      "name": "Sambalpur",
      "namelocal": "സാംബല്‍പുര്‍",
      "code": "DISTRICT_424",
      "id": 424,
      "stateid": 21,
      "statecode": "STATE_ODISHA",
      "active": true,
      "type": "COMMON"
    },
    {
      "name": "Deogarh",
      "namelocal": "ദേവ്ഗഢ്",
      "code": "DISTRICT_425",
      "id": 425,
      "stateid": 21,
      "statecode": "STATE_ODISHA",
      "active": true,
      "type": "COMMON"
    },
    {
      "name": "Sundargarh",
      "namelocal": "സുന്ദര്‍ഗഢ്",
      "code": "DISTRICT_426",
      "id": 426,
      "stateid": 21,
      "statecode": "STATE_ODISHA",
      "active": true,
      "type": "COMMON"
    },
    {
      "name": "Kendujhar",
      "namelocal": "കേന്‍ധുഝര്‍",
      "code": "DISTRICT_427",
      "id": 427,
      "stateid": 21,
      "statecode": "STATE_ODISHA",
      "active": true,
      "type": "COMMON"
    },
    {
      "name": "Mayurbhanj",
      "namelocal": "മയൂര്‍ഭഞ്ച്",
      "code": "DISTRICT_428",
      "id": 428,
      "stateid": 21,
      "statecode": "STATE_ODISHA",
      "active": true,
      "type": "COMMON"
    },
    {
      "name": "Baleshwar",
      "namelocal": "ബാലേശ്വര്‍",
      "code": "DISTRICT_429",
      "id": 429,
      "stateid": 21,
      "statecode": "STATE_ODISHA",
      "active": true,
      "type": "COMMON"
    },
    {
      "name": "Bhadrak",
      "namelocal": "ഭദ്രക്",
      "code": "DISTRICT_430",
      "id": 430,
      "stateid": 21,
      "statecode": "STATE_ODISHA",
      "active": true,
      "type": "COMMON"
    },
    {
      "name": "Kendrapara",
      "namelocal": "കേന്ദ്രപാറ",
      "code": "DISTRICT_431",
      "id": 431,
      "stateid": 21,
      "statecode": "STATE_ODISHA",
      "active": true,
      "type": "COMMON"
    },
    {
      "name": "Jagatsinghapur",
      "namelocal": "ജഗത്സിംഗ്പുര്‍",
      "code": "DISTRICT_432",
      "id": 432,
      "stateid": 21,
      "statecode": "STATE_ODISHA",
      "active": true,
      "type": "COMMON"
    },
    {
      "name": "Cuttack",
      "namelocal": "കട്ടക്ക്",
      "code": "DISTRICT_433",
      "id": 433,
      "stateid": 21,
      "statecode": "STATE_ODISHA",
      "active": true,
      "type": "COMMON"
    },
    {
      "name": "Jajapur",
      "namelocal": "ജാജ്പുര്‍",
      "code": "DISTRICT_434",
      "id": 434,
      "stateid": 21,
      "statecode": "STATE_ODISHA",
      "active": true,
      "type": "COMMON"
    },
    {
      "name": "Dhenkanal",
      "namelocal": "ധെന്‍കനാല്‍",
      "code": "DISTRICT_435",
      "id": 435,
      "stateid": 21,
      "statecode": "STATE_ODISHA",
      "active": true,
      "type": "COMMON"
    },
    {
      "name": "Anugul",
      "namelocal": "അങ്കുല്‍",
      "code": "DISTRICT_436",
      "id": 436,
      "stateid": 21,
      "statecode": "STATE_ODISHA",
      "active": true,
      "type": "COMMON"
    },
    {
      "name": "Nayagarh",
      "namelocal": "നയാഗഢ്",
      "code": "DISTRICT_437",
      "id": 437,
      "stateid": 21,
      "statecode": "STATE_ODISHA",
      "active": true,
      "type": "COMMON"
    },
    {
      "name": "Khordha",
      "namelocal": "കോര്‍ഡാ",
      "code": "DISTRICT_438",
      "id": 438,
      "stateid": 21,
      "statecode": "STATE_ODISHA",
      "active": true,
      "type": "COMMON"
    },
    {
      "name": "Puri",
      "namelocal": "പുരി",
      "code": "DISTRICT_439",
      "id": 439,
      "stateid": 21,
      "statecode": "STATE_ODISHA",
      "active": true,
      "type": "COMMON"
    },
    {
      "name": "Ganjam",
      "namelocal": "ഗഞ്ചം",
      "code": "DISTRICT_440",
      "id": 440,
      "stateid": 21,
      "statecode": "STATE_ODISHA",
      "active": true,
      "type": "COMMON"
    },
    {
      "name": "Gajapati",
      "namelocal": "ഗജപതി",
      "code": "DISTRICT_441",
      "id": 441,
      "stateid": 21,
      "statecode": "STATE_ODISHA",
      "active": true,
      "type": "COMMON"
    },
    {
      "name": "Kandhamal",
      "namelocal": "കാന്തമല്‍",
      "code": "DISTRICT_442",
      "id": 442,
      "stateid": 21,
      "statecode": "STATE_ODISHA",
      "active": true,
      "type": "COMMON"
    },
    {
      "name": "Boudh",
      "namelocal": "ബൗധ്",
      "code": "DISTRICT_443",
      "id": 443,
      "stateid": 21,
      "statecode": "STATE_ODISHA",
      "active": true,
      "type": "COMMON"
    },
    {
      "name": "Sonepur",
      "namelocal": "സോനെപൂര്‍",
      "code": "DISTRICT_444",
      "id": 444,
      "stateid": 21,
      "statecode": "STATE_ODISHA",
      "active": true,
      "type": "COMMON"
    },
    {
      "name": "Balangir",
      "namelocal": "ബലന്‍ഗീര്‍",
      "code": "DISTRICT_445",
      "id": 445,
      "stateid": 21,
      "statecode": "STATE_ODISHA",
      "active": true,
      "type": "COMMON"
    },
    {
      "name": "Nuapada",
      "namelocal": "നുവാപാഡ",
      "code": "DISTRICT_446",
      "id": 446,
      "stateid": 21,
      "statecode": "STATE_ODISHA",
      "active": true,
      "type": "COMMON"
    },
    {
      "name": "Kalahandi",
      "namelocal": "കലഹന്ദി",
      "code": "DISTRICT_447",
      "id": 447,
      "stateid": 21,
      "statecode": "STATE_ODISHA",
      "active": true,
      "type": "COMMON"
    },
    {
      "name": "Rayagada",
      "namelocal": "റായ്ഗുഡാ",
      "code": "DISTRICT_448",
      "id": 448,
      "stateid": 21,
      "statecode": "STATE_ODISHA",
      "active": true,
      "type": "COMMON"
    },
    {
      "name": "Nabarangpur",
      "namelocal": "നബരങ്പുര്‍",
      "code": "DISTRICT_449",
      "id": 449,
      "stateid": 21,
      "statecode": "STATE_ODISHA",
      "active": true,
      "type": "COMMON"
    },
    {
      "name": "Koraput",
      "namelocal": "കോരാപുട്",
      "code": "DISTRICT_450",
      "id": 450,
      "stateid": 21,
      "statecode": "STATE_ODISHA",
      "active": true,
      "type": "COMMON"
    },
    {
      "name": "Malkangiri",
      "namelocal": "മല്‍കാനഗിരി",
      "code": "DISTRICT_451",
      "id": 451,
      "stateid": 21,
      "statecode": "STATE_ODISHA",
      "active": true,
      "type": "COMMON"
    },
    {
      "name": "Korea",
      "namelocal": "കൊറിയ",
      "code": "DISTRICT_452",
      "id": 452,
      "stateid": 22,
      "statecode": "STATE_CHHATTISGARH",
      "active": true,
      "type": "COMMON"
    },
    {
      "name": "Surguja",
      "namelocal": "സര്‍ഗുജ",
      "code": "DISTRICT_453",
      "id": 453,
      "stateid": 22,
      "statecode": "STATE_CHHATTISGARH",
      "active": true,
      "type": "COMMON"
    },
    {
      "name": "Jashpur",
      "namelocal": "ജാഷ്പൂര്‍",
      "code": "DISTRICT_454",
      "id": 454,
      "stateid": 22,
      "statecode": "STATE_CHHATTISGARH",
      "active": true,
      "type": "COMMON"
    },
    {
      "name": "Raigarh",
      "namelocal": "റായ്ഗഢ്",
      "code": "DISTRICT_455",
      "id": 455,
      "stateid": 22,
      "statecode": "STATE_CHHATTISGARH",
      "active": true,
      "type": "COMMON"
    },
    {
      "name": "Korba",
      "namelocal": "കോര്‍ബാ",
      "code": "DISTRICT_456",
      "id": 456,
      "stateid": 22,
      "statecode": "STATE_CHHATTISGARH",
      "active": true,
      "type": "COMMON"
    },
    {
      "name": "Janjgir-Champa",
      "namelocal": "ജന്‍ജ്ഗീര്‍-ചംബ",
      "code": "DISTRICT_457",
      "id": 457,
      "stateid": 22,
      "statecode": "STATE_CHHATTISGARH",
      "active": true,
      "type": "COMMON"
    },
    {
      "name": "Bilaspur",
      "namelocal": "ബിലാസ്പൂര്‍",
      "code": "DISTRICT_458",
      "id": 458,
      "stateid": 22,
      "statecode": "STATE_CHHATTISGARH",
      "active": true,
      "type": "COMMON"
    },
    {
      "name": "Kabirdham",
      "namelocal": "കാബിര്‍ധം",
      "code": "DISTRICT_459",
      "id": 459,
      "stateid": 22,
      "statecode": "STATE_CHHATTISGARH",
      "active": true,
      "type": "COMMON"
    },
    {
      "name": "Rajnandgaon",
      "namelocal": "രാജ്നന്ദഗാവ്",
      "code": "DISTRICT_460",
      "id": 460,
      "stateid": 22,
      "statecode": "STATE_CHHATTISGARH",
      "active": true,
      "type": "COMMON"
    },
    {
      "name": "Durg",
      "namelocal": "ദുര്‍ഗ്",
      "code": "DISTRICT_461",
      "id": 461,
      "stateid": 22,
      "statecode": "STATE_CHHATTISGARH",
      "active": true,
      "type": "COMMON"
    },
    {
      "name": "Raipur",
      "namelocal": "റായ്പൂര്‍",
      "code": "DISTRICT_462",
      "id": 462,
      "stateid": 22,
      "statecode": "STATE_CHHATTISGARH",
      "active": true,
      "type": "COMMON"
    },
    {
      "name": "Mahasamund",
      "namelocal": "മഹാസമുന്ദ്",
      "code": "DISTRICT_463",
      "id": 463,
      "stateid": 22,
      "statecode": "STATE_CHHATTISGARH",
      "active": true,
      "type": "COMMON"
    },
    {
      "name": "Dhamtari",
      "namelocal": "ധംതരി",
      "code": "DISTRICT_464",
      "id": 464,
      "stateid": 22,
      "statecode": "STATE_CHHATTISGARH",
      "active": true,
      "type": "COMMON"
    },
    {
      "name": "Kanker",
      "namelocal": "കാന്‍കര്‍",
      "code": "DISTRICT_465",
      "id": 465,
      "stateid": 22,
      "statecode": "STATE_CHHATTISGARH",
      "active": true,
      "type": "COMMON"
    },
    {
      "name": "Bastar",
      "namelocal": "ബാസ്താര്‍",
      "code": "DISTRICT_466",
      "id": 466,
      "stateid": 22,
      "statecode": "STATE_CHHATTISGARH",
      "active": true,
      "type": "COMMON"
    },
    {
      "name": "Bijapur",
      "namelocal": "ബിജാപൂര്‍",
      "code": "DISTRICT_467",
      "id": 467,
      "stateid": 22,
      "statecode": "STATE_CHHATTISGARH",
      "active": true,
      "type": "COMMON"
    },
    {
      "name": "Dantewada",
      "namelocal": "ദന്‍തേവാഡ",
      "code": "DISTRICT_468",
      "id": 468,
      "stateid": 22,
      "statecode": "STATE_CHHATTISGARH",
      "active": true,
      "type": "COMMON"
    },
    {
      "name": "Balod",
      "namelocal": "ബലോഡ്",
      "code": "DISTRICT_469",
      "id": 469,
      "stateid": 22,
      "statecode": "STATE_CHHATTISGARH",
      "active": true,
      "type": "COMMON"
    },
    {
      "name": "Baloda Bazar",
      "namelocal": "ബലോഡ ബസാര്‍",
      "code": "DISTRICT_470",
      "id": 470,
      "stateid": 22,
      "statecode": "STATE_CHHATTISGARH",
      "active": true,
      "type": "COMMON"
    },
    {
      "name": "Balrampur",
      "namelocal": "ബാല്‍രാംപൂര്‍",
      "code": "DISTRICT_471",
      "id": 471,
      "stateid": 22,
      "statecode": "STATE_CHHATTISGARH",
      "active": true,
      "type": "COMMON"
    },
    {
      "name": "Bemetara",
      "namelocal": "ബെമെത്തര",
      "code": "DISTRICT_472",
      "id": 472,
      "stateid": 22,
      "statecode": "STATE_CHHATTISGARH",
      "active": true,
      "type": "COMMON"
    },
    {
      "name": "Gariyaband",
      "namelocal": "ഗാരിയബന്ധ്‌",
      "code": "DISTRICT_473",
      "id": 473,
      "stateid": 22,
      "statecode": "STATE_CHHATTISGARH",
      "active": true,
      "type": "COMMON"
    },
    {
      "name": "Kondagaon",
      "namelocal": "കൊണ്ടാഗാവ്‌",
      "code": "DISTRICT_474",
      "id": 474,
      "stateid": 22,
      "statecode": "STATE_CHHATTISGARH",
      "active": true,
      "type": "COMMON"
    },
    {
      "name": "Mungeli",
      "namelocal": "മുംഗേലി",
      "code": "DISTRICT_475",
      "id": 475,
      "stateid": 22,
      "statecode": "STATE_CHHATTISGARH",
      "active": true,
      "type": "COMMON"
    },
    {
      "name": "Narayanpur",
      "namelocal": "നാരായണ്‍പൂര്‍",
      "code": "DISTRICT_476",
      "id": 476,
      "stateid": 22,
      "statecode": "STATE_CHHATTISGARH",
      "active": true,
      "type": "COMMON"
    },
    {
      "name": "Sukma",
      "namelocal": "സുക്മ",
      "code": "DISTRICT_477",
      "id": 477,
      "stateid": 22,
      "statecode": "STATE_CHHATTISGARH",
      "active": true,
      "type": "COMMON"
    },
    {
      "name": "Surajpur",
      "namelocal": "സുരജ്പൂര്‍",
      "code": "DISTRICT_478",
      "id": 478,
      "stateid": 22,
      "statecode": "STATE_CHHATTISGARH",
      "active": true,
      "type": "COMMON"
    },
    {
      "name": "Sheopur",
      "namelocal": "ശ്യോപുര്‍",
      "code": "DISTRICT_479",
      "id": 479,
      "stateid": 23,
      "statecode": "STATE_MADHYA_PRADESH",
      "active": true,
      "type": "COMMON"
    },
    {
      "name": "Morena",
      "namelocal": "മൊറേന",
      "code": "DISTRICT_480",
      "id": 480,
      "stateid": 23,
      "statecode": "STATE_MADHYA_PRADESH",
      "active": true,
      "type": "COMMON"
    },
    {
      "name": "Bhind",
      "namelocal": "ഭിന്‍ഡ്",
      "code": "DISTRICT_481",
      "id": 481,
      "stateid": 23,
      "statecode": "STATE_MADHYA_PRADESH",
      "active": true,
      "type": "COMMON"
    },
    {
      "name": "Gwalior",
      "namelocal": "ഗ്വാളിയര്‍",
      "code": "DISTRICT_482",
      "id": 482,
      "stateid": 23,
      "statecode": "STATE_MADHYA_PRADESH",
      "active": true,
      "type": "COMMON"
    },
    {
      "name": "Datia",
      "namelocal": "ദടിയ",
      "code": "DISTRICT_483",
      "id": 483,
      "stateid": 23,
      "statecode": "STATE_MADHYA_PRADESH",
      "active": true,
      "type": "COMMON"
    },
    {
      "name": "Shivpuri",
      "namelocal": "ശിവപുരി",
      "code": "DISTRICT_484",
      "id": 484,
      "stateid": 23,
      "statecode": "STATE_MADHYA_PRADESH",
      "active": true,
      "type": "COMMON"
    },
    {
      "name": "Guna",
      "namelocal": "ഗുണ",
      "code": "DISTRICT_485",
      "id": 485,
      "stateid": 23,
      "statecode": "STATE_MADHYA_PRADESH",
      "active": true,
      "type": "COMMON"
    },
    {
      "name": "Tikamgarh",
      "namelocal": "തിക്കംഗഢ്",
      "code": "DISTRICT_486",
      "id": 486,
      "stateid": 23,
      "statecode": "STATE_MADHYA_PRADESH",
      "active": true,
      "type": "COMMON"
    },
    {
      "name": "Chhatarpur",
      "namelocal": "ഛത്രപുര്‍",
      "code": "DISTRICT_487",
      "id": 487,
      "stateid": 23,
      "statecode": "STATE_MADHYA_PRADESH",
      "active": true,
      "type": "COMMON"
    },
    {
      "name": "Panna",
      "namelocal": "പന്ന",
      "code": "DISTRICT_488",
      "id": 488,
      "stateid": 23,
      "statecode": "STATE_MADHYA_PRADESH",
      "active": true,
      "type": "COMMON"
    },
    {
      "name": "Sagar",
      "namelocal": "സാഗര്‍",
      "code": "DISTRICT_489",
      "id": 489,
      "stateid": 23,
      "statecode": "STATE_MADHYA_PRADESH",
      "active": true,
      "type": "COMMON"
    },
    {
      "name": "Damoh",
      "namelocal": "ദാമോഹ്",
      "code": "DISTRICT_490",
      "id": 490,
      "stateid": 23,
      "statecode": "STATE_MADHYA_PRADESH",
      "active": true,
      "type": "COMMON"
    },
    {
      "name": "Satna",
      "namelocal": "സത്‍ന",
      "code": "DISTRICT_491",
      "id": 491,
      "stateid": 23,
      "statecode": "STATE_MADHYA_PRADESH",
      "active": true,
      "type": "COMMON"
    },
    {
      "name": "Rewa",
      "namelocal": "റെവ",
      "code": "DISTRICT_492",
      "id": 492,
      "stateid": 23,
      "statecode": "STATE_MADHYA_PRADESH",
      "active": true,
      "type": "COMMON"
    },
    {
      "name": "Umaria",
      "namelocal": "ഉമറിയ",
      "code": "DISTRICT_493",
      "id": 493,
      "stateid": 23,
      "statecode": "STATE_MADHYA_PRADESH",
      "active": true,
      "type": "COMMON"
    },
    {
      "name": "Anuppur",
      "namelocal": "അനുപ്പൂര്‍",
      "code": "DISTRICT_494",
      "id": 494,
      "stateid": 23,
      "statecode": "STATE_MADHYA_PRADESH",
      "active": true,
      "type": "COMMON"
    },
    {
      "name": "Shahdol",
      "namelocal": "ഷഹ്ഡോല്‍",
      "code": "DISTRICT_495",
      "id": 495,
      "stateid": 23,
      "statecode": "STATE_MADHYA_PRADESH",
      "active": true,
      "type": "COMMON"
    },
    {
      "name": "Sidhi",
      "namelocal": "സീധി",
      "code": "DISTRICT_496",
      "id": 496,
      "stateid": 23,
      "statecode": "STATE_MADHYA_PRADESH",
      "active": true,
      "type": "COMMON"
    },
    {
      "name": "Neemuch",
      "namelocal": "നീമച്ച്",
      "code": "DISTRICT_497",
      "id": 497,
      "stateid": 23,
      "statecode": "STATE_MADHYA_PRADESH",
      "active": true,
      "type": "COMMON"
    },
    {
      "name": "Mandsaur",
      "namelocal": "മന്‍ഡ്സവര്‍",
      "code": "DISTRICT_498",
      "id": 498,
      "stateid": 23,
      "statecode": "STATE_MADHYA_PRADESH",
      "active": true,
      "type": "COMMON"
    },
    {
      "name": "Ratlam",
      "namelocal": "റത്‍ലം",
      "code": "DISTRICT_499",
      "id": 499,
      "stateid": 23,
      "statecode": "STATE_MADHYA_PRADESH",
      "active": true,
      "type": "COMMON"
    },
    {
      "name": "Ujjain",
      "namelocal": "ഉജ്ജയിന്‍",
      "code": "DISTRICT_500",
      "id": 500,
      "stateid": 23,
      "statecode": "STATE_MADHYA_PRADESH",
      "active": true,
      "type": "COMMON"
    },
    {
      "name": "Shajapur",
      "namelocal": "ഷാജാപുര്‍",
      "code": "DISTRICT_501",
      "id": 501,
      "stateid": 23,
      "statecode": "STATE_MADHYA_PRADESH",
      "active": true,
      "type": "COMMON"
    },
    {
      "name": "Dewas",
      "namelocal": "ദിവാസ്",
      "code": "DISTRICT_502",
      "id": 502,
      "stateid": 23,
      "statecode": "STATE_MADHYA_PRADESH",
      "active": true,
      "type": "COMMON"
    },
    {
      "name": "Alirajpur",
      "namelocal": "അലിരാജ്പൂര്‍",
      "code": "DISTRICT_503",
      "id": 503,
      "stateid": 23,
      "statecode": "STATE_MADHYA_PRADESH",
      "active": true,
      "type": "COMMON"
    },
    {
      "name": "Jhabua",
      "namelocal": "ജബുവ",
      "code": "DISTRICT_504",
      "id": 504,
      "stateid": 23,
      "statecode": "STATE_MADHYA_PRADESH",
      "active": true,
      "type": "COMMON"
    },
    {
      "name": "Dhar",
      "namelocal": "ധര്‍",
      "code": "DISTRICT_505",
      "id": 505,
      "stateid": 23,
      "statecode": "STATE_MADHYA_PRADESH",
      "active": true,
      "type": "COMMON"
    },
    {
      "name": "Indore",
      "namelocal": "ഇന്തോര്‍",
      "code": "DISTRICT_506",
      "id": 506,
      "stateid": 23,
      "statecode": "STATE_MADHYA_PRADESH",
      "active": true,
      "type": "COMMON"
    },
    {
      "name": "Khargone",
      "namelocal": "ഖര്‍ഗോന്‍",
      "code": "DISTRICT_507",
      "id": 507,
      "stateid": 23,
      "statecode": "STATE_MADHYA_PRADESH",
      "active": true,
      "type": "COMMON"
    },
    {
      "name": "Barwani",
      "namelocal": "ബര്‍വാനി",
      "code": "DISTRICT_508",
      "id": 508,
      "stateid": 23,
      "statecode": "STATE_MADHYA_PRADESH",
      "active": true,
      "type": "COMMON"
    },
    {
      "name": "Burhanpur",
      "namelocal": "ബുര്‍ഹാന്‍പൂര്‍",
      "code": "DISTRICT_509",
      "id": 509,
      "stateid": 23,
      "statecode": "STATE_MADHYA_PRADESH",
      "active": true,
      "type": "COMMON"
    },
    {
      "name": "East Nimar",
      "namelocal": "ഈസ്റ്റ് നിമര്‍",
      "code": "DISTRICT_510",
      "id": 510,
      "stateid": 23,
      "statecode": "STATE_MADHYA_PRADESH",
      "active": true,
      "type": "COMMON"
    },
    {
      "name": "Rajgarh",
      "namelocal": "റാജ്ഗഢ്",
      "code": "DISTRICT_511",
      "id": 511,
      "stateid": 23,
      "statecode": "STATE_MADHYA_PRADESH",
      "active": true,
      "type": "COMMON"
    },
    {
      "name": "Vidisha",
      "namelocal": "വിദിഷ",
      "code": "DISTRICT_512",
      "id": 512,
      "stateid": 23,
      "statecode": "STATE_MADHYA_PRADESH",
      "active": true,
      "type": "COMMON"
    },
    {
      "name": "Bhopal",
      "namelocal": "ഭോപ്പാല്‍",
      "code": "DISTRICT_513",
      "id": 513,
      "stateid": 23,
      "statecode": "STATE_MADHYA_PRADESH",
      "active": true,
      "type": "COMMON"
    },
    {
      "name": "Sehore",
      "namelocal": "സെഹോര്‍",
      "code": "DISTRICT_514",
      "id": 514,
      "stateid": 23,
      "statecode": "STATE_MADHYA_PRADESH",
      "active": true,
      "type": "COMMON"
    },
    {
      "name": "Raisen",
      "namelocal": "റയ്സ",
      "code": "DISTRICT_515",
      "id": 515,
      "stateid": 23,
      "statecode": "STATE_MADHYA_PRADESH",
      "active": true,
      "type": "COMMON"
    },
    {
      "name": "Betul",
      "namelocal": "ബേതുല്‍",
      "code": "DISTRICT_516",
      "id": 516,
      "stateid": 23,
      "statecode": "STATE_MADHYA_PRADESH",
      "active": true,
      "type": "COMMON"
    },
    {
      "name": "Harda",
      "namelocal": "ഹര്‍ദാ",
      "code": "DISTRICT_517",
      "id": 517,
      "stateid": 23,
      "statecode": "STATE_MADHYA_PRADESH",
      "active": true,
      "type": "COMMON"
    },
    {
      "name": "Hoshangabad",
      "namelocal": "ഹോഷന്‍ഗബാദ്",
      "code": "DISTRICT_518",
      "id": 518,
      "stateid": 23,
      "statecode": "STATE_MADHYA_PRADESH",
      "active": true,
      "type": "COMMON"
    },
    {
      "name": "Katni",
      "namelocal": "കട്നി",
      "code": "DISTRICT_519",
      "id": 519,
      "stateid": 23,
      "statecode": "STATE_MADHYA_PRADESH",
      "active": true,
      "type": "COMMON"
    },
    {
      "name": "Jabalpur",
      "namelocal": "ജബല്‍പൂര്‍",
      "code": "DISTRICT_520",
      "id": 520,
      "stateid": 23,
      "statecode": "STATE_MADHYA_PRADESH",
      "active": true,
      "type": "COMMON"
    },
    {
      "name": "Narsinghpur",
      "namelocal": "നര്‍സിംഗ്പുര്‍",
      "code": "DISTRICT_521",
      "id": 521,
      "stateid": 23,
      "statecode": "STATE_MADHYA_PRADESH",
      "active": true,
      "type": "COMMON"
    },
    {
      "name": "Dindori",
      "namelocal": "ഡിന്‍ഡോറി",
      "code": "DISTRICT_522",
      "id": 522,
      "stateid": 23,
      "statecode": "STATE_MADHYA_PRADESH",
      "active": true,
      "type": "COMMON"
    },
    {
      "name": "Mandla",
      "namelocal": "മണ്ട്‍ല",
      "code": "DISTRICT_523",
      "id": 523,
      "stateid": 23,
      "statecode": "STATE_MADHYA_PRADESH",
      "active": true,
      "type": "COMMON"
    },
    {
      "name": "Chhindwara",
      "namelocal": "ചിന്ദ്‍വാര",
      "code": "DISTRICT_524",
      "id": 524,
      "stateid": 23,
      "statecode": "STATE_MADHYA_PRADESH",
      "active": true,
      "type": "COMMON"
    },
    {
      "name": "Seoni",
      "namelocal": "സിയോനി",
      "code": "DISTRICT_525",
      "id": 525,
      "stateid": 23,
      "statecode": "STATE_MADHYA_PRADESH",
      "active": true,
      "type": "COMMON"
    },
    {
      "name": "Balaghat",
      "namelocal": "ബലാഘട്ട്",
      "code": "DISTRICT_526",
      "id": 526,
      "stateid": 23,
      "statecode": "STATE_MADHYA_PRADESH",
      "active": true,
      "type": "COMMON"
    },
    {
      "name": "Ashoknagar",
      "namelocal": "അശോക് നഗര്‍",
      "code": "DISTRICT_527",
      "id": 527,
      "stateid": 23,
      "statecode": "STATE_MADHYA_PRADESH",
      "active": true,
      "type": "COMMON"
    },
    {
      "name": "Agar Malwa",
      "namelocal": "ആഗര്‍ മല്‍വ",
      "code": "DISTRICT_528",
      "id": 528,
      "stateid": 23,
      "statecode": "STATE_MADHYA_PRADESH",
      "active": true,
      "type": "COMMON"
    },
    {
      "name": "Singrauli",
      "namelocal": "സിങ്ക്രൌളി",
      "code": "DISTRICT_529",
      "id": 529,
      "stateid": 23,
      "statecode": "STATE_MADHYA_PRADESH",
      "active": true,
      "type": "COMMON"
    },
    {
      "name": "Kachchh",
      "namelocal": "കഛ്",
      "code": "DISTRICT_530",
      "id": 530,
      "stateid": 24,
      "statecode": "STATE_GUJARAT",
      "active": true,
      "type": "COMMON"
    },
    {
      "name": "Banas Kantha",
      "namelocal": "ബനാസ് ‍കന്ത",
      "code": "DISTRICT_531",
      "id": 531,
      "stateid": 24,
      "statecode": "STATE_GUJARAT",
      "active": true,
      "type": "COMMON"
    },
    {
      "name": "Patan",
      "namelocal": "പഠാന്‍",
      "code": "DISTRICT_532",
      "id": 532,
      "stateid": 24,
      "statecode": "STATE_GUJARAT",
      "active": true,
      "type": "COMMON"
    },
    {
      "name": "Mahesana",
      "namelocal": "മെഹ്സാന",
      "code": "DISTRICT_533",
      "id": 533,
      "stateid": 24,
      "statecode": "STATE_GUJARAT",
      "active": true,
      "type": "COMMON"
    },
    {
      "name": "Sabar Kantha",
      "namelocal": "സബര്‍കന്ത",
      "code": "DISTRICT_534",
      "id": 534,
      "stateid": 24,
      "statecode": "STATE_GUJARAT",
      "active": true,
      "type": "COMMON"
    },
    {
      "name": "Gandhinagar",
      "namelocal": "ഗാന്ധിനഗര്‍",
      "code": "DISTRICT_535",
      "id": 535,
      "stateid": 24,
      "statecode": "STATE_GUJARAT",
      "active": true,
      "type": "COMMON"
    },
    {
      "name": "Ahmadabad",
      "namelocal": "അഹമ്മദാബാദ്",
      "code": "DISTRICT_536",
      "id": 536,
      "stateid": 24,
      "statecode": "STATE_GUJARAT",
      "active": true,
      "type": "COMMON"
    },
    {
      "name": "Surendranagar",
      "namelocal": "സുരേന്ദ്ര നഗര്‍",
      "code": "DISTRICT_537",
      "id": 537,
      "stateid": 24,
      "statecode": "STATE_GUJARAT",
      "active": true,
      "type": "COMMON"
    },
    {
      "name": "Rajkot",
      "namelocal": "രാജ്കോട്ട്",
      "code": "DISTRICT_538",
      "id": 538,
      "stateid": 24,
      "statecode": "STATE_GUJARAT",
      "active": true,
      "type": "COMMON"
    },
    {
      "name": "Jamnagar",
      "namelocal": "ജാംനഗര്‍",
      "code": "DISTRICT_539",
      "id": 539,
      "stateid": 24,
      "statecode": "STATE_GUJARAT",
      "active": true,
      "type": "COMMON"
    },
    {
      "name": "Porbandar",
      "namelocal": "പോര്‍ബന്ദര്‍",
      "code": "DISTRICT_540",
      "id": 540,
      "stateid": 24,
      "statecode": "STATE_GUJARAT",
      "active": true,
      "type": "COMMON"
    },
    {
      "name": "Junagadh",
      "namelocal": "ജുനഗഢ്",
      "code": "DISTRICT_541",
      "id": 541,
      "stateid": 24,
      "statecode": "STATE_GUJARAT",
      "active": true,
      "type": "COMMON"
    },
    {
      "name": "Amreli",
      "namelocal": "അമ്റേലി",
      "code": "DISTRICT_542",
      "id": 542,
      "stateid": 24,
      "statecode": "STATE_GUJARAT",
      "active": true,
      "type": "COMMON"
    },
    {
      "name": "Bhavnagar",
      "namelocal": "ഭാവ്നഗര്‍",
      "code": "DISTRICT_543",
      "id": 543,
      "stateid": 24,
      "statecode": "STATE_GUJARAT",
      "active": true,
      "type": "COMMON"
    },
    {
      "name": "Anand",
      "namelocal": "ആനന്ദ്",
      "code": "DISTRICT_544",
      "id": 544,
      "stateid": 24,
      "statecode": "STATE_GUJARAT",
      "active": true,
      "type": "COMMON"
    },
    {
      "name": "Kheda",
      "namelocal": "ഖേദ്ദ",
      "code": "DISTRICT_545",
      "id": 545,
      "stateid": 24,
      "statecode": "STATE_GUJARAT",
      "active": true,
      "type": "COMMON"
    },
    {
      "name": "Panch Mahals",
      "namelocal": "പഞ്ച് മഹല്‍സ്",
      "code": "DISTRICT_546",
      "id": 546,
      "stateid": 24,
      "statecode": "STATE_GUJARAT",
      "active": true,
      "type": "COMMON"
    },
    {
      "name": "Dohad",
      "namelocal": "ദാഹോദ്",
      "code": "DISTRICT_547",
      "id": 547,
      "stateid": 24,
      "statecode": "STATE_GUJARAT",
      "active": true,
      "type": "COMMON"
    },
    {
      "name": "Vadodara",
      "namelocal": "വഡോദ്ര",
      "code": "DISTRICT_548",
      "id": 548,
      "stateid": 24,
      "statecode": "STATE_GUJARAT",
      "active": true,
      "type": "COMMON"
    },
    {
      "name": "Narmada",
      "namelocal": "നര്‍മ്മദ",
      "code": "DISTRICT_549",
      "id": 549,
      "stateid": 24,
      "statecode": "STATE_GUJARAT",
      "active": true,
      "type": "COMMON"
    },
    {
      "name": "Bharuch",
      "namelocal": "ഭരുച്ച്",
      "code": "DISTRICT_550",
      "id": 550,
      "stateid": 24,
      "statecode": "STATE_GUJARAT",
      "active": true,
      "type": "COMMON"
    },
    {
      "name": "Surat",
      "namelocal": "സൂറത്ത്",
      "code": "DISTRICT_551",
      "id": 551,
      "stateid": 24,
      "statecode": "STATE_GUJARAT",
      "active": true,
      "type": "COMMON"
    },
    {
      "name": "Dang",
      "namelocal": "ഡാംഗ്സ്",
      "code": "DISTRICT_552",
      "id": 552,
      "stateid": 24,
      "statecode": "STATE_GUJARAT",
      "active": true,
      "type": "COMMON"
    },
    {
      "name": "Navsari",
      "namelocal": "നവസാരി",
      "code": "DISTRICT_553",
      "id": 553,
      "stateid": 24,
      "statecode": "STATE_GUJARAT",
      "active": true,
      "type": "COMMON"
    },
    {
      "name": "Valsad",
      "namelocal": "വല്‍സാദ്",
      "code": "DISTRICT_554",
      "id": 554,
      "stateid": 24,
      "statecode": "STATE_GUJARAT",
      "active": true,
      "type": "COMMON"
    },
    {
      "name": "Arvalli",
      "namelocal": "അര്‍വല്ലി",
      "code": "DISTRICT_555",
      "id": 555,
      "stateid": 24,
      "statecode": "STATE_GUJARAT",
      "active": true,
      "type": "COMMON"
    },
    {
      "name": "Botad",
      "namelocal": "ബൊറ്റാഡ്",
      "code": "DISTRICT_556",
      "id": 556,
      "stateid": 24,
      "statecode": "STATE_GUJARAT",
      "active": true,
      "type": "COMMON"
    },
    {
      "name": "Chhotaudepur",
      "namelocal": "ഝോത്ത്വദേപൂര്‍",
      "code": "DISTRICT_557",
      "id": 557,
      "stateid": 24,
      "statecode": "STATE_GUJARAT",
      "active": true,
      "type": "COMMON"
    },
    {
      "name": "Devbhumi Dwarka",
      "namelocal": "ദേവ്ഭുമി ദ്വാര്‍ക",
      "code": "DISTRICT_558",
      "id": 558,
      "stateid": 24,
      "statecode": "STATE_GUJARAT",
      "active": true,
      "type": "COMMON"
    },
    {
      "name": "Gir Somnath",
      "namelocal": "ഗിര്‍ സോമനഥ്",
      "code": "DISTRICT_559",
      "id": 559,
      "stateid": 24,
      "statecode": "STATE_GUJARAT",
      "active": true,
      "type": "COMMON"
    },
    {
      "name": "Mahisagar",
      "namelocal": "മഹിസാഗര്‍",
      "code": "DISTRICT_560",
      "id": 560,
      "stateid": 24,
      "statecode": "STATE_GUJARAT",
      "active": true,
      "type": "COMMON"
    },
    {
      "name": "Morbi",
      "namelocal": "മോര്‍ബി",
      "code": "DISTRICT_561",
      "id": 561,
      "stateid": 24,
      "statecode": "STATE_GUJARAT",
      "active": true,
      "type": "COMMON"
    },
    {
      "name": "Tapi",
      "namelocal": "തപി",
      "code": "DISTRICT_562",
      "id": 562,
      "stateid": 24,
      "statecode": "STATE_GUJARAT",
      "active": true,
      "type": "COMMON"
    },
    {
      "name": "Diu",
      "namelocal": "ഡ്യൂ",
      "code": "DISTRICT_563",
      "id": 563,
      "stateid": 25,
      "statecode": "STATE_DAMAN_AND_DIU",
      "active": true,
      "type": "COMMON"
    },
    {
      "name": "Daman",
      "namelocal": "ഡാമന്‍ ",
      "code": "DISTRICT_564",
      "id": 564,
      "stateid": 25,
      "statecode": "STATE_DAMAN_AND_DIU",
      "active": true,
      "type": "COMMON"
    },
    {
      "name": "Dadra And Nagar Haveli",
      "namelocal": "ദാദ്ര ആന്റ് നാഗര്‍ ഹവേലി",
      "code": "DISTRICT_565",
      "id": 565,
      "stateid": 26,
      "statecode": "STATE_DADRA_AND_NAGAR_HAVELI",
      "active": true,
      "type": "COMMON"
    },
    {
      "name": "Nandurbar",
      "namelocal": "നന്ദുര്‍ബാര്‍",
      "code": "DISTRICT_566",
      "id": 566,
      "stateid": 27,
      "statecode": "STATE_MAHARASHTRA",
      "active": true,
      "type": "COMMON"
    },
    {
      "name": "Dhule",
      "namelocal": "ധുലെ",
      "code": "DISTRICT_567",
      "id": 567,
      "stateid": 27,
      "statecode": "STATE_MAHARASHTRA",
      "active": true,
      "type": "COMMON"
    },
    {
      "name": "Jalgaon",
      "namelocal": "ജല്‍ഗാവ്",
      "code": "DISTRICT_568",
      "id": 568,
      "stateid": 27,
      "statecode": "STATE_MAHARASHTRA",
      "active": true,
      "type": "COMMON"
    },
    {
      "name": "Buldhana",
      "namelocal": "ബുല്‍ദാന",
      "code": "DISTRICT_569",
      "id": 569,
      "stateid": 27,
      "statecode": "STATE_MAHARASHTRA",
      "active": true,
      "type": "COMMON"
    },
    {
      "name": "Akola",
      "namelocal": "അകോല",
      "code": "DISTRICT_570",
      "id": 570,
      "stateid": 27,
      "statecode": "STATE_MAHARASHTRA",
      "active": true,
      "type": "COMMON"
    },
    {
      "name": "Washim",
      "namelocal": "വാഷിം",
      "code": "DISTRICT_571",
      "id": 571,
      "stateid": 27,
      "statecode": "STATE_MAHARASHTRA",
      "active": true,
      "type": "COMMON"
    },
    {
      "name": "Amravati",
      "namelocal": "അംരാവതി",
      "code": "DISTRICT_572",
      "id": 572,
      "stateid": 27,
      "statecode": "STATE_MAHARASHTRA",
      "active": true,
      "type": "COMMON"
    },
    {
      "name": "Wardha",
      "namelocal": "വാര്‍ധ",
      "code": "DISTRICT_573",
      "id": 573,
      "stateid": 27,
      "statecode": "STATE_MAHARASHTRA",
      "active": true,
      "type": "COMMON"
    },
    {
      "name": "Nagpur",
      "namelocal": "നാഗ്പുര്‍",
      "code": "DISTRICT_574",
      "id": 574,
      "stateid": 27,
      "statecode": "STATE_MAHARASHTRA",
      "active": true,
      "type": "COMMON"
    },
    {
      "name": "Bhandara",
      "namelocal": "ഭണ്ഡാര",
      "code": "DISTRICT_575",
      "id": 575,
      "stateid": 27,
      "statecode": "STATE_MAHARASHTRA",
      "active": true,
      "type": "COMMON"
    },
    {
      "name": "Gondia",
      "namelocal": "ഗോണ്ടിയ",
      "code": "DISTRICT_576",
      "id": 576,
      "stateid": 27,
      "statecode": "STATE_MAHARASHTRA",
      "active": true,
      "type": "COMMON"
    },
    {
      "name": "Gadchiroli",
      "namelocal": "ഗഡ്ചിരോലി",
      "code": "DISTRICT_577",
      "id": 577,
      "stateid": 27,
      "statecode": "STATE_MAHARASHTRA",
      "active": true,
      "type": "COMMON"
    },
    {
      "name": "Chandrapur",
      "namelocal": "ചന്ദ്രപ്പുര്‍",
      "code": "DISTRICT_578",
      "id": 578,
      "stateid": 27,
      "statecode": "STATE_MAHARASHTRA",
      "active": true,
      "type": "COMMON"
    },
    {
      "name": "Yavatmal",
      "namelocal": "യവത്മാല്‍",
      "code": "DISTRICT_579",
      "id": 579,
      "stateid": 27,
      "statecode": "STATE_MAHARASHTRA",
      "active": true,
      "type": "COMMON"
    },
    {
      "name": "Nanded",
      "namelocal": "നന്ദേഢ്",
      "code": "DISTRICT_580",
      "id": 580,
      "stateid": 27,
      "statecode": "STATE_MAHARASHTRA",
      "active": true,
      "type": "COMMON"
    },
    {
      "name": "Hingoli",
      "namelocal": "ഹിംഗോലി",
      "code": "DISTRICT_581",
      "id": 581,
      "stateid": 27,
      "statecode": "STATE_MAHARASHTRA",
      "active": true,
      "type": "COMMON"
    },
    {
      "name": "Parbhani",
      "namelocal": "പര്‍ഭനി",
      "code": "DISTRICT_582",
      "id": 582,
      "stateid": 27,
      "statecode": "STATE_MAHARASHTRA",
      "active": true,
      "type": "COMMON"
    },
    {
      "name": "Jalna",
      "namelocal": "ജാല്‍ന",
      "code": "DISTRICT_583",
      "id": 583,
      "stateid": 27,
      "statecode": "STATE_MAHARASHTRA",
      "active": true,
      "type": "COMMON"
    },
    {
      "name": "Aurangabad",
      "namelocal": "ഔറംഗാബാദ്",
      "code": "DISTRICT_584",
      "id": 584,
      "stateid": 27,
      "statecode": "STATE_MAHARASHTRA",
      "active": true,
      "type": "COMMON"
    },
    {
      "name": "Nashik",
      "namelocal": "നാസിക്",
      "code": "DISTRICT_585",
      "id": 585,
      "stateid": 27,
      "statecode": "STATE_MAHARASHTRA",
      "active": true,
      "type": "COMMON"
    },
    {
      "name": "Thane",
      "namelocal": "ഠാനെ",
      "code": "DISTRICT_586",
      "id": 586,
      "stateid": 27,
      "statecode": "STATE_MAHARASHTRA",
      "active": true,
      "type": "COMMON"
    },
    {
      "name": "Mumbai Suburban",
      "namelocal": "മുംബൈ സുബര്‍ബന്‍",
      "code": "DISTRICT_587",
      "id": 587,
      "stateid": 27,
      "statecode": "STATE_MAHARASHTRA",
      "active": true,
      "type": "COMMON"
    },
    {
      "name": "Mumbai",
      "namelocal": "മുംബൈ ",
      "code": "DISTRICT_588",
      "id": 588,
      "stateid": 27,
      "statecode": "STATE_MAHARASHTRA",
      "active": true,
      "type": "COMMON"
    },
    {
      "name": "Raigad",
      "namelocal": "റായ്ഗഢ്",
      "code": "DISTRICT_589",
      "id": 589,
      "stateid": 27,
      "statecode": "STATE_MAHARASHTRA",
      "active": true,
      "type": "COMMON"
    },
    {
      "name": "Pune",
      "namelocal": "പൂണെ",
      "code": "DISTRICT_590",
      "id": 590,
      "stateid": 27,
      "statecode": "STATE_MAHARASHTRA",
      "active": true,
      "type": "COMMON"
    },
    {
      "name": "Ahmednagar",
      "namelocal": "അഹമ്മദ്നഗര്‍",
      "code": "DISTRICT_591",
      "id": 591,
      "stateid": 27,
      "statecode": "STATE_MAHARASHTRA",
      "active": true,
      "type": "COMMON"
    },
    {
      "name": "Beed",
      "namelocal": "ബിഢ്",
      "code": "DISTRICT_592",
      "id": 592,
      "stateid": 27,
      "statecode": "STATE_MAHARASHTRA",
      "active": true,
      "type": "COMMON"
    },
    {
      "name": "Latur",
      "namelocal": "ലത്തൂര്‍",
      "code": "DISTRICT_593",
      "id": 593,
      "stateid": 27,
      "statecode": "STATE_MAHARASHTRA",
      "active": true,
      "type": "COMMON"
    },
    {
      "name": "Osmanabad",
      "namelocal": "ഒസ്‍മാനാബാദ്",
      "code": "DISTRICT_594",
      "id": 594,
      "stateid": 27,
      "statecode": "STATE_MAHARASHTRA",
      "active": true,
      "type": "COMMON"
    },
    {
      "name": "Solapur",
      "namelocal": "സോളാപ്പൂര്‍",
      "code": "DISTRICT_595",
      "id": 595,
      "stateid": 27,
      "statecode": "STATE_MAHARASHTRA",
      "active": true,
      "type": "COMMON"
    },
    {
      "name": "Satara",
      "namelocal": "സത്താറ",
      "code": "DISTRICT_596",
      "id": 596,
      "stateid": 27,
      "statecode": "STATE_MAHARASHTRA",
      "active": true,
      "type": "COMMON"
    },
    {
      "name": "Ratnagiri",
      "namelocal": "രത്നഗിരി",
      "code": "DISTRICT_597",
      "id": 597,
      "stateid": 27,
      "statecode": "STATE_MAHARASHTRA",
      "active": true,
      "type": "COMMON"
    },
    {
      "name": "Sindhudurg",
      "namelocal": "സിന്ധുദുര്‍ഗ്",
      "code": "DISTRICT_598",
      "id": 598,
      "stateid": 27,
      "statecode": "STATE_MAHARASHTRA",
      "active": true,
      "type": "COMMON"
    },
    {
      "name": "Kolhapur",
      "namelocal": "കോല്‍ഹാപ്പുര്‍",
      "code": "DISTRICT_599",
      "id": 599,
      "stateid": 27,
      "statecode": "STATE_MAHARASHTRA",
      "active": true,
      "type": "COMMON"
    },
    {
      "name": "Sangli",
      "namelocal": "സാംഗ്ളി",
      "code": "DISTRICT_600",
      "id": 600,
      "stateid": 27,
      "statecode": "STATE_MAHARASHTRA",
      "active": true,
      "type": "COMMON"
    },
    {
      "name": "Palghar",
      "namelocal": "പാല്‍ഘര്‍",
      "code": "DISTRICT_601",
      "id": 601,
      "stateid": 27,
      "statecode": "STATE_MAHARASHTRA",
      "active": true,
      "type": "COMMON"
    },
    {
      "name": "Srikakulam",
      "namelocal": "ശ്രീകാകുളം",
      "code": "DISTRICT_602",
      "id": 602,
      "stateid": 28,
      "statecode": "STATE_ANDHRA_PRADESH",
      "active": true,
      "type": "COMMON"
    },
    {
      "name": "Vizianagaram",
      "namelocal": "വിജയനഗരം",
      "code": "DISTRICT_603",
      "id": 603,
      "stateid": 28,
      "statecode": "STATE_ANDHRA_PRADESH",
      "active": true,
      "type": "COMMON"
    },
    {
      "name": "Visakhapatanam",
      "namelocal": "വിശാഖപട്ടണം",
      "code": "DISTRICT_604",
      "id": 604,
      "stateid": 28,
      "statecode": "STATE_ANDHRA_PRADESH",
      "active": true,
      "type": "COMMON"
    },
    {
      "name": "East Godavari",
      "namelocal": "ഈസ്റ്റ് ഗോദാവരി",
      "code": "DISTRICT_605",
      "id": 605,
      "stateid": 28,
      "statecode": "STATE_ANDHRA_PRADESH",
      "active": true,
      "type": "COMMON"
    },
    {
      "name": "West Godavari",
      "namelocal": "വെസ്റ്റ് ഗോദാവരി",
      "code": "DISTRICT_606",
      "id": 606,
      "stateid": 28,
      "statecode": "STATE_ANDHRA_PRADESH",
      "active": true,
      "type": "COMMON"
    },
    {
      "name": "Krishna",
      "namelocal": "കൃഷ്ണ",
      "code": "DISTRICT_607",
      "id": 607,
      "stateid": 28,
      "statecode": "STATE_ANDHRA_PRADESH",
      "active": true,
      "type": "COMMON"
    },
    {
      "name": "Guntur",
      "namelocal": "ഗുണ്ടൂര്‍",
      "code": "DISTRICT_608",
      "id": 608,
      "stateid": 28,
      "statecode": "STATE_ANDHRA_PRADESH",
      "active": true,
      "type": "COMMON"
    },
    {
      "name": "Prakasam",
      "namelocal": "പ്രകാശം",
      "code": "DISTRICT_609",
      "id": 609,
      "stateid": 28,
      "statecode": "STATE_ANDHRA_PRADESH",
      "active": true,
      "type": "COMMON"
    },
    {
      "name": "Spsr Nellore",
      "namelocal": "എസ് പി എസ് ആര്‍ നെല്ലൂര്‍",
      "code": "DISTRICT_610",
      "id": 610,
      "stateid": 28,
      "statecode": "STATE_ANDHRA_PRADESH",
      "active": true,
      "type": "COMMON"
    },
    {
      "name": "Y.S.R.",
      "namelocal": "വൈ എസ്സ് ആര്‍",
      "code": "DISTRICT_611",
      "id": 611,
      "stateid": 28,
      "statecode": "STATE_ANDHRA_PRADESH",
      "active": true,
      "type": "COMMON"
    },
    {
      "name": "Kurnool",
      "namelocal": "കുര്‍ണൂല്‍",
      "code": "DISTRICT_612",
      "id": 612,
      "stateid": 28,
      "statecode": "STATE_ANDHRA_PRADESH",
      "active": true,
      "type": "COMMON"
    },
    {
      "name": "Anantapur",
      "namelocal": "അനന്തപൂര്‍",
      "code": "DISTRICT_613",
      "id": 613,
      "stateid": 28,
      "statecode": "STATE_ANDHRA_PRADESH",
      "active": true,
      "type": "COMMON"
    },
    {
      "name": "Chittoor",
      "namelocal": "ചിറ്റൂര്‍",
      "code": "DISTRICT_614",
      "id": 614,
      "stateid": 28,
      "statecode": "STATE_ANDHRA_PRADESH",
      "active": true,
      "type": "COMMON"
    },
    {
      "name": "Belagavi",
      "namelocal": "ബെല്‍ഗാം",
      "code": "DISTRICT_615",
      "id": 615,
      "stateid": 29,
      "statecode": "STATE_KARNATAKA",
      "active": true,
      "type": "COMMON"
    },
    {
      "name": "Bagalkot",
      "namelocal": "ബഗല്‍കോട്ട്",
      "code": "DISTRICT_616",
      "id": 616,
      "stateid": 29,
      "statecode": "STATE_KARNATAKA",
      "active": true,
      "type": "COMMON"
    },
    {
      "name": "Vijayapura",
      "namelocal": "വിജയപുര",
      "code": "DISTRICT_617",
      "id": 617,
      "stateid": 29,
      "statecode": "STATE_KARNATAKA",
      "active": true,
      "type": "COMMON"
    },
    {
      "name": "Kalaburagi",
      "namelocal": "കാലബുറഗി",
      "code": "DISTRICT_618",
      "id": 618,
      "stateid": 29,
      "statecode": "STATE_KARNATAKA",
      "active": true,
      "type": "COMMON"
    },
    {
      "name": "Yadgir",
      "namelocal": "യാദ് ഗിര്‍",
      "code": "DISTRICT_619",
      "id": 619,
      "stateid": 29,
      "statecode": "STATE_KARNATAKA",
      "active": true,
      "type": "COMMON"
    },
    {
      "name": "Bidar",
      "namelocal": "ബിദാര്‍",
      "code": "DISTRICT_620",
      "id": 620,
      "stateid": 29,
      "statecode": "STATE_KARNATAKA",
      "active": true,
      "type": "COMMON"
    },
    {
      "name": "Raichur",
      "namelocal": "റെയിഞ്ചൂര്‍",
      "code": "DISTRICT_621",
      "id": 621,
      "stateid": 29,
      "statecode": "STATE_KARNATAKA",
      "active": true,
      "type": "COMMON"
    },
    {
      "name": "Koppal",
      "namelocal": "കൊപ്പല്‍",
      "code": "DISTRICT_622",
      "id": 622,
      "stateid": 29,
      "statecode": "STATE_KARNATAKA",
      "active": true,
      "type": "COMMON"
    },
    {
      "name": "Gadag",
      "namelocal": "ഗാഡഗ്",
      "code": "DISTRICT_623",
      "id": 623,
      "stateid": 29,
      "statecode": "STATE_KARNATAKA",
      "active": true,
      "type": "COMMON"
    },
    {
      "name": "Dharwad",
      "namelocal": "ധാര്‍വാഡ്",
      "code": "DISTRICT_624",
      "id": 624,
      "stateid": 29,
      "statecode": "STATE_KARNATAKA",
      "active": true,
      "type": "COMMON"
    },
    {
      "name": "Uttar Kannad",
      "namelocal": "ഉത്തര കന്നഡ",
      "code": "DISTRICT_625",
      "id": 625,
      "stateid": 29,
      "statecode": "STATE_KARNATAKA",
      "active": true,
      "type": "COMMON"
    },
    {
      "name": "Haveri",
      "namelocal": "ഹവേരി",
      "code": "DISTRICT_626",
      "id": 626,
      "stateid": 29,
      "statecode": "STATE_KARNATAKA",
      "active": true,
      "type": "COMMON"
    },
    {
      "name": "Ballari",
      "namelocal": "ബെല്ലാരി",
      "code": "DISTRICT_627",
      "id": 627,
      "stateid": 29,
      "statecode": "STATE_KARNATAKA",
      "active": true,
      "type": "COMMON"
    },
    {
      "name": "Chitradurga",
      "namelocal": "ചിത്രദുര്‍ഗ",
      "code": "DISTRICT_628",
      "id": 628,
      "stateid": 29,
      "statecode": "STATE_KARNATAKA",
      "active": true,
      "type": "COMMON"
    },
    {
      "name": "Davangere",
      "namelocal": "ദാവന്‍ഗ്രെ",
      "code": "DISTRICT_629",
      "id": 629,
      "stateid": 29,
      "statecode": "STATE_KARNATAKA",
      "active": true,
      "type": "COMMON"
    },
    {
      "name": "Shivamogga",
      "namelocal": "ഷിമോഗ",
      "code": "DISTRICT_630",
      "id": 630,
      "stateid": 29,
      "statecode": "STATE_KARNATAKA",
      "active": true,
      "type": "COMMON"
    },
    {
      "name": "Udupi",
      "namelocal": "ഉഡുപ്പി",
      "code": "DISTRICT_631",
      "id": 631,
      "stateid": 29,
      "statecode": "STATE_KARNATAKA",
      "active": true,
      "type": "COMMON"
    },
    {
      "name": "Chikkamagaluru",
      "namelocal": "ചിക് മഗ്ലൂര്‍",
      "code": "DISTRICT_632",
      "id": 632,
      "stateid": 29,
      "statecode": "STATE_KARNATAKA",
      "active": true,
      "type": "COMMON"
    },
    {
      "name": "Tumakuru",
      "namelocal": "തുമകുരു‍",
      "code": "DISTRICT_633",
      "id": 633,
      "stateid": 29,
      "statecode": "STATE_KARNATAKA",
      "active": true,
      "type": "COMMON"
    },
    {
      "name": "Chikballapur",
      "namelocal": "ചിക്കബല്ലാപൂര്‍",
      "code": "DISTRICT_634",
      "id": 634,
      "stateid": 29,
      "statecode": "STATE_KARNATAKA",
      "active": true,
      "type": "COMMON"
    },
    {
      "name": "Kolar",
      "namelocal": "കോളാര്‍",
      "code": "DISTRICT_635",
      "id": 635,
      "stateid": 29,
      "statecode": "STATE_KARNATAKA",
      "active": true,
      "type": "COMMON"
    },
    {
      "name": "Bengaluru Urban",
      "namelocal": "ബംഗളുരു അര്‍ബന്‍",
      "code": "DISTRICT_636",
      "id": 636,
      "stateid": 29,
      "statecode": "STATE_KARNATAKA",
      "active": true,
      "type": "COMMON"
    },
    {
      "name": "Bengaluru Rural",
      "namelocal": "ബംഗളുരു റൂറല്‍",
      "code": "DISTRICT_637",
      "id": 637,
      "stateid": 29,
      "statecode": "STATE_KARNATAKA",
      "active": true,
      "type": "COMMON"
    },
    {
      "name": "Ramanagara",
      "namelocal": "റാംനഗര്‍",
      "code": "DISTRICT_638",
      "id": 638,
      "stateid": 29,
      "statecode": "STATE_KARNATAKA",
      "active": true,
      "type": "COMMON"
    },
    {
      "name": "Mandya",
      "namelocal": "മാണ്ഡ്യ",
      "code": "DISTRICT_639",
      "id": 639,
      "stateid": 29,
      "statecode": "STATE_KARNATAKA",
      "active": true,
      "type": "COMMON"
    },
    {
      "name": "Hassan",
      "namelocal": "ഹസന്‍",
      "code": "DISTRICT_640",
      "id": 640,
      "stateid": 29,
      "statecode": "STATE_KARNATAKA",
      "active": true,
      "type": "COMMON"
    },
    {
      "name": "Dakshin Kannad",
      "namelocal": "ദക്ഷിണ കന്നഡ",
      "code": "DISTRICT_641",
      "id": 641,
      "stateid": 29,
      "statecode": "STATE_KARNATAKA",
      "active": true,
      "type": "COMMON"
    },
    {
      "name": "Kodagu",
      "namelocal": "കൊഡക്",
      "code": "DISTRICT_642",
      "id": 642,
      "stateid": 29,
      "statecode": "STATE_KARNATAKA",
      "active": true,
      "type": "COMMON"
    },
    {
      "name": "Mysuru",
      "namelocal": "മൈസൂര്‍",
      "code": "DISTRICT_643",
      "id": 643,
      "stateid": 29,
      "statecode": "STATE_KARNATAKA",
      "active": true,
      "type": "COMMON"
    },
    {
      "name": "Chamarajanagar",
      "namelocal": "ചമരഞ്ചനഗര്‍",
      "code": "DISTRICT_644",
      "id": 644,
      "stateid": 29,
      "statecode": "STATE_KARNATAKA",
      "active": true,
      "type": "COMMON"
    },
    {
      "name": "North Goa",
      "namelocal": "നോര്‍ത്ത് ഗോവ",
      "code": "DISTRICT_645",
      "id": 645,
      "stateid": 30,
      "statecode": "STATE_GOA",
      "active": true,
      "type": "COMMON"
    },
    {
      "name": "South Goa",
      "namelocal": "സൗത്ത് ഗോവ",
      "code": "DISTRICT_646",
      "id": 646,
      "stateid": 30,
      "statecode": "STATE_GOA",
      "active": true,
      "type": "COMMON"
    },
    {
      "name": "Lakshadweep District",
      "namelocal": "ലക്ഷദ്വീപ് ജില്ല",
      "code": "DISTRICT_647",
      "id": 647,
      "stateid": 31,
      "statecode": "STATE_LAKSHADWEEP",
      "active": true,
      "type": "COMMON"
    },
    {
      "name": "Thiruvallur",
      "namelocal": "തിരുവള്ളൂര്‍",
      "code": "DISTRICT_648",
      "id": 648,
      "stateid": 33,
      "statecode": "STATE_TAMIL_NADU",
      "active": true,
      "type": "COMMON"
    },
    {
      "name": "Chennai",
      "namelocal": "ചെന്നൈ",
      "code": "DISTRICT_649",
      "id": 649,
      "stateid": 33,
      "statecode": "STATE_TAMIL_NADU",
      "active": true,
      "type": "COMMON"
    },
    {
      "name": "Kanchipuram",
      "namelocal": "കാഞ്ചീപുരം",
      "code": "DISTRICT_650",
      "id": 650,
      "stateid": 33,
      "statecode": "STATE_TAMIL_NADU",
      "active": true,
      "type": "COMMON"
    },
    {
      "name": "Vellore",
      "namelocal": "വെല്ലൂര്‍",
      "code": "DISTRICT_651",
      "id": 651,
      "stateid": 33,
      "statecode": "STATE_TAMIL_NADU",
      "active": true,
      "type": "COMMON"
    },
    {
      "name": "Dharmapuri",
      "namelocal": "ധര്‍മ്മപുരി",
      "code": "DISTRICT_652",
      "id": 652,
      "stateid": 33,
      "statecode": "STATE_TAMIL_NADU",
      "active": true,
      "type": "COMMON"
    },
    {
      "name": "Krishnagiri",
      "namelocal": "കൃഷ്ണഗിരി",
      "code": "DISTRICT_653",
      "id": 653,
      "stateid": 33,
      "statecode": "STATE_TAMIL_NADU",
      "active": true,
      "type": "COMMON"
    },
    {
      "name": "Tiruvannamalai",
      "namelocal": "തിരുവണ്ണാമല",
      "code": "DISTRICT_654",
      "id": 654,
      "stateid": 33,
      "statecode": "STATE_TAMIL_NADU",
      "active": true,
      "type": "COMMON"
    },
    {
      "name": "Villupuram",
      "namelocal": "വില്ലുപുരം",
      "code": "DISTRICT_655",
      "id": 655,
      "stateid": 33,
      "statecode": "STATE_TAMIL_NADU",
      "active": true,
      "type": "COMMON"
    },
    {
      "name": "Salem",
      "namelocal": "സേലം",
      "code": "DISTRICT_656",
      "id": 656,
      "stateid": 33,
      "statecode": "STATE_TAMIL_NADU",
      "active": true,
      "type": "COMMON"
    },
    {
      "name": "Namakkal",
      "namelocal": "നാമക്കല്‍",
      "code": "DISTRICT_657",
      "id": 657,
      "stateid": 33,
      "statecode": "STATE_TAMIL_NADU",
      "active": true,
      "type": "COMMON"
    },
    {
      "name": "Erode",
      "namelocal": "ഈറോഡ്",
      "code": "DISTRICT_658",
      "id": 658,
      "stateid": 33,
      "statecode": "STATE_TAMIL_NADU",
      "active": true,
      "type": "COMMON"
    },
    {
      "name": "The Nilgiris",
      "namelocal": "നീലഗിരി",
      "code": "DISTRICT_659",
      "id": 659,
      "stateid": 33,
      "statecode": "STATE_TAMIL_NADU",
      "active": true,
      "type": "COMMON"
    },
    {
      "name": "Coimbatore",
      "namelocal": "കോയമ്പത്തൂര്‍",
      "code": "DISTRICT_660",
      "id": 660,
      "stateid": 33,
      "statecode": "STATE_TAMIL_NADU",
      "active": true,
      "type": "COMMON"
    },
    {
      "name": "Dindigul",
      "namelocal": "ഡിണ്ടിഗല്‍",
      "code": "DISTRICT_661",
      "id": 661,
      "stateid": 33,
      "statecode": "STATE_TAMIL_NADU",
      "active": true,
      "type": "COMMON"
    },
    {
      "name": "Karur",
      "namelocal": "കരൂര്‍",
      "code": "DISTRICT_662",
      "id": 662,
      "stateid": 33,
      "statecode": "STATE_TAMIL_NADU",
      "active": true,
      "type": "COMMON"
    },
    {
      "name": "Tiruchirappalli",
      "namelocal": "തിരുച്ചിറപ്പള്ളി",
      "code": "DISTRICT_663",
      "id": 663,
      "stateid": 33,
      "statecode": "STATE_TAMIL_NADU",
      "active": true,
      "type": "COMMON"
    },
    {
      "name": "Perambalur",
      "namelocal": "പെരമ്പലൂര്‍",
      "code": "DISTRICT_664",
      "id": 664,
      "stateid": 33,
      "statecode": "STATE_TAMIL_NADU",
      "active": true,
      "type": "COMMON"
    },
    {
      "name": "Ariyalur",
      "namelocal": "അരിയാലൂര്‍",
      "code": "DISTRICT_665",
      "id": 665,
      "stateid": 33,
      "statecode": "STATE_TAMIL_NADU",
      "active": true,
      "type": "COMMON"
    },
    {
      "name": "Cuddalore",
      "namelocal": "കടലൂര്‍",
      "code": "DISTRICT_666",
      "id": 666,
      "stateid": 33,
      "statecode": "STATE_TAMIL_NADU",
      "active": true,
      "type": "COMMON"
    },
    {
      "name": "Nagapattinam",
      "namelocal": "നാഗപട്ടണം",
      "code": "DISTRICT_667",
      "id": 667,
      "stateid": 33,
      "statecode": "STATE_TAMIL_NADU",
      "active": true,
      "type": "COMMON"
    },
    {
      "name": "Thiruvarur",
      "namelocal": "തിരുവാരൂര്‍",
      "code": "DISTRICT_668",
      "id": 668,
      "stateid": 33,
      "statecode": "STATE_TAMIL_NADU",
      "active": true,
      "type": "COMMON"
    },
    {
      "name": "Thanjavur",
      "namelocal": "തഞ്ചാവൂര്‍",
      "code": "DISTRICT_669",
      "id": 669,
      "stateid": 33,
      "statecode": "STATE_TAMIL_NADU",
      "active": true,
      "type": "COMMON"
    },
    {
      "name": "Pudukkottai",
      "namelocal": "പുതുക്കോട്ട",
      "code": "DISTRICT_670",
      "id": 670,
      "stateid": 33,
      "statecode": "STATE_TAMIL_NADU",
      "active": true,
      "type": "COMMON"
    },
    {
      "name": "Sivaganga",
      "namelocal": "ശിവഗംഗ",
      "code": "DISTRICT_671",
      "id": 671,
      "stateid": 33,
      "statecode": "STATE_TAMIL_NADU",
      "active": true,
      "type": "COMMON"
    },
    {
      "name": "Madurai",
      "namelocal": "മധുര",
      "code": "DISTRICT_672",
      "id": 672,
      "stateid": 33,
      "statecode": "STATE_TAMIL_NADU",
      "active": true,
      "type": "COMMON"
    },
    {
      "name": "Theni",
      "namelocal": "തേനി",
      "code": "DISTRICT_673",
      "id": 673,
      "stateid": 33,
      "statecode": "STATE_TAMIL_NADU",
      "active": true,
      "type": "COMMON"
    },
    {
      "name": "Virudhunagar",
      "namelocal": "വിരുദുനഗര്‍",
      "code": "DISTRICT_674",
      "id": 674,
      "stateid": 33,
      "statecode": "STATE_TAMIL_NADU",
      "active": true,
      "type": "COMMON"
    },
    {
      "name": "Ramanathapuram",
      "namelocal": "രാമനാഥപുരം",
      "code": "DISTRICT_675",
      "id": 675,
      "stateid": 33,
      "statecode": "STATE_TAMIL_NADU",
      "active": true,
      "type": "COMMON"
    },
    {
      "name": "Tuticorin",
      "namelocal": "തൂത്തുക്കുടി",
      "code": "DISTRICT_676",
      "id": 676,
      "stateid": 33,
      "statecode": "STATE_TAMIL_NADU",
      "active": true,
      "type": "COMMON"
    },
    {
      "name": "Tirunelveli",
      "namelocal": "തിരുനെല്‍വേലി",
      "code": "DISTRICT_677",
      "id": 677,
      "stateid": 33,
      "statecode": "STATE_TAMIL_NADU",
      "active": true,
      "type": "COMMON"
    },
    {
      "name": "Kanniyakumari",
      "namelocal": "കന്യാകുമാരി",
      "code": "DISTRICT_678",
      "id": 678,
      "stateid": 33,
      "statecode": "STATE_TAMIL_NADU",
      "active": true,
      "type": "COMMON"
    },
    {
      "name": "Tiruppur",
      "namelocal": "തിരുപ്പൂര്‍",
      "code": "DISTRICT_679",
      "id": 679,
      "stateid": 33,
      "statecode": "STATE_TAMIL_NADU",
      "active": true,
      "type": "COMMON"
    },
    {
      "name": "Yanam",
      "namelocal": "യാനം",
      "code": "DISTRICT_680",
      "id": 680,
      "stateid": 34,
      "statecode": "STATE_PUDUCHERRY",
      "active": true,
      "type": "COMMON"
    },
    {
      "name": "Pondicherry",
      "namelocal": "പുതുച്ചേരി",
      "code": "DISTRICT_681",
      "id": 681,
      "stateid": 34,
      "statecode": "STATE_PUDUCHERRY",
      "active": true,
      "type": "COMMON"
    },
    {
      "name": "Mahe",
      "namelocal": "മാഹി",
      "code": "DISTRICT_682",
      "id": 682,
      "stateid": 34,
      "statecode": "STATE_PUDUCHERRY",
      "active": true,
      "type": "COMMON"
    },
    {
      "name": "Karaikal",
      "namelocal": "കാരയ്ക്കല്‍",
      "code": "DISTRICT_683",
      "id": 683,
      "stateid": 34,
      "statecode": "STATE_PUDUCHERRY",
      "active": true,
      "type": "COMMON"
    },
    {
      "name": "South Andamans",
      "namelocal": "സൌത്ത് ആന്‍ഡമാന്‍",
      "code": "DISTRICT_684",
      "id": 684,
      "stateid": 35,
      "statecode": "STATE_ANDAMAN_AND_NICOBARISLANDS",
      "active": true,
      "type": "COMMON"
    },
    {
      "name": "Nicobars",
      "namelocal": "നിക്കോബര്‍",
      "code": "DISTRICT_685",
      "id": 685,
      "stateid": 35,
      "statecode": "STATE_ANDAMAN_AND_NICOBARISLANDS",
      "active": true,
      "type": "COMMON"
    },
    {
      "name": "North And Middle Andaman",
      "namelocal": "നോര്‍ത്ത് ആന്റ് മ്ഡ്ഡില്‍ ആന്‍ഡമാന്‍",
      "code": "DISTRICT_686",
      "id": 686,
      "stateid": 35,
      "statecode": "STATE_ANDAMAN_AND_NICOBARISLANDS",
      "active": true,
      "type": "COMMON"
    },
    {
      "name": "Adilabad",
      "namelocal": "അഡിലാബാദ്",
      "code": "DISTRICT_687",
      "id": 687,
      "stateid": 36,
      "statecode": "STATE_TELANGANA",
      "active": true,
      "type": "COMMON"
    },
    {
      "name": "Nizamabad",
      "namelocal": "നിസാമബാദ്",
      "code": "DISTRICT_688",
      "id": 688,
      "stateid": 36,
      "statecode": "STATE_TELANGANA",
      "active": true,
      "type": "COMMON"
    },
    {
      "name": "Karimnagar",
      "namelocal": "കരീംനഗര്‍",
      "code": "DISTRICT_689",
      "id": 689,
      "stateid": 36,
      "statecode": "STATE_TELANGANA",
      "active": true,
      "type": "COMMON"
    },
    {
      "name": "Medak",
      "namelocal": "മേദക്",
      "code": "DISTRICT_690",
      "id": 690,
      "stateid": 36,
      "statecode": "STATE_TELANGANA",
      "active": true,
      "type": "COMMON"
    },
    {
      "name": "Hyderabad",
      "namelocal": "ഹൈദരാബാദ്",
      "code": "DISTRICT_691",
      "id": 691,
      "stateid": 36,
      "statecode": "STATE_TELANGANA",
      "active": true,
      "type": "COMMON"
    },
    {
      "name": "Ranga Reddy",
      "namelocal": "രങ്കറെഡ്ഡി",
      "code": "DISTRICT_692",
      "id": 692,
      "stateid": 36,
      "statecode": "STATE_TELANGANA",
      "active": true,
      "type": "COMMON"
    },
    {
      "name": "Mahabubnagar",
      "namelocal": "മെഹ്ബൂബ്‍നഗര്‍",
      "code": "DISTRICT_693",
      "id": 693,
      "stateid": 36,
      "statecode": "STATE_TELANGANA",
      "active": true,
      "type": "COMMON"
    },
    {
      "name": "Nalgonda",
      "namelocal": "നല്‍ഗൊണ്ട",
      "code": "DISTRICT_694",
      "id": 694,
      "stateid": 36,
      "statecode": "STATE_TELANGANA",
      "active": true,
      "type": "COMMON"
    },
    {
      "name": "Warangal Rural",
      "namelocal": "വാറംഗല്‍ റൂറല്‍",
      "code": "DISTRICT_695",
      "id": 695,
      "stateid": 36,
      "statecode": "STATE_TELANGANA",
      "active": true,
      "type": "COMMON"
    },
    {
      "name": "Khammam",
      "namelocal": "ഖമ്മം",
      "code": "DISTRICT_696",
      "id": 696,
      "stateid": 36,
      "statecode": "STATE_TELANGANA",
      "active": true,
      "type": "COMMON"
    },
    {
      "name": "Bhadradri Kothagudem",
      "namelocal": "ഭദ്രഗിരി കൊത്തഗുഡം",
      "code": "DISTRICT_697",
      "id": 697,
      "stateid": 36,
      "statecode": "STATE_TELANGANA",
      "active": true,
      "type": "COMMON"
    },
    {
      "name": "Jagitial",
      "namelocal": "ജഗിതിയല്‍",
      "code": "DISTRICT_698",
      "id": 698,
      "stateid": 36,
      "statecode": "STATE_TELANGANA",
      "active": true,
      "type": "COMMON"
    },
    {
      "name": "Jangoan",
      "namelocal": "ജാങ്കോന്‍",
      "code": "DISTRICT_699",
      "id": 699,
      "stateid": 36,
      "statecode": "STATE_TELANGANA",
      "active": true,
      "type": "COMMON"
    },
    {
      "name": "Jayashankar Bhupalapally",
      "namelocal": "ജയശങ്കര്‍ ഭുപലപള്ളി",
      "code": "DISTRICT_700",
      "id": 700,
      "stateid": 36,
      "statecode": "STATE_TELANGANA",
      "active": true,
      "type": "COMMON"
    },
    {
      "name": "Jogulamba Gadwal",
      "namelocal": "ജോഗുലമ്പ ഗഡ്വല്‍",
      "code": "DISTRICT_701",
      "id": 701,
      "stateid": 36,
      "statecode": "STATE_TELANGANA",
      "active": true,
      "type": "COMMON"
    },
    {
      "name": "Kamareddy",
      "namelocal": "കാമറെഡ്ഡി",
      "code": "DISTRICT_702",
      "id": 702,
      "stateid": 36,
      "statecode": "STATE_TELANGANA",
      "active": true,
      "type": "COMMON"
    },
    {
      "name": "Kumuram Bheem Asifabad",
      "namelocal": "കുമുരം ഭീം ആസിഫാബാദ്",
      "code": "DISTRICT_703",
      "id": 703,
      "stateid": 36,
      "statecode": "STATE_TELANGANA",
      "active": true,
      "type": "COMMON"
    },
    {
      "name": "Mahabubabad",
      "namelocal": "മഹാബുബാബാദ്",
      "code": "DISTRICT_704",
      "id": 704,
      "stateid": 36,
      "statecode": "STATE_TELANGANA",
      "active": true,
      "type": "COMMON"
    },
    {
      "name": "Mancherial",
      "namelocal": "മന്‍ചെരിയല്‍",
      "code": "DISTRICT_705",
      "id": 705,
      "stateid": 36,
      "statecode": "STATE_TELANGANA",
      "active": true,
      "type": "COMMON"
    },
    {
      "name": "Medchal Malkajgiri",
      "namelocal": "മെട്ചല്‍ മല്‍കജ്ഗിരി",
      "code": "DISTRICT_706",
      "id": 706,
      "stateid": 36,
      "statecode": "STATE_TELANGANA",
      "active": true,
      "type": "COMMON"
    },
    {
      "name": "Nagarkurnool",
      "namelocal": "നാഗര്‍കുര്‍നൂല്‍",
      "code": "DISTRICT_707",
      "id": 707,
      "stateid": 36,
      "statecode": "STATE_TELANGANA",
      "active": true,
      "type": "COMMON"
    },
    {
      "name": "Nirmal",
      "namelocal": "നിര്‍മല്‍",
      "code": "DISTRICT_708",
      "id": 708,
      "stateid": 36,
      "statecode": "STATE_TELANGANA",
      "active": true,
      "type": "COMMON"
    },
    {
      "name": "Peddapalli",
      "namelocal": "പെഡ്ഡപള്ളി",
      "code": "DISTRICT_709",
      "id": 709,
      "stateid": 36,
      "statecode": "STATE_TELANGANA",
      "active": true,
      "type": "COMMON"
    },
    {
      "name": "Rajanna Sircilla",
      "namelocal": "രാജണ്ണാ സിര്‍സില്ലാ",
      "code": "DISTRICT_710",
      "id": 710,
      "stateid": 36,
      "statecode": "STATE_TELANGANA",
      "active": true,
      "type": "COMMON"
    },
    {
      "name": "Sangareddy",
      "namelocal": "സങ്കറെഡ്ഡി",
      "code": "DISTRICT_711",
      "id": 711,
      "stateid": 36,
      "statecode": "STATE_TELANGANA",
      "active": true,
      "type": "COMMON"
    },
    {
      "name": "Siddipet",
      "namelocal": "സിഡ്ഡിപെട്ട്",
      "code": "DISTRICT_712",
      "id": 712,
      "stateid": 36,
      "statecode": "STATE_TELANGANA",
      "active": true,
      "type": "COMMON"
    },
    {
      "name": "Suryapet",
      "namelocal": "സൂര്യാപെട്ട്",
      "code": "DISTRICT_713",
      "id": 713,
      "stateid": 36,
      "statecode": "STATE_TELANGANA",
      "active": true,
      "type": "COMMON"
    },
    {
      "name": "Vikarabad",
      "namelocal": "വികാരബാദ്",
      "code": "DISTRICT_714",
      "id": 714,
      "stateid": 36,
      "statecode": "STATE_TELANGANA",
      "active": true,
      "type": "COMMON"
    },
    {
      "name": "Wanaparthy",
      "namelocal": "വനപാര്‍ത്തി",
      "code": "DISTRICT_715",
      "id": 715,
      "stateid": 36,
      "statecode": "STATE_TELANGANA",
      "active": true,
      "type": "COMMON"
    },
    {
      "name": "Warangal Urban",
      "namelocal": "വാറംഗല്‍ അര്‍ബന്‍",
      "code": "DISTRICT_716",
      "id": 716,
      "stateid": 36,
      "statecode": "STATE_TELANGANA",
      "active": true,
      "type": "COMMON"
    },
    {
      "name": "Yadadri Bhuvanagiri",
      "namelocal": "യദാദ്രി ഭുവനഗിരി",
      "code": "DISTRICT_717",
      "id": 717,
      "stateid": 36,
      "statecode": "STATE_TELANGANA",
      "active": true,
      "type": "COMMON"
    },
    {
      "name": "Leh Ladakh",
      "namelocal": "ലഡാക്ക് (ലേ )",
      "code": "DISTRICT_21",
      "id": 21,
      "stateid": 37,
      "statecode": "STATE_LADAKH",
      "active": true,
      "type": "COMMON"
    },
    {
      "name": "Kargil",
      "namelocal": "കര്‍ഗില്‍",
      "code": "DISTRICT_22",
      "id": 22,
      "stateid": 37,
      "statecode": "STATE_LADAKH",
      "active": true,
      "type": "COMMON"
    },
    {
      "name": "GONDIYA",
      "namelocal": "ഗോണ്ടിയ",
      "code": "DISTRICT_1000",
      "id": 1000,
      "stateid": 27,
      "statecode": "STATE_MAHARASHTRA",
      "active": true,
      "type": "COMMON"
    },
    {
      "name": "JAINTIA HILLS",
      "namelocal": "ജയന്തിയാ ഹിൽസ്",
      "code": "DISTRICT_1001",
      "id": 1001,
      "stateid": 17,
      "statecode": "STATE_MEGHALAYA",
      "active": true,
      "type": "COMMON"
    },
    {
      "name": "NAWAN SHEHAR",
      "namelocal": "നവൻ ഷെഹർ",
      "code": "DISTRICT_1002",
      "id": 1002,
      "stateid": 3,
      "statecode": "STATE_PUNJAB",
      "active": true,
      "type": "COMMON"
    },
    {
      "name": "SIAHA",
      "namelocal": "സിയാഹ",
      "code": "DISTRICT_1003",
      "id": 1003,
      "stateid": 15,
      "statecode": "STATE_MIZORAM",
      "active": true,
      "type": "COMMON"
    },
    {
      "name": "EAST SIKKIM",
      "namelocal": "കിഴക്കൻ സിക്കിം",
      "code": "DISTRICT_1004",
      "id": 1004,
      "stateid": 11,
      "statecode": "STATE_SIKKIM",
      "active": true,
      "type": "COMMON"
    },
    {
      "name": "NORTH SIKKIM",
      "namelocal": "നോർത്ത് സിക്കിം",
      "code": "DISTRICT_1005",
      "id": 1005,
      "stateid": 11,
      "statecode": "STATE_SIKKIM",
      "active": true,
      "type": "COMMON"
    },
    {
      "name": "SOUTH SIKKIM",
      "namelocal": "സൗത്ത് സിക്കിം",
      "code": "DISTRICT_1006",
      "id": 1006,
      "stateid": 11,
      "statecode": "STATE_SIKKIM",
      "active": true,
      "type": "COMMON"
    },
    {
      "name": "WEST SIKKIM",
      "namelocal": "വെസ്റ്റ് സിക്കിം",
      "code": "DISTRICT_1007",
      "id": 1007,
      "stateid": 11,
      "statecode": "STATE_SIKKIM",
      "active": true,
      "type": "COMMON"
    },
    {
      "name": "KANYAKUMARI",
      "namelocal": "കന്യാകുമാരി",
      "code": "DISTRICT_1008",
      "id": 1008,
      "stateid": 33,
      "statecode": "STATE_TAMIL_NADU",
      "active": true,
      "type": "COMMON"
    },
    {
      "name": "NORTH CACHAR HILLS",
      "namelocal": "നോർത്ത് കച്ചാർ ഹിൽസ് ",
      "code": "DISTRICT_1009",
      "id": 1009,
      "stateid": 18,
      "statecode": "STATE_ASSAM",
      "active": true,
      "type": "COMMON"
    },
    {
      "name": "SIBSAGAR",
      "namelocal": "സിബ്സാഗർ",
      "code": "DISTRICT_1010",
      "id": 1010,
      "stateid": 18,
      "statecode": "STATE_ASSAM",
      "active": true,
      "type": "COMMON"
    },
    {
      "name": "DEBAGARH",
      "namelocal": "ദേബാഗർ",
      "code": "DISTRICT_1011",
      "id": 1011,
      "stateid": 21,
      "statecode": "STATE_ODISHA",
      "active": true,
      "type": "COMMON"
    },
    {
      "name": "ANGUL",
      "namelocal": "അംഗുൽ",
      "code": "DISTRICT_1012",
      "id": 1012,
      "stateid": 21,
      "statecode": "STATE_ODISHA",
      "active": true,
      "type": "COMMON"
    },
    {
      "name": "SUBARNAPUR",
      "namelocal": "സുബർണാപൂർ",
      "code": "DISTRICT_1013",
      "id": 1013,
      "stateid": 21,
      "statecode": "STATE_ODISHA",
      "active": true,
      "type": "COMMON"
    },
    {
      "name": "DAHOD",
      "namelocal": "ദാഹോദ്",
      "code": "DISTRICT_1014",
      "id": 1014,
      "stateid": 24,
      "statecode": "STATE_GUJARAT",
      "active": true,
      "type": "COMMON"
    },
    {
      "name": "KUTCH",
      "namelocal": "കച്ച്",
      "code": "DISTRICT_1015",
      "id": 1015,
      "stateid": 24,
      "statecode": "STATE_GUJARAT",
      "active": true,
      "type": "COMMON"
    },
    {
      "name": "MEHSANA",
      "namelocal": "മെഹ്സാന",
      "code": "DISTRICT_1016",
      "id": 1016,
      "stateid": 24,
      "statecode": "STATE_GUJARAT",
      "active": true,
      "type": "COMMON"
    },
    {
      "name": "GURGAON",
      "namelocal": "ഗുർഗാവ്",
      "code": "DISTRICT_1017",
      "id": 1017,
      "stateid": 6,
      "statecode": "STATE_HARYANA",
      "active": true,
      "type": "COMMON"
    },
    {
      "name": "BELGAUM",
      "namelocal": "ബെൽഗാം",
      "code": "DISTRICT_1018",
      "id": 1018,
      "stateid": 29,
      "statecode": "STATE_KARNATAKA",
      "active": true,
      "type": "COMMON"
    },
    {
      "name": "BELLARY",
      "namelocal": "ബെല്ലാരി",
      "code": "DISTRICT_1019",
      "id": 1019,
      "stateid": 29,
      "statecode": "STATE_KARNATAKA",
      "active": true,
      "type": "COMMON"
    },
    {
      "name": "CHIKMAGALUR",
      "namelocal": "ചിക്കമഗളൂർ",
      "code": "DISTRICT_1020",
      "id": 1020,
      "stateid": 29,
      "statecode": "STATE_KARNATAKA",
      "active": true,
      "type": "COMMON"
    },
    {
      "name": "GULBARGA",
      "namelocal": "ഗുൽബർഗ",
      "code": "DISTRICT_1021",
      "id": 1021,
      "stateid": 29,
      "statecode": "STATE_KARNATAKA",
      "active": true,
      "type": "COMMON"
    },
    {
      "name": "SHIMOGA",
      "namelocal": "ഷിമോഗ",
      "code": "DISTRICT_1022",
      "id": 1022,
      "stateid": 29,
      "statecode": "STATE_KARNATAKA",
      "active": true,
      "type": "COMMON"
    },
    {
      "name": "TUMKUR",
      "namelocal": "തുംകൂർ",
      "code": "DISTRICT_1023",
      "id": 1023,
      "stateid": 29,
      "statecode": "STATE_KARNATAKA",
      "active": true,
      "type": "COMMON"
    },
    {
      "name": "AURANGABAD",
      "namelocal": "ഔറംഗബാദ്",
      "code": "DISTRICT_1024",
      "id": 1024,
      "stateid": 27,
      "statecode": "STATE_MAHARASHTRA",
      "active": true,
      "type": "COMMON"
    },
    {
      "name": "THOOTHUKUDI",
      "namelocal": "തൂത്തുക്കുടി",
      "code": "DISTRICT_1025",
      "id": 1025,
      "stateid": 33,
      "statecode": "STATE_TAMIL_NADU",
      "active": true,
      "type": "COMMON"
    },
    {
      "name": "BADAUN",
      "namelocal": "ബദൗൺ",
      "code": "DISTRICT_1026",
      "id": 1026,
      "stateid": 9,
      "statecode": "STATE_UTTARPRADESH",
      "active": true,
      "type": "COMMON"
    },
    {
      "name": "MAHAMAYA NAGAR",
      "namelocal": "മഹാമായ നഗർ",
      "code": "DISTRICT_1027",
      "id": 1027,
      "stateid": 9,
      "statecode": "STATE_UTTARPRADESH",
      "active": true,
      "type": "COMMON"
    },
    {
      "name": "JYOTIBA PHULE NAGAR",
      "namelocal": "ജ്യോതിബ ഫൂലെ നഗർ",
      "code": "DISTRICT_1028",
      "id": 1028,
      "stateid": 9,
      "statecode": "STATE_UTTARPRADESH",
      "active": true,
      "type": "COMMON"
    },
    {
      "name": "PRATAPGARH",
      "namelocal": "പ്രതാപ്ഗഡ്",
      "code": "DISTRICT_1029",
      "id": 1029,
      "stateid": 9,
      "statecode": "STATE_UTTARPRADESH",
      "active": true,
      "type": "COMMON"
    },
    {
      "name": "SANT RAVIDAS NAGAR",
      "namelocal": "സന്ത് രവിദാസ് നഗർ",
      "code": "DISTRICT_1030",
      "id": 1030,
      "stateid": 9,
      "statecode": "STATE_UTTARPRADESH",
      "active": true,
      "type": "COMMON"
    },
    {
      "name": "MIDNAPORE",
      "namelocal": "മിഡ്നാപൂർ",
      "code": "DISTRICT_1031",
      "id": 1031,
      "stateid": 19,
      "statecode": "STATE_WESTBENGAL",
      "active": true,
      "type": "COMMON"
    },
    {
      "name": "VISHAKHAPATNAM",
      "namelocal": "വിശാഖപട്ടണം",
      "code": "DISTRICT_1032",
      "id": 1032,
      "stateid": 28,
      "statecode": "STATE_ANDHRA_PRADESH",
      "active": true,
      "type": "COMMON"
    },
    {
      "name": "SOUTH ANDAMAN",
      "namelocal": "സൗത്ത് ആൻഡമാൻ",
      "code": "DISTRICT_1033",
      "id": 1033,
      "stateid": 35,
      "statecode": "STATE_ANDAMAN_AND_NICOBARISLANDS",
      "active": true,
      "type": "COMMON"
    },
    {
      "name": "HAMIRPUR",
      "namelocal": "ഹമീർപൂർ",
      "code": "DISTRICT_1034",
      "id": 1034,
      "stateid": 2,
      "statecode": "STATE_HIMACHAL_PRADESH",
      "active": true,
      "type": "COMMON"
    },
    {
      "name": "MAHBUBNAGAR",
      "namelocal": "മഹ്ബൂബനഗർ",
      "code": "DISTRICT_1035",
      "id": 1035,
      "stateid": 28,
      "statecode": "STATE_ANDHRA_PRADESH",
      "active": true,
      "type": "COMMON"
    },
    {
      "name": "BIJAPUR",
      "namelocal": "ബിജാപൂർ",
      "code": "DISTRICT_1036",
      "id": 1036,
      "stateid": 22,
      "statecode": "STATE_CHHATTISGARH",
      "active": true,
      "type": "COMMON"
    },
    {
      "name": "BILASPUR",
      "namelocal": "ബിലാസ്പൂർ",
      "code": "DISTRICT_1037",
      "id": 1037,
      "stateid": 22,
      "statecode": "STATE_CHHATTISGARH",
      "active": true,
      "type": "COMMON"
    },
    {
      "name": "LEH",
      "namelocal": "ലേഹ്",
      "code": "DISTRICT_1038",
      "id": 1038,
      "stateid": 1,
      "statecode": "STATE_JAMMU_AND_KASHMIR",
      "active": true,
      "type": "COMMON"
    },
    {
      "name": "JKBD BADGAM",
      "namelocal": "JKBD ബദ്ഗാം",
      "code": "DISTRICT_1039",
      "id": 1039,
      "stateid": 1,
      "statecode": "STATE_JAMMU_AND_KASHMIR",
      "active": true,
      "type": "COMMON"
    },
    {
      "name": "MOHALI",
      "namelocal": "മൊഹാലി",
      "code": "DISTRICT_1040",
      "id": 1040,
      "stateid": 3,
      "statecode": "STATE_PUNJAB",
      "active": true,
      "type": "COMMON"
    },
    {
      "name": "BALASORE",
      "namelocal": "ബാലസോർ",
      "code": "DISTRICT_1041",
      "id": 1041,
      "stateid": 21,
      "statecode": "STATE_ODISHA",
      "active": true,
      "type": "COMMON"
    },
    {
      "name": "ARA",
      "namelocal": "എ ആർ എ",
      "code": "DISTRICT_1042",
      "id": 1042,
      "stateid": 10,
      "statecode": "STATE_BIHAR",
      "active": true,
      "type": "COMMON"
    },
    {
      "name": "ADILABAD",
      "namelocal": "അദിലാബാദ്",
      "code": "DISTRICT_1043",
      "id": 1043,
      "stateid": 36,
      "statecode": "STATE_TELANGANA",
      "active": true,
      "type": "COMMON"
    },
    {
      "name": "HYDERABAD",
      "namelocal": "ഹൈദരാബാദ്",
      "code": "DISTRICT_1044",
      "id": 1044,
      "stateid": 36,
      "statecode": "STATE_TELANGANA",
      "active": true,
      "type": "COMMON"
    },
    {
      "name": "KHAMMAM",
      "namelocal": "ഖമ്മം",
      "code": "DISTRICT_1045",
      "id": 1045,
      "stateid": 36,
      "statecode": "STATE_TELANGANA",
      "active": true,
      "type": "COMMON"
    },
    {
      "name": "MAHBOOBNAGAR",
      "namelocal": "മഹ്ബൂബ്‌നഗർ",
      "code": "DISTRICT_1046",
      "id": 1046,
      "stateid": 36,
      "statecode": "STATE_TELANGANA",
      "active": true,
      "type": "COMMON"
    },
    {
      "name": "MEDAK",
      "namelocal": "മേഡക്ക്",
      "code": "DISTRICT_1047",
      "id": 1047,
      "stateid": 36,
      "statecode": "STATE_TELANGANA",
      "active": true,
      "type": "COMMON"
    },
    {
      "name": "NALGONDA",
      "namelocal": "നൽഗൊണ്ട",
      "code": "DISTRICT_1048",
      "id": 1048,
      "stateid": 36,
      "statecode": "STATE_TELANGANA",
      "active": true,
      "type": "COMMON"
    },
    {
      "name": "NIZAMABAD",
      "namelocal": "നിസാമാബാദ്",
      "code": "DISTRICT_1049",
      "id": 1049,
      "stateid": 36,
      "statecode": "STATE_TELANGANA",
      "active": true,
      "type": "COMMON"
    },
    {
      "name": "RANGA REDDY",
      "namelocal": "രംഗ റെഡ്ഡി",
      "code": "DISTRICT_1050",
      "id": 1050,
      "stateid": 36,
      "statecode": "STATE_TELANGANA",
      "active": true,
      "type": "COMMON"
    },
    {
      "name": "KARIMNAGAR",
      "namelocal": "കരിംനഗർ",
      "code": "DISTRICT_1051",
      "id": 1051,
      "stateid": 36,
      "statecode": "STATE_TELANGANA",
      "active": true,
      "type": "COMMON"
    },
    {
      "name": "NILGIRIS",
      "namelocal": "നീലഗിരി",
      "code": "DISTRICT_1052",
      "id": 1052,
      "stateid": 33,
      "statecode": "STATE_TAMIL_NADU",
      "active": true,
      "type": "COMMON"
    },
    {
      "name": "DHEMAJI",
      "namelocal": "ധേമാജി",
      "code": "DISTRICT_1053",
      "id": 1053,
      "stateid": 18,
      "statecode": "STATE_ASSAM",
      "active": true,
      "type": "COMMON"
    },
    {
      "name": "UDALGUR",
      "namelocal": "ഉദൽഗുർ",
      "code": "DISTRICT_1054",
      "id": 1054,
      "stateid": 18,
      "statecode": "STATE_ASSAM",
      "active": true,
      "type": "COMMON"
    },
    {
      "name": "BISHWANATH",
      "namelocal": "ബിശ്വനാഥ്",
      "code": "DISTRICT_1055",
      "id": 1055,
      "stateid": 18,
      "statecode": "STATE_ASSAM",
      "active": true,
      "type": "COMMON"
    },
    {
      "name": "ARAVALLI",
      "namelocal": "ആരവല്ലി",
      "code": "DISTRICT_1056",
      "id": 1056,
      "stateid": 24,
      "statecode": "STATE_GUJARAT",
      "active": true,
      "type": "COMMON"
    },
    {
      "name": "CHHOTA UDAIPUR",
      "namelocal": "ഛോട്ട ഉദയ്പൂർ",
      "code": "DISTRICT_1057",
      "id": 1057,
      "stateid": 24,
      "statecode": "STATE_GUJARAT",
      "active": true,
      "type": "COMMON"
    },
    {
      "name": "SOUTH EAST KHASI HILLS",
      "namelocal": "സൗത്ത് ഈസ്റ്റ് ഖാസി ഹിൽസ്",
      "code": "DISTRICT_1058",
      "id": 1058,
      "stateid": 17,
      "statecode": "STATE_MEGHALAYA",
      "active": true,
      "type": "COMMON"
    },
    {
      "name": "NORTH GHARO HILLS",
      "namelocal": "നോർത്ത് ഗാരോ ഹിൽസ്",
      "code": "DISTRICT_1059",
      "id": 1059,
      "stateid": 17,
      "statecode": "STATE_MEGHALAYA",
      "active": true,
      "type": "COMMON"
    },
    {
      "name": "SOUTH WEST GHARO HILLS",
      "namelocal": "സൗത്ത് വെസ്റ്റ് ഗാരോ ഹിൽസ്",
      "code": "DISTRICT_1060",
      "id": 1060,
      "stateid": 17,
      "statecode": "STATE_MEGHALAYA",
      "active": true,
      "type": "COMMON"
    },
    {
      "name": "HARDOR",
      "namelocal": "ഹാർഡർ",
      "code": "DISTRICT_1061",
      "id": 1061,
      "stateid": 9,
      "statecode": "STATE_UTTARPRADESH",
      "active": true,
      "type": "COMMON"
    },
    {
      "name": "KADAPA",
      "namelocal": "കടപ്പ",
      "code": "DISTRICT_1062",
      "id": 1062,
      "stateid": 28,
      "statecode": "STATE_ANDHRA_PRADESH",
      "active": true,
      "type": "COMMON"
    },
    {
      "name": "BALRAMPUR",
      "namelocal": "ബൽറാംപൂർ",
      "code": "DISTRICT_1063",
      "id": 1063,
      "stateid": 22,
      "statecode": "STATE_CHHATTISGARH",
      "active": true,
      "type": "COMMON"
    },
    {
      "name": "WARANGAL",
      "namelocal": "വാറങ്കൽ",
      "code": "DISTRICT_1064",
      "id": 1064,
      "stateid": 28,
      "statecode": "STATE_ANDHRA_PRADESH",
      "active": true,
      "type": "COMMON"
    }
  ]
}
