{
  "tenantId": "kl",
  "moduleName": "common-masters",
  "mpostoffice": [
    
{
      "name": "Kochi",
      "namelocal": "കൊച്ചി",
      "migrationpostofficeid": 2525,
      "officecode": 300117,
      "id": 117,
      "code": "POSTOFFICE_KOCHI",
      "pincode": 682001,
      "distid": 7,
      "distcode": "DISTRICT_7",
      "active": true,
      "type": "COMMON"
    },
    {
      "name": "Matsyapuri Bazar",
      "namelocal": "മത്സ്യപുരി ബസാര്‍",
      "migrationpostofficeid": 2526,
      "officecode": 300118,
      "id": 118,
      "code": "POSTOFFICE_MATSYAPURI_BAZAR_",
      "pincode": 682002,
      "distid": 7,
      "distcode": "DISTRICT_7",
      "active": true,
      "type": "COMMON"
    },
    {
      "name": "Willingdon Island",
      "namelocal": "വെല്ലിംഗ്ടണ്‍ ഐലന്റ്",
      "migrationpostofficeid": 2527,
      "officecode": 300119,
      "id": 119,
      "code": "POSTOFFICE_WILLINGDON_ISLAND_",
      "pincode": 682003,
      "distid": 7,
      "distcode": "DISTRICT_7",
      "active": true,
      "type": "COMMON"
    },
    {
      "name": "Kochi Naval Base",
      "namelocal": "കൊച്ചി നേവല്‍ ബേസ്",
      "migrationpostofficeid": 2528,
      "officecode": 300120,
      "id": 120,
      "code": "POSTOFFICE_KOCHI_NAVAL_BASE",
      "pincode": 682004,
      "distid": 7,
      "distcode": "DISTRICT_7",
      "active": true,
      "type": "COMMON"
    },
    {
      "name": "Thoppumpady",
      "namelocal": "തോപ്പുംപടി",
      "migrationpostofficeid": 2529,
      "officecode": 300121,
      "id": 121,
      "code": "POSTOFFICE_THOPPUMPADY",
      "pincode": 682005,
      "distid": 7,
      "distcode": "DISTRICT_7",
      "active": true,
      "type": "COMMON"
    },
    {
      "name": "Edakochi",
      "namelocal": "ഇടക്കൊച്ചി",
      "migrationpostofficeid": 2531,
      "officecode": 300122,
      "id": 122,
      "code": "POSTOFFICE_EDAKOCHI",
      "pincode": 682010,
      "distid": 7,
      "distcode": "DISTRICT_7",
      "active": true,
      "type": "COMMON"
    },
    {
      "name": "North End",
      "namelocal": "നോര്‍ത്ത് എന്റ്",
      "migrationpostofficeid": 2538,
      "officecode": 300123,
      "id": 123,
      "code": "POSTOFFICE_NORTH_END",
      "pincode": 682009,
      "distid": 7,
      "distcode": "DISTRICT_7",
      "active": true,
      "type": "COMMON"
    },
    {
      "name": "Ernakulam",
      "namelocal": "എറണാകുളം",
      "migrationpostofficeid": 2539,
      "officecode": 300124,
      "id": 124,
      "code": "POSTOFFICE_ERNAKULAM",
      "pincode": 682011,
      "distid": 7,
      "distcode": "DISTRICT_7",
      "active": true,
      "type": "COMMON"
    },
    {
      "name": "Pachalam",
      "namelocal": "പച്ചാളം",
      "migrationpostofficeid": 2540,
      "officecode": 300125,
      "id": 125,
      "code": "POSTOFFICE_PACHALAM",
      "pincode": 682012,
      "distid": 7,
      "distcode": "DISTRICT_7",
      "active": true,
      "type": "COMMON"
    },
    {
      "name": "Thevara",
      "namelocal": "തേവര",
      "migrationpostofficeid": 2541,
      "officecode": 300126,
      "id": 126,
      "code": "POSTOFFICE_THEVARA",
      "pincode": 682013,
      "distid": 7,
      "distcode": "DISTRICT_7",
      "active": true,
      "type": "COMMON"
    },
    {
      "name": "Tatapuram",
      "namelocal": "ടാറ്റാപുരം",
      "migrationpostofficeid": 2542,
      "officecode": 300127,
      "id": 127,
      "code": "POSTOFFICE_TATAPURAM",
      "pincode": 682014,
      "distid": 7,
      "distcode": "DISTRICT_7",
      "active": true,
      "type": "COMMON"
    },
    {
      "name": "Perumanur",
      "namelocal": "പെരുമാന്നൂര്‍",
      "migrationpostofficeid": 2543,
      "officecode": 300128,
      "id": 128,
      "code": "POSTOFFICE_PERUMANUR_",
      "pincode": 682015,
      "distid": 7,
      "distcode": "DISTRICT_7",
      "active": true,
      "type": "COMMON"
    },
    {
      "name": "Kochi M.G.Road",
      "namelocal": "കൊച്ചി എം.ജി.റോഡ്",
      "migrationpostofficeid": 2544,
      "officecode": 300129,
      "id": 129,
      "code": "POSTOFFICE_KOCHI_M.G.ROAD",
      "pincode": 682016,
      "distid": 7,
      "distcode": "DISTRICT_7",
      "active": true,
      "type": "COMMON"
    },
    {
      "name": "Kaloor",
      "namelocal": "കലൂര്‍",
      "migrationpostofficeid": 2545,
      "officecode": 300130,
      "id": 130,
      "code": "POSTOFFICE_KALOOR",
      "pincode": 682017,
      "distid": 7,
      "distcode": "DISTRICT_7",
      "active": true,
      "type": "COMMON"
    },
    {
      "name": "Ernakulam North",
      "namelocal": "എറണാകുളം നോര്‍ത്ത്",
      "migrationpostofficeid": 2546,
      "officecode": 300131,
      "id": 131,
      "code": "POSTOFFICE_ERNAKULAM_NORTH",
      "pincode": 682018,
      "distid": 7,
      "distcode": "DISTRICT_7",
      "active": true,
      "type": "COMMON"
    },
    {
      "name": "Vyttila",
      "namelocal": "വൈറ്റില",
      "migrationpostofficeid": 2547,
      "officecode": 300132,
      "id": 132,
      "code": "POSTOFFICE_VYTTILA",
      "pincode": 682019,
      "distid": 7,
      "distcode": "DISTRICT_7",
      "active": true,
      "type": "COMMON"
    },
    {
      "name": "Kadavanthara",
      "namelocal": "കടവന്തറ",
      "migrationpostofficeid": 2548,
      "officecode": 300133,
      "id": 133,
      "code": "POSTOFFICE_KADAVANTHARA",
      "pincode": 682020,
      "distid": 7,
      "distcode": "DISTRICT_7",
      "active": true,
      "type": "COMMON"
    },
    {
      "name": "Vaduthala",
      "namelocal": "വടുതല",
      "migrationpostofficeid": 2553,
      "officecode": 300134,
      "id": 134,
      "code": "POSTOFFICE_VADUTHALA",
      "pincode": 682023,
      "distid": 7,
      "distcode": "DISTRICT_7",
      "active": true,
      "type": "COMMON"
    },
    {
      "name": "Palarivattom",
      "namelocal": "പാലാരിവട്ടം",
      "migrationpostofficeid": 2556,
      "officecode": 300135,
      "id": 135,
      "code": "POSTOFFICE_PALARIVATTOM",
      "pincode": 682025,
      "distid": 7,
      "distcode": "DISTRICT_7",
      "active": true,
      "type": "COMMON"
    },
    {
      "name": "Elamakkara",
      "namelocal": "എളമക്കര",
      "migrationpostofficeid": 2557,
      "officecode": 300136,
      "id": 136,
      "code": "POSTOFFICE_ELAMAKKARA",
      "pincode": 682026,
      "distid": 7,
      "distcode": "DISTRICT_7",
      "active": true,
      "type": "COMMON"
    },
    {
      "name": "Vennala",
      "namelocal": "വെണ്ണല",
      "migrationpostofficeid": 2562,
      "officecode": 300137,
      "id": 137,
      "code": "POSTOFFICE_VENNALA",
      "pincode": 682028,
      "distid": 7,
      "distcode": "DISTRICT_7",
      "active": true,
      "type": "COMMON"
    },
    {
      "name": "Matsyapuri",
      "namelocal": "മത്സ്യപുരി",
      "migrationpostofficeid": 2563,
      "officecode": 300138,
      "id": 138,
      "code": "POSTOFFICE_MATSYAPURI",
      "pincode": 682029,
      "distid": 7,
      "distcode": "DISTRICT_7",
      "active": true,
      "type": "COMMON"
    },
    {
      "name": "Shanmugham Road",
      "namelocal": "ഷണ്‍മുഖം റോഡ്",
      "migrationpostofficeid": 2569,
      "officecode": 300139,
      "id": 139,
      "code": "POSTOFFICE_SHANMUGHAM_ROAD",
      "pincode": 682031,
      "distid": 7,
      "distcode": "DISTRICT_7",
      "active": true,
      "type": "COMMON"
    },
    {
      "name": "Thammanam",
      "namelocal": "തമ്മനം",
      "migrationpostofficeid": 2570,
      "officecode": 300140,
      "id": 140,
      "code": "POSTOFFICE_THAMMANAM",
      "pincode": 682032,
      "distid": 7,
      "distcode": "DISTRICT_7",
      "active": true,
      "type": "COMMON"
    },
    {
      "name": "Ernakulam College",
      "namelocal": "എറണാകുളം കോളേജ്",
      "migrationpostofficeid": 2573,
      "officecode": 300141,
      "id": 141,
      "code": "POSTOFFICE_ERNAKULAM_COLLEGE",
      "pincode": 682035,
      "distid": 7,
      "distcode": "DISTRICT_7",
      "active": true,
      "type": "COMMON"
    },
    {
      "name": "Panampilly Nagar",
      "namelocal": "പനമ്പിള്ളി നഗര്‍",
      "migrationpostofficeid": 2574,
      "officecode": 300142,
      "id": 142,
      "code": "POSTOFFICE_PANAMPILLY_NAGAR",
      "pincode": 682036,
      "distid": 7,
      "distcode": "DISTRICT_7",
      "active": true,
      "type": "COMMON"
    },
    {
      "name": "Poonithura",
      "namelocal": "പൂണിത്തുറ",
      "migrationpostofficeid": 2634,
      "officecode": 300143,
      "id": 143,
      "code": "POSTOFFICE_POONITHURA",
      "pincode": 682038,
      "distid": 7,
      "distcode": "DISTRICT_7",
      "active": true,
      "type": "COMMON"
    },
    {
      "name": "Nazreth",
      "namelocal": "നസ്രേത്ത്",
      "migrationpostofficeid": 2644,
      "officecode": 300144,
      "id": 144,
      "code": "POSTOFFICE_NAZRETH_",
      "pincode": 682507,
      "distid": 7,
      "distcode": "DISTRICT_7",
      "active": true,
      "type": "COMMON"
    },
    {
      "name": "Mundamveli",
      "namelocal": "മുണ്ടംവേലി",
      "migrationpostofficeid": 2645,
      "officecode": 300145,
      "id": 145,
      "code": "POSTOFFICE_MUNDAMVELI_",
      "pincode": 682507,
      "distid": 7,
      "distcode": "DISTRICT_7",
      "active": true,
      "type": "COMMON"
    },
    {
      "name": "Panayappilly",
      "namelocal": "പനയപ്പിള്ളി",
      "migrationpostofficeid": 5022,
      "officecode": 300146,
      "id": 146,
      "code": "POSTOFFICE_PANAYAPPILLY",
      "pincode": 682002,
      "distid": 7,
      "distcode": "DISTRICT_7",
      "active": true,
      "type": "COMMON"
    },
    {
      "name": "Banerji Road",
      "namelocal": "ബാനര്‍ജി റോഡ്",
      "migrationpostofficeid": 5075,
      "officecode": 300147,
      "id": 147,
      "code": "POSTOFFICE_BANERJI_ROAD_",
      "pincode": 682018,
      "distid": 7,
      "distcode": "DISTRICT_7",
      "active": true,
      "type": "COMMON"
    },
    {
      "name": "Dry Dock",
      "namelocal": "ഡ്രൈ ഡോക്ക്",
      "migrationpostofficeid": 5076,
      "officecode": 300148,
      "id": 148,
      "code": "POSTOFFICE_DRY_DOCK_",
      "pincode": 682029,
      "distid": 7,
      "distcode": "DISTRICT_7",
      "active": true,
      "type": "COMMON"
    },
    {
      "name": "Ernakulam Hindi Prachar Sabha",
      "namelocal": "എറണാകുളം ഹിന്ദി പ്രചാര സഭ",
      "migrationpostofficeid": 5078,
      "officecode": 300149,
      "id": 149,
      "code": "POSTOFFICE_ERNAKULAM_HINDI_PRACHAR_SABHA",
      "pincode": 682016,
      "distid": 7,
      "distcode": "DISTRICT_7",
      "active": true,
      "type": "COMMON"
    },
    {
      "name": "Mattancherry",
      "namelocal": "മട്ടാഞ്ചേരി",
      "migrationpostofficeid": 5082,
      "officecode": 300150,
      "id": 150,
      "code": "POSTOFFICE_MATTANCHERRY_",
      "pincode": 682002,
      "distid": 7,
      "distcode": "DISTRICT_7",
      "active": true,
      "type": "COMMON"
    },
    {
      "name": "Mattancherry Bazar",
      "namelocal": "മട്ടാഞ്ചേരി ബസാര്‍",
      "migrationpostofficeid": 5083,
      "officecode": 300151,
      "id": 151,
      "code": "POSTOFFICE_MATTANCHERRY_BAZAR_",
      "pincode": 682002,
      "distid": 7,
      "distcode": "DISTRICT_7",
      "active": true,
      "type": "COMMON"
    },
    {
      "name": "Mattancherry Jetty",
      "namelocal": "മട്ടാഞ്ചേരി ജെട്ടി",
      "migrationpostofficeid": 5084,
      "officecode": 300152,
      "id": 152,
      "code": "POSTOFFICE_MATTANCHERRY_JETTY_",
      "pincode": 682002,
      "distid": 7,
      "distcode": "DISTRICT_7",
      "active": true,
      "type": "COMMON"
    },
    {
      "name": "Mattancherry Town",
      "namelocal": "മട്ടാഞ്ചേരി ടൗണ്‍",
      "migrationpostofficeid": 5085,
      "officecode": 300153,
      "id": 153,
      "code": "POSTOFFICE_MATTANCHERRY_TOWN_",
      "pincode": 682002,
      "distid": 7,
      "distcode": "DISTRICT_7",
      "active": true,
      "type": "COMMON"
    }]
}
